<?xml version='1.0' encoding='utf-8'?>
<kml xmlns="http://www.opengis.net/kml/2.2"><Document><name>Contours near 27.2640°N, 76.2930°E</name><description>Contains modified Copernicus DEM GLO-30 data: © DLR e.V. 2010-2014 and © Airbus Defence and Space GmbH 2014-2018, provided under COPERNICUS by the European Union and ESA. Contour interval 10 m, generated 2026-09-27 by Village Pond Planner. DEM-derived lines, not a field survey.</description><Style id="minor"><LineStyle><color>ff4f7f93</color><width>1</width></LineStyle></Style><Style id="major"><LineStyle><color>ff1d4f63</color><width>2.2</width></LineStyle></Style><Folder><name>Contours 10 m</name><Placemark><name>400 m</name><styleUrl>#major</styleUrl><ExtendedData><Data name="elevation"><value>400</value></Data></ExtendedData><LineString><tessellate>1</tessellate><altitudeMode>clampToGround</altitudeMode><coordinates>76.2838242,27.2460000,400 76.2837618,27.2462373,400 76.2827268,27.2470508,400 76.2829747,27.2472914,400 76.2832785,27.2472622,400 76.2836320,27.2475932,400 76.2833756,27.2486780,400 76.2838861,27.2490970,400 76.2844937,27.2490207,400 76.2846986,27.2492203,400 76.2844937,27.2496030,400 76.2841443,27.2497627,400 76.2840955,27.2500339,400 76.2843857,27.2508475,400 76.2843668,27.2511186,400 76.2838737,27.2513898,400 76.2841899,27.2515856,400 76.2845350,27.2522034,400 76.2844656,27.2524746,400 76.2841899,27.2525556,400 76.2838238,27.2530169,400 76.2841151,27.2532881,400 76.2842358,27.2538305,400 76.2839625,27.2541017,400 76.2834471,27.2551864,400 76.2835823,27.2553066,400 76.2841899,27.2554219,400 76.2841820,27.2557288,400 76.2841126,27.2560000,400 76.2835823,27.2565408,400 76.2837620,27.2568136,400 76.2835823,27.2568958,400 76.2831802,27.2568136,400 76.2833762,27.2570847,400 76.2832867,27.2573559,400 76.2828956,27.2576271,400 76.2829747,27.2579802,400 76.2832785,27.2579511,400 76.2835823,27.2577173,400 76.2839315,27.2578983,400 76.2838533,27.2581695,400 76.2835020,27.2584407,400 76.2832329,27.2589831,400 76.2835180,27.2595254,400 76.2834614,27.2600678,400 76.2831749,27.2603390,400 76.2831444,27.2606102,400 76.2832785,27.2607711,400 76.2834132,27.2614237,400 76.2838861,27.2615089,400 76.2841899,27.2613203,400 76.2844937,27.2616211,400 76.2848437,27.2614237,400 76.2851013,27.2606963,400 76.2857089,27.2604755,400 76.2863165,27.2597023,400 76.2866203,27.2598894,400 76.2865135,27.2595254,400 76.2866773,27.2592542,400 76.2869241,27.2591083,400 76.2872278,27.2590126,400 76.2875316,27.2590747,400 76.2890506,27.2597247,400 76.2891559,27.2592542,400 76.2898687,27.2587119,400 76.2897208,27.2578983,400 76.2899620,27.2573712,400 76.2898569,27.2570847,400 76.2904535,27.2562712,400 76.2907146,27.2554576,400 76.2900513,27.2549153,400 76.2907594,27.2543729,400 76.2908857,27.2538305,400 76.2907945,27.2535593,400 76.2909745,27.2532881,400 76.2909874,27.2527458,400 76.2913164,27.2522034,400 76.2911558,27.2519322,400 76.2912261,27.2511186,400 76.2914810,27.2505415,400 76.2917848,27.2503073,400 76.2920886,27.2504034,400 76.2933038,27.2504137,400 76.2936076,27.2505852,400 76.2948228,27.2517953,400 76.2957342,27.2517586,400 76.2956466,27.2513898,400 76.2957342,27.2510769,400 76.2960380,27.2510004,400 76.2963418,27.2511487,400 76.2966456,27.2510555,400 76.2969494,27.2505918,400 76.2972532,27.2507378,400 76.2975570,27.2505757,400 76.2978608,27.2502104,400 76.2980298,27.2505763,400 76.2977123,27.2508475,400 76.2981646,27.2511265,400 76.2984684,27.2511331,400 76.2988619,27.2508475,400 76.2989444,27.2505763,400 76.2987889,27.2500339,400 76.2988313,27.2497627,400 76.2990759,27.2494178,400 76.2994975,27.2492203,400 76.2993797,27.2489167,400 76.2987722,27.2490697,400 76.2986665,27.2489492,400 76.2987722,27.2488601,400 76.2990759,27.2489257,400 76.2993757,27.2484068,400 76.2992980,27.2478644,400 76.2994028,27.2475932,400 76.2992291,27.2470508,400 76.2992670,27.2467797,400 76.2995105,27.2465085,400 76.2993797,27.2460487,400 76.2992951,27.2460000,400</coordinates></LineString></Placemark><Placemark><name>400 m</name><styleUrl>#major</styleUrl><ExtendedData><Data name="elevation"><value>400</value></Data></ExtendedData><LineString><tessellate>1</tessellate><altitudeMode>clampToGround</altitudeMode><coordinates>76.2915889,27.2460000,400 76.2914810,27.2461302,400 76.2911772,27.2461025,400 76.2911179,27.2460000,400</coordinates></LineString></Placemark><Placemark><name>400 m</name><styleUrl>#major</styleUrl><ExtendedData><Data name="elevation"><value>400</value></Data></ExtendedData><LineString><tessellate>1</tessellate><altitudeMode>clampToGround</altitudeMode><coordinates>76.2989974,27.2462373,400 76.2990759,27.2461037,400 76.2992031,27.2462373,400 76.2989974,27.2462373,400</coordinates></LineString></Placemark><Placemark><name>400 m</name><styleUrl>#major</styleUrl><ExtendedData><Data name="elevation"><value>400</value></Data></ExtendedData><LineString><tessellate>1</tessellate><altitudeMode>clampToGround</altitudeMode><coordinates>76.2858738,27.2532881,400 76.2863165,27.2530799,400 76.2864096,27.2532881,400 76.2863165,27.2533656,400 76.2858738,27.2532881,400</coordinates></LineString></Placemark><Placemark><name>400 m</name><styleUrl>#major</styleUrl><ExtendedData><Data name="elevation"><value>400</value></Data></ExtendedData><LineString><tessellate>1</tessellate><altitudeMode>clampToGround</altitudeMode><coordinates>76.2862774,27.2549153,400 76.2866445,27.2551864,400 76.2863165,27.2553942,400 76.2861711,27.2551864,400 76.2862774,27.2549153,400</coordinates></LineString></Placemark><Placemark><name>400 m</name><styleUrl>#major</styleUrl><ExtendedData><Data name="elevation"><value>400</value></Data></ExtendedData><LineString><tessellate>1</tessellate><altitudeMode>clampToGround</altitudeMode><coordinates>76.2898443,27.2554576,400 76.2899620,27.2553029,400 76.2901220,27.2554576,400 76.2899620,27.2556387,400 76.2898443,27.2554576,400</coordinates></LineString></Placemark><Placemark><name>400 m</name><styleUrl>#major</styleUrl><ExtendedData><Data name="elevation"><value>400</value></Data></ExtendedData><LineString><tessellate>1</tessellate><altitudeMode>clampToGround</altitudeMode><coordinates>76.2826709,27.2567406,400 76.2826709,27.2569170,400 76.2827977,27.2568136,400 76.2826709,27.2567406,400</coordinates></LineString></Placemark><Placemark><name>400 m</name><styleUrl>#major</styleUrl><ExtendedData><Data name="elevation"><value>400</value></Data></ExtendedData><LineString><tessellate>1</tessellate><altitudeMode>clampToGround</altitudeMode><coordinates>76.2841939,27.2570847,400 76.2844937,27.2569279,400 76.2847646,27.2570847,400 76.2844937,27.2574217,400 76.2841939,27.2570847,400</coordinates></LineString></Placemark><Placemark><name>400 m</name><styleUrl>#major</styleUrl><ExtendedData><Data name="elevation"><value>400</value></Data></ExtendedData><LineString><tessellate>1</tessellate><altitudeMode>clampToGround</altitudeMode><coordinates>76.2840053,27.2581695,400 76.2841899,27.2581284,400 76.2844937,27.2582791,400 76.2847863,27.2587119,400 76.2844937,27.2588099,400 76.2843319,27.2587119,400 76.2839760,27.2584407,400 76.2840053,27.2581695,400</coordinates></LineString></Placemark><Placemark><name>400 m</name><styleUrl>#major</styleUrl><ExtendedData><Data name="elevation"><value>400</value></Data></ExtendedData><LineString><tessellate>1</tessellate><altitudeMode>clampToGround</altitudeMode><coordinates>76.2838224,27.2587119,400 76.2838861,27.2586114,400 76.2838861,27.2589586,400 76.2838224,27.2587119,400</coordinates></LineString></Placemark><Placemark><name>400 m</name><styleUrl>#major</styleUrl><ExtendedData><Data name="elevation"><value>400</value></Data></ExtendedData><LineString><tessellate>1</tessellate><altitudeMode>clampToGround</altitudeMode><coordinates>76.2842753,27.2603390,400 76.2844937,27.2602446,400 76.2846268,27.2606102,400 76.2841899,27.2607094,400 76.2837544,27.2606102,400 76.2842753,27.2603390,400</coordinates></LineString></Placemark><Placemark><name>410 m</name><styleUrl>#minor</styleUrl><ExtendedData><Data name="elevation"><value>410</value></Data></ExtendedData><LineString><tessellate>1</tessellate><altitudeMode>clampToGround</altitudeMode><coordinates>76.2750596,27.2460000,410 76.2749432,27.2465085,410 76.2759873,27.2466251,410 76.2762911,27.2463942,410 76.2764614,27.2467797,410 76.2762109,27.2470508,410 76.2761784,27.2473220,410 76.2764962,27.2475932,410 76.2762911,27.2479424,410 76.2756835,27.2478325,410 76.2750759,27.2481530,410 76.2748185,27.2492203,410 76.2752132,27.2511186,410 76.2750759,27.2512212,410 76.2748653,27.2508475,410 76.2746251,27.2508475,410</coordinates></LineString></Placemark><Placemark><name>410 m</name><styleUrl>#minor</styleUrl><ExtendedData><Data name="elevation"><value>410</value></Data></ExtendedData><LineString><tessellate>1</tessellate><altitudeMode>clampToGround</altitudeMode><coordinates>76.2746251,27.2513370,410 76.2747324,27.2516610,410 76.2746251,27.2517004,410</coordinates></LineString></Placemark><Placemark><name>410 m</name><styleUrl>#minor</styleUrl><ExtendedData><Data name="elevation"><value>410</value></Data></ExtendedData><LineString><tessellate>1</tessellate><altitudeMode>clampToGround</altitudeMode><coordinates>76.2923534,27.2611525,410 76.2926136,27.2614237,410 76.2925183,27.2616949,410 76.2923924,27.2617452,410 76.2922247,27.2614237,410 76.2923534,27.2611525,410</coordinates></LineString></Placemark><Placemark><name>410 m</name><styleUrl>#minor</styleUrl><ExtendedData><Data name="elevation"><value>410</value></Data></ExtendedData><LineString><tessellate>1</tessellate><altitudeMode>clampToGround</altitudeMode><coordinates>76.2922932,27.2638644,410 76.2923924,27.2637682,410 76.2926730,27.2638644,410 76.2926493,27.2641356,410 76.2923924,27.2642089,410 76.2922932,27.2638644,410</coordinates></LineString></Placemark><Placemark><name>410 m</name><styleUrl>#minor</styleUrl><ExtendedData><Data name="elevation"><value>410</value></Data></ExtendedData><LineString><tessellate>1</tessellate><altitudeMode>clampToGround</altitudeMode><coordinates>76.2972372,27.2644068,410 76.2972532,27.2642860,410 76.2975016,27.2644068,410 76.2972372,27.2644068,410</coordinates></LineString></Placemark><Placemark><name>410 m</name><styleUrl>#minor</styleUrl><ExtendedData><Data name="elevation"><value>410</value></Data></ExtendedData><LineString><tessellate>1</tessellate><altitudeMode>clampToGround</altitudeMode><coordinates>76.2928373,27.2646780,410 76.2930000,27.2645553,410 76.2947048,27.2652203,410 76.2947973,27.2654915,410 76.2945190,27.2659586,410 76.2942152,27.2660296,410 76.2936076,27.2665222,410 76.2930258,27.2663051,410 76.2928715,27.2657627,410 76.2926276,27.2654915,410 76.2926530,27.2649492,410 76.2928373,27.2646780,410</coordinates></LineString></Placemark><Placemark><name>410 m</name><styleUrl>#minor</styleUrl><ExtendedData><Data name="elevation"><value>410</value></Data></ExtendedData><LineString><tessellate>1</tessellate><altitudeMode>clampToGround</altitudeMode><coordinates>76.2901053,27.2698305,410 76.2902658,27.2697534,410 76.2908526,27.2698305,410 76.2906606,27.2701017,410 76.2902658,27.2701710,410 76.2901411,27.2701017,410 76.2901053,27.2698305,410</coordinates></LineString></Placemark><Placemark><name>410 m</name><styleUrl>#minor</styleUrl><ExtendedData><Data name="elevation"><value>410</value></Data></ExtendedData><LineString><tessellate>1</tessellate><altitudeMode>clampToGround</altitudeMode><coordinates>76.2926962,27.2724982,410 76.2924494,27.2725424,410 76.2926962,27.2727640,410 76.2928265,27.2725424,410 76.2926962,27.2724982,410</coordinates></LineString></Placemark><Placemark><name>410 m</name><styleUrl>#minor</styleUrl><ExtendedData><Data name="elevation"><value>410</value></Data></ExtendedData><LineString><tessellate>1</tessellate><altitudeMode>clampToGround</altitudeMode><coordinates>76.2818133,27.2776949,410 76.2820633,27.2774398,410 76.2824620,27.2776949,410 76.2820872,27.2782373,410 76.2821577,27.2785085,410 76.2817595,27.2786267,410 76.2813710,27.2785085,410 76.2813247,27.2782373,410 76.2817373,27.2779661,410 76.2818133,27.2776949,410</coordinates></LineString></Placemark><Placemark><name>410 m</name><styleUrl>#minor</styleUrl><ExtendedData><Data name="elevation"><value>410</value></Data></ExtendedData><LineString><tessellate>1</tessellate><altitudeMode>clampToGround</altitudeMode><coordinates>76.2773688,27.2814915,410 76.2778101,27.2813833,410 76.2784177,27.2814201,410 76.2787215,27.2816117,410 76.2788472,27.2820000,410</coordinates></LineString></Placemark><Placemark><name>410 m</name><styleUrl>#minor</styleUrl><ExtendedData><Data name="elevation"><value>410</value></Data></ExtendedData><LineString><tessellate>1</tessellate><altitudeMode>clampToGround</altitudeMode><coordinates>76.2781241,27.2820000,410 76.2775063,27.2817988,410 76.2773688,27.2814915,410</coordinates></LineString></Placemark><Placemark><name>410 m</name><styleUrl>#minor</styleUrl><ExtendedData><Data name="elevation"><value>410</value></Data></ExtendedData><LineString><tessellate>1</tessellate><altitudeMode>clampToGround</altitudeMode><coordinates>76.2801993,27.2814915,410 76.2808481,27.2814550,410 76.2810900,27.2817627,410 76.2802405,27.2819802,410 76.2799252,27.2817627,410 76.2801993,27.2814915,410</coordinates></LineString></Placemark><Placemark><name>410 m</name><styleUrl>#minor</styleUrl><ExtendedData><Data name="elevation"><value>410</value></Data></ExtendedData><LineString><tessellate>1</tessellate><altitudeMode>clampToGround</altitudeMode><coordinates>76.2842024,27.2820000,410 76.2838861,27.2815012,410 76.2834933,27.2814915,410 76.2842500,27.2814915,410 76.2843436,27.2809492,410 76.2846198,27.2806780,410 76.2846842,27.2804068,410 76.2843115,27.2798644,410 76.2841611,27.2790508,410 76.2843438,27.2787797,410 76.2841161,27.2785085,410 76.2844420,27.2779661,410 76.2844446,27.2776949,410 76.2839846,27.2771525,410 76.2838652,27.2766102,410 76.2839644,27.2757966,410 76.2837067,27.2744407,410 76.2838554,27.2741695,410 76.2837877,27.2738983,410 76.2838968,27.2736271,410 76.2838056,27.2730847,410 76.2841899,27.2728340,410 76.2844937,27.2727752,410 76.2851013,27.2728675,410 76.2857089,27.2725251,410 76.2860127,27.2726706,410 76.2861016,27.2722712,410 76.2858783,27.2706441,410 76.2859725,27.2703729,410 76.2863165,27.2703711,410 76.2867469,27.2706441,410 76.2874528,27.2714576,410 76.2875685,27.2717288,410 76.2874887,27.2722712,410 76.2878354,27.2729538,410 76.2881392,27.2732870,410 76.2886391,27.2733559,410 76.2893544,27.2740212,410 76.2896582,27.2740969,410 76.2902591,27.2749831,410 76.2905696,27.2750545,410 76.2908356,27.2749831,410 76.2908734,27.2746658,410 76.2911772,27.2747466,410 76.2914810,27.2752678,410 76.2917848,27.2754785,410 76.2920767,27.2752542,410 76.2914810,27.2746877,410 76.2912369,27.2741695,410 76.2914460,27.2738983,410 76.2913217,27.2730847,410 76.2914884,27.2728136,410 76.2923157,27.2725424,410 76.2920886,27.2725063,410 76.2919162,27.2722712,410 76.2919583,27.2717288,410 76.2917848,27.2711041,410 76.2911798,27.2706441,410 76.2917848,27.2702337,410 76.2923977,27.2695593,410 76.2925974,27.2684746,410 76.2924347,27.2682034,410 76.2924608,27.2679322,410 76.2926683,27.2673898,410 76.2931040,27.2671186,410 76.2929588,27.2668475,410 76.2939114,27.2669605,410 76.2942152,27.2675884,410 76.2945190,27.2677811,410 76.2951266,27.2676652,410 76.2955731,27.2673898,410 76.2960380,27.2672947,410 76.2966370,27.2668475,410 76.2976319,27.2657627,410 76.2978372,27.2652203,410 76.2975083,27.2646780,410 76.2981636,27.2633220,410 76.2979004,27.2627797,410 76.2979372,27.2625085,410 76.2981935,27.2622373,410 76.2986455,27.2608814,410 76.2986431,27.2606102,410 76.2980909,27.2603390,410 76.2988886,27.2595254,410 76.2993242,27.2592542,410 76.2993797,27.2585137,410 76.2999873,27.2579079,410 76.3002911,27.2579457,410 76.3012025,27.2574893,410 76.3015063,27.2574726,410 76.3024177,27.2580369,410 76.3033291,27.2584307,410 76.3039367,27.2584145,410 76.3042405,27.2586596,410 76.3044666,27.2584407,410 76.3041849,27.2581695,410 76.3041834,27.2576271,410 76.3039367,27.2571023,410 76.3036329,27.2572452,410 76.3034336,27.2570847,410 76.3034406,27.2568136,410 76.3036329,27.2565876,410 76.3039367,27.2566548,410 76.3040152,27.2562712,410 76.3039367,27.2561907,410 76.3037546,27.2562712,410 76.3036329,27.2564544,410 76.3034010,27.2562712,410 76.3036239,27.2557288,410 76.3036893,27.2551864,410 76.3038608,27.2549153,410 76.3036727,27.2543729,410 76.3036283,27.2535593,410 76.3037346,27.2532881,410 76.3036140,27.2530169,410 76.3039883,27.2524746,410 76.3038546,27.2522034,410 76.3038917,27.2513898,410 76.3042405,27.2511438,410 76.3044819,27.2505763,410 76.3042405,27.2501486,410 76.3040335,27.2500339,410 76.3041228,27.2497627,410 76.3046906,27.2489492,410 76.3048481,27.2488255,410 76.3057265,27.2486780,410 76.3057601,27.2484068,410 76.3038657,27.2470508,410 76.3032887,27.2460000,410</coordinates></LineString></Placemark><Placemark><name>420 m</name><styleUrl>#minor</styleUrl><ExtendedData><Data name="elevation"><value>420</value></Data></ExtendedData><LineString><tessellate>1</tessellate><altitudeMode>clampToGround</altitudeMode><coordinates>76.3071668,27.2630508,420 76.3072785,27.2629529,420 76.3074360,27.2630508,420 76.3072785,27.2631887,420 76.3071668,27.2630508,420</coordinates></LineString></Placemark><Placemark><name>420 m</name><styleUrl>#minor</styleUrl><ExtendedData><Data name="elevation"><value>420</value></Data></ExtendedData><LineString><tessellate>1</tessellate><altitudeMode>clampToGround</altitudeMode><coordinates>76.3087975,27.2633554,420 76.3083400,27.2638644,420 76.3084937,27.2643600,420 76.3091604,27.2638644,420 76.3087975,27.2633554,420</coordinates></LineString></Placemark><Placemark><name>420 m</name><styleUrl>#minor</styleUrl><ExtendedData><Data name="elevation"><value>420</value></Data></ExtendedData><LineString><tessellate>1</tessellate><altitudeMode>clampToGround</altitudeMode><coordinates>76.2867761,27.2747119,420 76.2872278,27.2745275,420 76.2882453,27.2749831,420 76.2887237,27.2757966,420 76.2887814,27.2766102,420 76.2883590,27.2779661,420 76.2884965,27.2785085,420 76.2884430,27.2787628,420 76.2878354,27.2788632,420 76.2872359,27.2793220,420 76.2869241,27.2794095,420 76.2866507,27.2787797,420 76.2868186,27.2776949,420 76.2866203,27.2770765,420 76.2863180,27.2766102,420 76.2864067,27.2755254,420 76.2867761,27.2747119,420</coordinates></LineString></Placemark><Placemark><name>420 m</name><styleUrl>#minor</styleUrl><ExtendedData><Data name="elevation"><value>420</value></Data></ExtendedData><LineString><tessellate>1</tessellate><altitudeMode>clampToGround</altitudeMode><coordinates>76.2949178,27.2779661,420 76.2951266,27.2778580,420 76.2952138,27.2779661,420 76.2951266,27.2782430,420 76.2949178,27.2779661,420</coordinates></LineString></Placemark><Placemark><name>420 m</name><styleUrl>#minor</styleUrl><ExtendedData><Data name="elevation"><value>420</value></Data></ExtendedData><LineString><tessellate>1</tessellate><altitudeMode>clampToGround</altitudeMode><coordinates>76.2932431,27.2785085,420 76.2939114,27.2783814,420 76.2941404,27.2785085,420 76.2941571,27.2787797,420 76.2939114,27.2792523,420 76.2930000,27.2789609,420 76.2929120,27.2787797,420 76.2932431,27.2785085,420</coordinates></LineString></Placemark><Placemark><name>420 m</name><styleUrl>#minor</styleUrl><ExtendedData><Data name="elevation"><value>420</value></Data></ExtendedData><LineString><tessellate>1</tessellate><altitudeMode>clampToGround</altitudeMode><coordinates>76.2898619,27.2801356,420 76.2900626,27.2801356,420</coordinates></LineString></Placemark><Placemark><name>420 m</name><styleUrl>#minor</styleUrl><ExtendedData><Data name="elevation"><value>420</value></Data></ExtendedData><LineString><tessellate>1</tessellate><altitudeMode>clampToGround</altitudeMode><coordinates>76.2901575,27.2804068,420 76.2902658,27.2802564,420 76.2905696,27.2803776,420 76.2914810,27.2802294,420 76.2917848,27.2805474,420 76.2923924,27.2804235,420 76.2927350,27.2806780,420 76.2930406,27.2812203,420 76.2930000,27.2814192,420 76.2913729,27.2820000,420</coordinates></LineString></Placemark><Placemark><name>420 m</name><styleUrl>#minor</styleUrl><ExtendedData><Data name="elevation"><value>420</value></Data></ExtendedData><LineString><tessellate>1</tessellate><altitudeMode>clampToGround</altitudeMode><coordinates>76.2908546,27.2820000,420 76.2902658,27.2818725,420 76.2899620,27.2817016,420 76.2896582,27.2818004,420 76.2892483,27.2817627,420 76.2891500,27.2814915,420 76.2893544,27.2813508,420 76.2899620,27.2813515,420 76.2901549,27.2812203,420 76.2898238,27.2806780,420 76.2901575,27.2804068,420</coordinates></LineString></Placemark><Placemark><name>420 m</name><styleUrl>#minor</styleUrl><ExtendedData><Data name="elevation"><value>420</value></Data></ExtendedData><LineString><tessellate>1</tessellate><altitudeMode>clampToGround</altitudeMode><coordinates>76.2905696,27.2813280,420 76.2903362,27.2814915,420 76.2905696,27.2815513,420 76.2905696,27.2813280,420</coordinates></LineString></Placemark><Placemark><name>420 m</name><styleUrl>#minor</styleUrl><ExtendedData><Data name="elevation"><value>420</value></Data></ExtendedData><LineString><tessellate>1</tessellate><altitudeMode>clampToGround</altitudeMode><coordinates>76.2932690,27.2817627,420 76.2932929,27.2820000,420</coordinates></LineString></Placemark><Placemark><name>420 m</name><styleUrl>#minor</styleUrl><ExtendedData><Data name="elevation"><value>420</value></Data></ExtendedData><LineString><tessellate>1</tessellate><altitudeMode>clampToGround</altitudeMode><coordinates>76.2954337,27.2820000,420 76.2957276,27.2814915,420 76.2954301,27.2812203,420 76.2958612,27.2809492,420 76.2957334,27.2804068,420 76.2958327,27.2801356,420 76.2957425,27.2795932,420 76.2960380,27.2792408,420 76.2975570,27.2789160,420 76.2976982,27.2787797,420 76.2978297,27.2779661,420 76.2979885,27.2776949,420 76.2975570,27.2771148,420 76.2975280,27.2760678,420 76.2978658,27.2752542,420 76.2980134,27.2749831,420 76.2995246,27.2741695,420 76.2995602,27.2736271,420 76.3001311,27.2728136,420 76.3015063,27.2715729,420 76.3018608,27.2709153,420 76.3024050,27.2706441,420 76.3023119,27.2695593,420 76.3014886,27.2684746,420 76.3015063,27.2677286,420 76.3001146,27.2665763,420 76.3000180,27.2657627,420 76.3000938,27.2654915,420 76.3003701,27.2652203,420 76.3005949,27.2647333,420 76.3009615,27.2644068,420 76.3003414,27.2635932,420 76.3002911,27.2632630,420 76.3005949,27.2628622,420 76.3012025,27.2629025,420 76.3014882,27.2627797,420 76.3008987,27.2624477,420 76.3006127,27.2619661,420 76.3010218,27.2608814,420 76.3015063,27.2604624,420 76.3019821,27.2597966,420 76.3024177,27.2596515,420 76.3030253,27.2598416,420 76.3037448,27.2603390,420 76.3044694,27.2611525,420 76.3048481,27.2618053,420 76.3051914,27.2619661,420 76.3057595,27.2626283,420 76.3075074,27.2635932,420 76.3075823,27.2641865,420 76.3083325,27.2635932,420 76.3083448,27.2633220,420 76.3084937,27.2632470,420 76.3087975,27.2633077,420 76.3091013,27.2629480,420 76.3094051,27.2631183,420 76.3097089,27.2631187,420 76.3102224,27.2627797,420 76.3110632,27.2614237,420 76.3109819,27.2606102,420 76.3100127,27.2599858,420 76.3097089,27.2599001,420 76.3093954,27.2600678,420 76.3090449,27.2592542,420 76.3081899,27.2583220,420 76.3073614,27.2576271,420 76.3069151,27.2568136,420 76.3066909,27.2560000,420 76.3068659,27.2546441,420 76.3066975,27.2538305,420 76.3070697,27.2532881,420 76.3070450,27.2530169,420 76.3075100,27.2522034,420 76.3072103,27.2516610,420 76.3066709,27.2513668,420 76.3065046,27.2511186,420 76.3063407,27.2505763,420 76.3058394,27.2497627,420 76.3058115,27.2494915,420 76.3060633,27.2493070,420 76.3063671,27.2492855,420 76.3066709,27.2494670,420 76.3069747,27.2500887,420 76.3075823,27.2503546,420 76.3081899,27.2511354,420 76.3087975,27.2509088,420 76.3093046,27.2503051,420 76.3091189,27.2486780,420 76.3084762,27.2481356,420 76.3085370,27.2478644,420 76.3089522,27.2473220,420 76.3088673,27.2470508,420 76.3084937,27.2466077,420 76.3078861,27.2469278,420 76.3072785,27.2469112,420 76.3066709,27.2466202,420 76.3054557,27.2468730,420 76.3052519,27.2467797,420 76.3051519,27.2464514,420 76.3043198,27.2460000,420</coordinates></LineString></Placemark><Placemark><name>430 m</name><styleUrl>#minor</styleUrl><ExtendedData><Data name="elevation"><value>430</value></Data></ExtendedData><LineString><tessellate>1</tessellate><altitudeMode>clampToGround</altitudeMode><coordinates>76.3112769,27.2698305,430 76.3113749,27.2697767,430</coordinates></LineString></Placemark><Placemark><name>430 m</name><styleUrl>#minor</styleUrl><ExtendedData><Data name="elevation"><value>430</value></Data></ExtendedData><LineString><tessellate>1</tessellate><altitudeMode>clampToGround</altitudeMode><coordinates>76.3113749,27.2698660,430 76.3112769,27.2698305,430</coordinates></LineString></Placemark><Placemark><name>430 m</name><styleUrl>#minor</styleUrl><ExtendedData><Data name="elevation"><value>430</value></Data></ExtendedData><LineString><tessellate>1</tessellate><altitudeMode>clampToGround</altitudeMode><coordinates>76.2870246,27.2752542,430 76.2872278,27.2750412,430 76.2875316,27.2750521,430 76.2878354,27.2753124,430 76.2881747,27.2760678,430 76.2878354,27.2773552,430 76.2875316,27.2775745,430 76.2872278,27.2772982,430 76.2870331,27.2768814,430 76.2869459,27.2760678,430 76.2870246,27.2752542,430</coordinates></LineString></Placemark><Placemark><name>430 m</name><styleUrl>#minor</styleUrl><ExtendedData><Data name="elevation"><value>430</value></Data></ExtendedData><LineString><tessellate>1</tessellate><altitudeMode>clampToGround</altitudeMode><coordinates>76.3006713,27.2820000,430 76.3002911,27.2819753,430 76.3000259,27.2817627,430 76.3001016,27.2809492,430 76.3003469,27.2806780,430 76.3000625,27.2801356,430 76.2999323,27.2795932,430 76.2999832,27.2793220,430 76.3003274,27.2787797,430 76.3006107,27.2776949,430 76.3009256,27.2774237,430 76.3020611,27.2768814,430 76.3022905,27.2766102,430 76.3021002,27.2763390,430 76.3008987,27.2759426,430 76.3005471,27.2755254,430 76.3007041,27.2752542,430 76.3012025,27.2748600,430 76.3015063,27.2747282,430 76.3021139,27.2747387,430 76.3020226,27.2741695,430 76.3027215,27.2735024,430 76.3033566,27.2733559,430 76.3042693,27.2720000,430 76.3039376,27.2711864,430 76.3038998,27.2706441,430 76.3040590,27.2703729,430 76.3040381,27.2701017,430 76.3043095,27.2698305,430 76.3043647,27.2695593,430 76.3036329,27.2692610,430 76.3030561,27.2687458,430 76.3028158,27.2679322,430 76.3028441,27.2671186,430 76.3027215,27.2667185,430 76.3024177,27.2665823,430 76.3015063,27.2664860,430 76.3011705,27.2663051,430 76.3011426,27.2660339,430 76.3016769,27.2654915,430 76.3016994,27.2649492,430 76.3027415,27.2641356,430 76.3026289,27.2638644,430 76.3018101,27.2637678,430 76.3015834,27.2635932,430 76.3021139,27.2631372,430 76.3029991,27.2627797,430 76.3028505,27.2619661,430 76.3024177,27.2617152,430 76.3021139,27.2616872,430 76.3017797,27.2614237,430 76.3019629,27.2608814,430 76.3024177,27.2604001,430 76.3027215,27.2603490,430 76.3030253,27.2605096,430 76.3033878,27.2611525,430 76.3036329,27.2613562,430 76.3039578,27.2614237,430 76.3041560,27.2616949,430 76.3040785,27.2625085,430 76.3042254,27.2627797,430 76.3048481,27.2631627,430 76.3051519,27.2639795,430 76.3055853,27.2644068,430 76.3057047,27.2649492,430 76.3061172,27.2654915,430 76.3059733,27.2657627,430 76.3062616,27.2676610,430 76.3072785,27.2696241,430 76.3075823,27.2696119,430 76.3078861,27.2694269,430 76.3084937,27.2694596,430 76.3093386,27.2701017,430 76.3100970,27.2703729,430 76.3097089,27.2710507,430 76.3093016,27.2714576,430 76.3097089,27.2718339,430 76.3103870,27.2720000,430 76.3099818,27.2725424,430 76.3102243,27.2730847,430 76.3106203,27.2729834,430 76.3110841,27.2730847,430 76.3112278,27.2733601,430 76.3113749,27.2734207,430</coordinates></LineString></Placemark><Placemark><name>430 m</name><styleUrl>#minor</styleUrl><ExtendedData><Data name="elevation"><value>430</value></Data></ExtendedData><LineString><tessellate>1</tessellate><altitudeMode>clampToGround</altitudeMode><coordinates>76.3113749,27.2731365,430 76.3112670,27.2730847,430 76.3113749,27.2730120,430</coordinates></LineString></Placemark><Placemark><name>430 m</name><styleUrl>#minor</styleUrl><ExtendedData><Data name="elevation"><value>430</value></Data></ExtendedData><LineString><tessellate>1</tessellate><altitudeMode>clampToGround</altitudeMode><coordinates>76.3113749,27.2575917,430 76.3106203,27.2573179,430 76.3098816,27.2568136,430 76.3093663,27.2560000,430 76.3091643,27.2551864,430 76.3092152,27.2543729,430 76.3097089,27.2533285,430 76.3111532,27.2522034,430 76.3111426,27.2503051,430 76.3110024,27.2492203,430 76.3107846,27.2484068,430 76.3105930,27.2481356,430 76.3108088,27.2473220,430 76.3105520,27.2467797,430 76.3105398,27.2460000,430</coordinates></LineString></Placemark><Placemark><name>440 m</name><styleUrl>#minor</styleUrl><ExtendedData><Data name="elevation"><value>440</value></Data></ExtendedData><LineString><tessellate>1</tessellate><altitudeMode>clampToGround</altitudeMode><coordinates>76.3033562,27.2638644,440 76.3036329,27.2636391,440 76.3039367,27.2636465,440 76.3042636,27.2638644,440 76.3046778,27.2646780,440 76.3047481,27.2649492,440 76.3046406,27.2657627,440 76.3052873,27.2676610,440 76.3052940,27.2682034,440 76.3056233,27.2687458,440 76.3054557,27.2690914,440 76.3048481,27.2690621,440 76.3038655,27.2687458,440 76.3035611,27.2682034,440 76.3033873,27.2668475,440 76.3031578,27.2663051,440 76.3028091,27.2660339,440 76.3024177,27.2659759,440 76.3021968,27.2657627,440 76.3023556,27.2649492,440 76.3032694,27.2641356,440 76.3033562,27.2638644,440</coordinates></LineString></Placemark><Placemark><name>440 m</name><styleUrl>#minor</styleUrl><ExtendedData><Data name="elevation"><value>440</value></Data></ExtendedData><LineString><tessellate>1</tessellate><altitudeMode>clampToGround</altitudeMode><coordinates>76.2873165,27.2755254,440 76.2875316,27.2754148,440 76.2878261,27.2760678,440 76.2878053,27.2763390,440 76.2875316,27.2768209,440 76.2872713,27.2763390,440 76.2873165,27.2755254,440</coordinates></LineString></Placemark><Placemark><name>440 m</name><styleUrl>#minor</styleUrl><ExtendedData><Data name="elevation"><value>440</value></Data></ExtendedData><LineString><tessellate>1</tessellate><altitudeMode>clampToGround</altitudeMode><coordinates>76.3030628,27.2820000,440 76.3047703,27.2809492,440 76.3045443,27.2807468,440 76.3033291,27.2808632,440 76.3012025,27.2805446,440 76.3008601,27.2801356,440 76.3008411,27.2798644,440 76.3011314,27.2787797,440 76.3011156,27.2782373,440 76.3013252,27.2779661,440 76.3018101,27.2776575,440 76.3027215,27.2778193,440 76.3039367,27.2773339,440 76.3045443,27.2769743,440 76.3057549,27.2768814,440 76.3059163,27.2766102,440 76.3058917,27.2763390,440 76.3057595,27.2762601,440 76.3045443,27.2760150,440 76.3039367,27.2756607,440 76.3034795,27.2757966,440 76.3033291,27.2760687,440 76.3030127,27.2760678,440 76.3032061,27.2757966,440 76.3029728,27.2752542,440 76.3030259,27.2747119,440 76.3033291,27.2743696,440 76.3039367,27.2744604,440 76.3045966,27.2733559,440 76.3045528,27.2728136,440 76.3046850,27.2725424,440 76.3050645,27.2722712,440 76.3050347,27.2720000,440 76.3045443,27.2714401,440 76.3044438,27.2711864,440 76.3045443,27.2709850,440 76.3051519,27.2703061,440 76.3057595,27.2702805,440 76.3060633,27.2705710,440 76.3064458,27.2714576,440 76.3065417,27.2722712,440 76.3069142,27.2730847,440 76.3072785,27.2735235,440 76.3076039,27.2736271,440 76.3076455,27.2741695,440 76.3078868,27.2747119,440 76.3076260,27.2752542,440 76.3076849,27.2755254,440 76.3081899,27.2756334,440 76.3084937,27.2759105,440 76.3106737,27.2771525,440 76.3109241,27.2774183,440 76.3109886,27.2776949,440 76.3107764,27.2782373,440 76.3109241,27.2784808,440 76.3113749,27.2782948,440</coordinates></LineString></Placemark><Placemark><name>440 m</name><styleUrl>#minor</styleUrl><ExtendedData><Data name="elevation"><value>440</value></Data></ExtendedData><LineString><tessellate>1</tessellate><altitudeMode>clampToGround</altitudeMode><coordinates>76.3113749,27.2555948,440 76.3112278,27.2554940,440 76.3110437,27.2549153,440 76.3110410,27.2546441,440 76.3113749,27.2541657,440</coordinates></LineString></Placemark><Placemark><name>440 m</name><styleUrl>#minor</styleUrl><ExtendedData><Data name="elevation"><value>440</value></Data></ExtendedData><LineString><tessellate>1</tessellate><altitudeMode>clampToGround</altitudeMode><coordinates>76.3113749,27.2476966,440 76.3112948,27.2460000,440</coordinates></LineString></Placemark><Placemark><name>450 m</name><styleUrl>#major</styleUrl><ExtendedData><Data name="elevation"><value>450</value></Data></ExtendedData><LineString><tessellate>1</tessellate><altitudeMode>clampToGround</altitudeMode><coordinates>76.3035826,27.2644068,450 76.3039367,27.2644182,450 76.3041817,27.2649492,450 76.3041323,27.2657627,450 76.3046949,27.2673898,450 76.3046430,27.2682034,450 76.3049309,27.2684746,450 76.3048481,27.2686752,450 76.3043173,27.2684746,450 76.3041349,27.2682034,450 76.3038530,27.2673898,450 76.3038041,27.2665763,450 76.3036145,27.2660339,450 76.3028014,27.2654915,450 76.3027331,27.2652203,450 76.3028413,27.2649492,450 76.3035826,27.2644068,450</coordinates></LineString></Placemark><Placemark><name>450 m</name><styleUrl>#major</styleUrl><ExtendedData><Data name="elevation"><value>450</value></Data></ExtendedData><LineString><tessellate>1</tessellate><altitudeMode>clampToGround</altitudeMode><coordinates>76.3050942,27.2714576,450 76.3051519,27.2712743,450 76.3054557,27.2713376,450 76.3055833,27.2714576,450 76.3055354,27.2717288,450 76.3050942,27.2714576,450</coordinates></LineString></Placemark><Placemark><name>450 m</name><styleUrl>#major</styleUrl><ExtendedData><Data name="elevation"><value>450</value></Data></ExtendedData><LineString><tessellate>1</tessellate><altitudeMode>clampToGround</altitudeMode><coordinates>76.3050087,27.2728136,450 76.3054557,27.2726002,450 76.3057595,27.2726937,450 76.3062977,27.2738983,450 76.3063193,27.2744407,450 76.3061200,27.2747119,450 76.3063261,27.2752542,450 76.3061667,27.2755254,450 76.3057595,27.2757075,450 76.3051519,27.2757031,450 76.3048481,27.2754782,450 76.3041235,27.2752542,450 76.3039984,27.2749831,450 76.3045443,27.2739808,450 76.3049329,27.2736271,450 76.3050087,27.2728136,450</coordinates></LineString></Placemark><Placemark><name>450 m</name><styleUrl>#major</styleUrl><ExtendedData><Data name="elevation"><value>450</value></Data></ExtendedData><LineString><tessellate>1</tessellate><altitudeMode>clampToGround</altitudeMode><coordinates>76.3066150,27.2768814,450 76.3069747,27.2766232,450 76.3075823,27.2767173,450 76.3081550,27.2771525,450 76.3083378,27.2774237,450 76.3084749,27.2782373,450 76.3083128,27.2793220,450 76.3079905,27.2798644,450 76.3082908,27.2804068,450 76.3082453,27.2806780,450 76.3073713,27.2817627,450 76.3074171,27.2820000,450</coordinates></LineString></Placemark><Placemark><name>450 m</name><styleUrl>#major</styleUrl><ExtendedData><Data name="elevation"><value>450</value></Data></ExtendedData><LineString><tessellate>1</tessellate><altitudeMode>clampToGround</altitudeMode><coordinates>76.3039793,27.2820000,450 76.3042405,27.2818293,450 76.3054557,27.2815311,450 76.3059214,27.2812203,450 76.3057917,27.2801356,450 76.3054557,27.2798782,450 76.3051519,27.2798610,450 76.3045443,27.2800918,450 76.3039367,27.2801233,450 76.3036329,27.2804531,450 76.3033291,27.2805387,450 76.3027215,27.2803720,450 76.3015063,27.2803144,450 76.3012590,27.2801356,450 76.3012232,27.2798644,450 76.3014640,27.2790508,450 76.3014815,27.2785085,450 76.3018101,27.2780816,450 76.3027215,27.2783005,450 76.3030229,27.2782373,450 76.3036329,27.2777735,450 76.3042405,27.2777425,450 76.3048481,27.2773049,450 76.3060633,27.2774049,450 76.3063671,27.2772931,450 76.3066150,27.2768814,450</coordinates></LineString></Placemark><Placemark><name>460 m</name><styleUrl>#minor</styleUrl><ExtendedData><Data name="elevation"><value>460</value></Data></ExtendedData><LineString><tessellate>1</tessellate><altitudeMode>clampToGround</altitudeMode><coordinates>76.3036109,27.2649492,460 76.3036329,27.2653161,460 76.3033291,27.2652332,460 76.3036109,27.2649492,460</coordinates></LineString></Placemark><Placemark><name>460 m</name><styleUrl>#minor</styleUrl><ExtendedData><Data name="elevation"><value>460</value></Data></ExtendedData><LineString><tessellate>1</tessellate><altitudeMode>clampToGround</altitudeMode><coordinates>76.3050975,27.2738983,460 76.3054557,27.2736344,460 76.3057662,27.2738983,460 76.3057595,27.2743693,460 76.3054557,27.2748371,460 76.3051519,27.2750289,460 76.3046856,27.2749831,460 76.3045443,27.2748670,460 76.3045443,27.2746376,460 76.3047786,27.2741695,460 76.3050975,27.2738983,460</coordinates></LineString></Placemark><Placemark><name>460 m</name><styleUrl>#minor</styleUrl><ExtendedData><Data name="elevation"><value>460</value></Data></ExtendedData><LineString><tessellate>1</tessellate><altitudeMode>clampToGround</altitudeMode><coordinates>76.3072258,27.2771525,460 76.3075823,27.2772355,460 76.3077934,27.2774237,460 76.3079668,27.2776949,460 76.3079729,27.2779661,460 76.3075823,27.2785803,460 76.3066418,27.2790508,460 76.3063671,27.2796016,460 76.3054557,27.2794859,460 76.3051519,27.2795146,460 76.3045443,27.2798180,460 76.3039367,27.2797380,460 76.3033291,27.2802295,460 76.3027215,27.2801160,460 76.3018101,27.2801550,460 76.3015464,27.2798644,460 76.3018212,27.2787797,460 76.3019989,27.2785085,460 76.3030253,27.2785951,460 76.3036329,27.2780572,460 76.3045443,27.2780145,460 76.3048481,27.2776430,460 76.3060633,27.2777305,460 76.3072258,27.2771525,460</coordinates></LineString></Placemark><Placemark><name>460 m</name><styleUrl>#minor</styleUrl><ExtendedData><Data name="elevation"><value>460</value></Data></ExtendedData><LineString><tessellate>1</tessellate><altitudeMode>clampToGround</altitudeMode><coordinates>76.3045430,27.2820000,460 76.3048481,27.2819282,460 76.3051519,27.2819750,460 76.3052106,27.2820000,460</coordinates></LineString></Placemark><Placemark><name>470 m</name><styleUrl>#minor</styleUrl><ExtendedData><Data name="elevation"><value>470</value></Data></ExtendedData><LineString><tessellate>1</tessellate><altitudeMode>clampToGround</altitudeMode><coordinates>76.3069095,27.2776949,470 76.3072785,27.2775736,470 76.3075100,27.2776949,470 76.3075823,27.2780720,470 76.3061541,27.2787797,470 76.3057595,27.2791399,470 76.3045443,27.2795368,470 76.3039367,27.2794422,470 76.3036329,27.2795384,470 76.3033291,27.2798146,470 76.3020166,27.2798644,470 76.3019211,27.2795932,470 76.3019991,27.2793220,470 76.3021139,27.2790057,470 76.3023910,27.2787797,470 76.3030253,27.2788604,470 76.3036329,27.2783380,470 76.3039367,27.2782121,470 76.3045443,27.2783013,470 76.3051519,27.2779305,470 76.3060633,27.2780321,470 76.3069095,27.2776949,470</coordinates></LineString></Placemark><Placemark><name>480 m</name><styleUrl>#minor</styleUrl><ExtendedData><Data name="elevation"><value>480</value></Data></ExtendedData><LineString><tessellate>1</tessellate><altitudeMode>clampToGround</altitudeMode><coordinates>76.3053880,27.2782373,480 76.3057595,27.2783173,480 76.3059076,27.2785085,480 76.3054557,27.2789698,480 76.3045443,27.2792210,480 76.3036329,27.2791396,480 76.3030253,27.2795607,480 76.3028054,27.2795932,480 76.3024477,27.2793220,480 76.3027215,27.2791147,480 76.3030253,27.2791562,480 76.3033291,27.2790477,480 76.3039367,27.2784732,480 76.3048481,27.2785387,480 76.3053880,27.2782373,480</coordinates></LineString></Placemark></Folder></Document></kml>