<?xml version='1.0' encoding='utf-8'?>
<kml xmlns="http://www.opengis.net/kml/2.2"><Document><name>Contours near 21.2925°N, 80.8565°E</name><description>Contains modified Copernicus DEM GLO-30 data: © DLR e.V. 2010-2014 and © Airbus Defence and Space GmbH 2014-2018, provided under COPERNICUS by the European Union and ESA. Contour interval 20 m, generated 2026-09-27 by Village Pond Planner. DEM-derived lines, not a field survey.</description><Style id="minor"><LineStyle><color>ff4f7f93</color><width>1</width></LineStyle></Style><Style id="major"><LineStyle><color>ff1d4f63</color><width>2.2</width></LineStyle></Style><Folder><name>Contours 20 m</name><Placemark><name>360 m</name><styleUrl>#minor</styleUrl><ExtendedData><Data name="elevation"><value>360</value></Data></ExtendedData><LineString><tessellate>1</tessellate><altitudeMode>clampToGround</altitudeMode><coordinates>80.8575598,21.2707800,360 80.8576164,21.2716596,360 80.8573809,21.2727422,360 80.8574682,21.2735542,360 80.8571940,21.2738249,360 80.8572249,21.2741159,360 80.8576525,21.2743662,360 80.8577941,21.2746368,360 80.8576835,21.2751781,360 80.8580947,21.2753065,360 80.8583847,21.2756283,360 80.8586746,21.2753579,360 80.8592546,21.2750904,360 80.8595126,21.2757194,360 80.8593880,21.2759901,360 80.8595445,21.2764686,360 80.8598345,21.2764740,360 80.8607043,21.2762031,360 80.8609943,21.2761693,360 80.8611085,21.2762607,360 80.8612671,21.2768021,360 80.8609943,21.2772709,360 80.8596919,21.2778847,360 80.8600071,21.2781553,360 80.8606887,21.2784260,360 80.8607043,21.2787989,360 80.8605475,21.2792379,360 80.8607043,21.2794223,360 80.8609943,21.2793432,360 80.8615742,21.2794475,360 80.8618641,21.2792601,360 80.8621541,21.2792750,360 80.8624440,21.2797525,360 80.8631957,21.2803206,360 80.8631767,21.2808619,360 80.8627340,21.2808985,360 80.8624440,21.2807154,360 80.8618641,21.2810652,360 80.8610598,21.2811325,360 80.8607043,21.2813977,360 80.8606190,21.2819445,360 80.8603572,21.2822151,360 80.8603171,21.2824858,360 80.8604301,21.2832978,360 80.8608168,21.2841097,360 80.8612842,21.2844626,360 80.8621541,21.2845499,360 80.8624440,21.2847552,360 80.8636038,21.2848304,360 80.8638938,21.2851349,360 80.8643076,21.2851923,360 80.8645784,21.2854630,360 80.8646318,21.2857336,360 80.8650536,21.2863691,360 80.8653436,21.2864102,360 80.8654539,21.2865456,360 80.8652419,21.2870869,360 80.8653436,21.2874919,360 80.8656335,21.2875432,360 80.8656563,21.2876282,360 80.8655542,21.2881695,360 80.8656121,21.2889815,360 80.8659235,21.2890423,360 80.8662958,21.2900641,360 80.8662134,21.2902413,360 80.8659235,21.2903090,360 80.8656335,21.2898451,360 80.8653436,21.2896735,360 80.8650536,21.2899959,360 80.8647637,21.2894708,360 80.8644737,21.2893751,360 80.8635262,21.2887108,360 80.8628429,21.2876282,360 80.8621541,21.2872155,360 80.8615742,21.2869771,360 80.8612842,21.2871343,360 80.8609943,21.2871356,360 80.8609943,21.2869798,360 80.8612190,21.2868163,360 80.8607043,21.2865328,360 80.8604144,21.2865273,360 80.8598345,21.2867598,360 80.8592546,21.2867092,360 80.8591129,21.2870869,360 80.8593342,21.2876282,360 80.8592982,21.2878989,360 80.8591035,21.2881695,360 80.8590238,21.2887108,360 80.8590668,21.2889815,360 80.8594690,21.2895228,360 80.8591602,21.2897935,360 80.8593117,21.2900641,360 80.8598138,21.2903348,360 80.8600187,21.2908761,360 80.8604144,21.2908083,360 80.8605960,21.2911467,360 80.8604144,21.2914921,360 80.8601244,21.2915397,360 80.8599731,21.2919587,360 80.8602225,21.2927707,360 80.8598345,21.2927578,360 80.8594542,21.2930413,360 80.8594201,21.2938533,360 80.8592546,21.2939282,360 80.8589646,21.2936997,360 80.8584772,21.2938533,360 80.8589646,21.2939529,360 80.8591783,21.2943946,360 80.8590713,21.2946652,360 80.8580097,21.2952065,360 80.8579951,21.2954772,360 80.8580947,21.2955821,360 80.8586746,21.2955290,360 80.8589089,21.2957479,360 80.8588726,21.2960185,360 80.8590445,21.2965598,360 80.8588633,21.2968305,360 80.8587863,21.2981837,360 80.8583847,21.2984094,360 80.8583515,21.2987250,360 80.8579495,21.2995370,360 80.8572249,21.3000585,360 80.8566450,21.3001535,360 80.8560651,21.3000651,360 80.8555434,21.2998077,360 80.8549053,21.2989102,360 80.8543254,21.2984219,360 80.8540415,21.2987250,360 80.8544065,21.2989957,360 80.8548772,21.2998077,360 80.8548849,21.3008903,360 80.8552222,21.3017022,360 80.8556711,21.3022436,360 80.8560651,21.3023397,360 80.8561337,21.3025142,360 80.8561229,21.3027849,360 80.8557751,21.3028638,360 80.8553379,21.3033262,360 80.8553587,21.3035968,360 80.8554852,21.3037375,360 80.8557751,21.3037929,360 80.8561354,21.3049501,360 80.8565355,21.3052207,360 80.8565162,21.3057621,360 80.8569776,21.3063034,360 80.8569727,21.3065740,360 80.8566450,21.3068310,360 80.8563550,21.3069448,360 80.8558460,21.3068447,360 80.8560651,21.3071762,360 80.8566450,21.3074592,360 80.8568767,21.3079273,360 80.8563550,21.3082946,360 80.8562611,21.3079273,360 80.8560651,21.3077197,360 80.8557751,21.3078113,360 80.8555755,21.3079273,360 80.8555610,21.3081979,360 80.8551952,21.3087080,360 80.8546153,21.3088240,360 80.8545203,21.3090099,360 80.8548435,21.3103632,360 80.8547932,21.3106338,360 80.8544698,21.3109045,360 80.8546153,21.3112136,360 80.8554637,21.3114458,360 80.8550381,21.3119871,360 80.8551055,21.3122578,360 80.8550216,21.3125284,360 80.8555506,21.3130697,360 80.8551952,21.3132435,360 80.8550893,21.3136110,360 80.8554270,21.3142200,360</coordinates></LineString></Placemark><Placemark><name>360 m</name><styleUrl>#minor</styleUrl><ExtendedData><Data name="elevation"><value>360</value></Data></ExtendedData><LineString><tessellate>1</tessellate><altitudeMode>clampToGround</altitudeMode><coordinates>80.8579620,21.2749075,360 80.8581469,21.2749075,360</coordinates></LineString></Placemark><Placemark><name>360 m</name><styleUrl>#minor</styleUrl><ExtendedData><Data name="elevation"><value>360</value></Data></ExtendedData><LineString><tessellate>1</tessellate><altitudeMode>clampToGround</altitudeMode><coordinates>80.8749856,21.2781553,360 80.8752020,21.2779963,360 80.8754919,21.2779641,360 80.8758205,21.2781553,360 80.8757819,21.2782720,360 80.8754305,21.2784260,360 80.8752498,21.2786966,360 80.8753798,21.2789673,360 80.8740422,21.2801135,360 80.8737522,21.2802678,360 80.8734623,21.2800235,360 80.8728823,21.2803143,360 80.8725924,21.2801824,360 80.8717225,21.2808005,360 80.8714326,21.2806454,360 80.8714326,21.2801848,360 80.8717225,21.2804047,360 80.8719154,21.2800499,360 80.8717694,21.2792379,360 80.8718326,21.2789673,360 80.8720125,21.2788383,360 80.8725924,21.2788961,360 80.8731723,21.2787275,360 80.8737522,21.2782559,360 80.8740422,21.2781594,360 80.8743321,21.2781637,360 80.8746221,21.2784726,360 80.8749856,21.2781553,360</coordinates></LineString></Placemark><Placemark><name>360 m</name><styleUrl>#minor</styleUrl><ExtendedData><Data name="elevation"><value>360</value></Data></ExtendedData><LineString><tessellate>1</tessellate><altitudeMode>clampToGround</altitudeMode><coordinates>80.8623988,21.2841097,360 80.8627551,21.2841097,360 80.8627340,21.2841904,360 80.8624440,21.2842177,360 80.8623988,21.2841097,360</coordinates></LineString></Placemark><Placemark><name>360 m</name><styleUrl>#minor</styleUrl><ExtendedData><Data name="elevation"><value>360</value></Data></ExtendedData><LineString><tessellate>1</tessellate><altitudeMode>clampToGround</altitudeMode><coordinates>80.8596610,21.2870869,360 80.8598345,21.2869498,360 80.8602819,21.2870869,360 80.8604498,21.2873576,360 80.8604312,21.2876282,360 80.8596610,21.2870869,360</coordinates></LineString></Placemark><Placemark><name>360 m</name><styleUrl>#minor</styleUrl><ExtendedData><Data name="elevation"><value>360</value></Data></ExtendedData><LineString><tessellate>1</tessellate><altitudeMode>clampToGround</altitudeMode><coordinates>80.8711687,21.2922293,360 80.8714326,21.2921472,360 80.8715497,21.2922293,360 80.8717949,21.2925000,360 80.8717225,21.2927923,360 80.8723024,21.2927104,360 80.8725783,21.2930413,360 80.8723024,21.2931446,360 80.8720717,21.2930413,360 80.8720125,21.2928897,360 80.8717862,21.2933120,360 80.8720330,21.2935826,360 80.8720125,21.2938771,360 80.8716117,21.2938533,360 80.8715578,21.2935826,360 80.8714326,21.2935054,360 80.8711426,21.2937629,360 80.8708056,21.2935826,360 80.8707243,21.2933120,360 80.8708527,21.2929148,360 80.8711426,21.2928527,360 80.8712446,21.2925000,360 80.8711687,21.2922293,360</coordinates></LineString></Placemark><Placemark><name>360 m</name><styleUrl>#minor</styleUrl><ExtendedData><Data name="elevation"><value>360</value></Data></ExtendedData><LineString><tessellate>1</tessellate><altitudeMode>clampToGround</altitudeMode><coordinates>80.8727435,21.2933120,360 80.8728823,21.2930510,360 80.8731723,21.2932324,360 80.8739081,21.2933120,360 80.8731723,21.2934263,360 80.8728823,21.2936123,360 80.8727435,21.2933120,360</coordinates></LineString></Placemark><Placemark><name>360 m</name><styleUrl>#minor</styleUrl><ExtendedData><Data name="elevation"><value>360</value></Data></ExtendedData><LineString><tessellate>1</tessellate><altitudeMode>clampToGround</altitudeMode><coordinates>80.8557256,21.3125284,360 80.8557751,21.3124536,360 80.8557751,21.3126986,360 80.8557256,21.3125284,360</coordinates></LineString></Placemark><Placemark><name>380 m</name><styleUrl>#minor</styleUrl><ExtendedData><Data name="elevation"><value>380</value></Data></ExtendedData><LineString><tessellate>1</tessellate><altitudeMode>clampToGround</altitudeMode><coordinates>80.8473950,21.2707800,380 80.8467883,21.2713890,380 80.8459167,21.2713166,380 80.8456268,21.2714619,380 80.8450469,21.2712848,380 80.8438870,21.2716040,380 80.8424373,21.2715169,380 80.8416087,21.2719303,380 80.8414979,21.2722009,380 80.8421473,21.2723723,380 80.8427272,21.2723044,380 80.8435971,21.2724408,380 80.8441770,21.2728198,380 80.8450469,21.2725230,380 80.8456268,21.2726383,380 80.8458046,21.2730129,380 80.8456193,21.2732836,380 80.8456472,21.2735542,380 80.8459167,21.2736442,380 80.8467866,21.2735790,380 80.8473665,21.2737492,380 80.8482363,21.2736381,380 80.8493962,21.2734076,380 80.8495888,21.2732836,380 80.8498899,21.2730129,380 80.8495015,21.2724716,380 80.8495174,21.2722009,380 80.8502660,21.2712658,380 80.8510564,21.2711183,380 80.8515022,21.2707800,380</coordinates></LineString></Placemark><Placemark><name>380 m</name><styleUrl>#minor</styleUrl><ExtendedData><Data name="elevation"><value>380</value></Data></ExtendedData><LineString><tessellate>1</tessellate><altitudeMode>clampToGround</altitudeMode><coordinates>80.8567894,21.2707800,380 80.8568214,21.2719303,380 80.8560204,21.2754488,380 80.8551952,21.2765923,380 80.8544582,21.2773434,380 80.8543205,21.2776140,380 80.8545069,21.2781553,380 80.8542440,21.2784260,380 80.8537212,21.2786966,380 80.8535726,21.2789673,380 80.8533587,21.2800499,380 80.8528756,21.2808342,380 80.8527508,21.2814032,380 80.8524138,21.2819445,380 80.8523591,21.2824858,380 80.8518975,21.2832978,380 80.8517441,21.2838391,380 80.8512258,21.2846510,380 80.8511750,21.2854630,380 80.8514508,21.2857336,380 80.8511988,21.2862750,380 80.8509198,21.2876282,380 80.8511140,21.2878989,380 80.8519373,21.2884402,380 80.8521279,21.2887108,380 80.8521499,21.2889815,380 80.8521285,21.2897935,380 80.8519198,21.2906054,380 80.8520230,21.2908761,380 80.8519739,21.2914174,380 80.8517518,21.2925000,380 80.8518414,21.2927707,380 80.8515429,21.2935826,380 80.8517056,21.2938533,380 80.8511359,21.2940248,380 80.8510053,21.2949359,380 80.8505946,21.2960185,380 80.8506598,21.2965598,380 80.8501217,21.2984544,380 80.8501483,21.2989957,380 80.8499255,21.2995370,380 80.8499206,21.3000783,380 80.8493962,21.3006014,380 80.8491787,21.3011609,380 80.8498859,21.3014316,380 80.8496861,21.3018075,380 80.8491397,21.3019729,380 80.8494457,21.3025142,380 80.8496740,21.3033262,380 80.8502725,21.3035968,380 80.8501561,21.3038675,380 80.8498239,21.3041381,380 80.8497435,21.3044088,380 80.8499756,21.3046794,380 80.8497933,21.3052207,380 80.8501194,21.3057621,380 80.8502022,21.3063034,380 80.8501305,21.3065740,380 80.8496075,21.3071153,380 80.8498550,21.3076566,380 80.8498407,21.3079273,380 80.8499761,21.3080568,380 80.8502660,21.3080887,380 80.8505560,21.3077996,380 80.8520057,21.3070737,380 80.8522957,21.3070307,380 80.8524716,21.3073860,380 80.8524746,21.3076566,380 80.8519779,21.3090099,380 80.8511359,21.3101459,380 80.8502660,21.3119688,380 80.8501053,21.3125284,380 80.8502660,21.3128144,380 80.8507081,21.3130697,380 80.8508155,21.3133404,380 80.8506272,21.3141523,380 80.8508126,21.3142200,380</coordinates></LineString></Placemark><Placemark><name>380 m</name><styleUrl>#minor</styleUrl><ExtendedData><Data name="elevation"><value>380</value></Data></ExtendedData><LineString><tessellate>1</tessellate><altitudeMode>clampToGround</altitudeMode><coordinates>80.8412775,21.2719251,380 80.8413926,21.2719303,380</coordinates></LineString></Placemark><Placemark><name>380 m</name><styleUrl>#minor</styleUrl><ExtendedData><Data name="elevation"><value>380</value></Data></ExtendedData><LineString><tessellate>1</tessellate><altitudeMode>clampToGround</altitudeMode><coordinates>80.8333148,21.2709176,380 80.8337387,21.2708314,380 80.8348985,21.2710877,380 80.8351885,21.2710020,380 80.8354778,21.2708477,380 80.8355366,21.2707800,380</coordinates></LineString></Placemark><Placemark><name>380 m</name><styleUrl>#minor</styleUrl><ExtendedData><Data name="elevation"><value>380</value></Data></ExtendedData><LineString><tessellate>1</tessellate><altitudeMode>clampToGround</altitudeMode><coordinates>80.8565403,21.2965598,380 80.8569349,21.2964572,380 80.8575148,21.2967557,380 80.8577852,21.2976424,380 80.8577276,21.2981837,380 80.8575148,21.2985090,380 80.8572249,21.2987632,380 80.8566450,21.2990005,380 80.8558865,21.2987250,380 80.8556385,21.2984544,380 80.8555863,21.2981837,380 80.8557627,21.2973718,380 80.8561585,21.2968305,380 80.8565403,21.2965598,380</coordinates></LineString></Placemark><Placemark><name>400 m</name><styleUrl>#major</styleUrl><ExtendedData><Data name="elevation"><value>400</value></Data></ExtendedData><LineString><tessellate>1</tessellate><altitudeMode>clampToGround</altitudeMode><coordinates>80.8396720,21.2707800,400 80.8383779,21.2715628,400 80.8369282,21.2721485,400 80.8364690,21.2724716,400 80.8359970,21.2730129,400 80.8360844,21.2735542,400 80.8357684,21.2738763,400 80.8351885,21.2738423,400 80.8340286,21.2741895,400 80.8337387,21.2745205,400 80.8333148,21.2745654,400</coordinates></LineString></Placemark><Placemark><name>400 m</name><styleUrl>#major</styleUrl><ExtendedData><Data name="elevation"><value>400</value></Data></ExtendedData><LineString><tessellate>1</tessellate><altitudeMode>clampToGround</altitudeMode><coordinates>80.8333148,21.2714292,400 80.8340286,21.2713379,400 80.8348985,21.2716114,400 80.8354784,21.2715724,400 80.8364072,21.2707800,400</coordinates></LineString></Placemark><Placemark><name>400 m</name><styleUrl>#major</styleUrl><ExtendedData><Data name="elevation"><value>400</value></Data></ExtendedData><LineString><tessellate>1</tessellate><altitudeMode>clampToGround</altitudeMode><coordinates>80.8333148,21.2810462,400 80.8340286,21.2808727,400 80.8366382,21.2805767,400 80.8371979,21.2803206,400 80.8377980,21.2796526,400 80.8400707,21.2784260,400 80.8413918,21.2773434,400 80.8415674,21.2770505,400 80.8441770,21.2756058,400 80.8459167,21.2749090,400 80.8467866,21.2750562,400 80.8476564,21.2746083,400 80.8493962,21.2744724,400 80.8502660,21.2737288,400 80.8505517,21.2730129,400 80.8505645,21.2727422,400 80.8503750,21.2724716,400 80.8504176,21.2722009,400 80.8508459,21.2721360,400 80.8517158,21.2717383,400 80.8523219,21.2708477,400 80.8524258,21.2707800,400</coordinates></LineString></Placemark><Placemark><name>400 m</name><styleUrl>#major</styleUrl><ExtendedData><Data name="elevation"><value>400</value></Data></ExtendedData><LineString><tessellate>1</tessellate><altitudeMode>clampToGround</altitudeMode><coordinates>80.8561041,21.2707800,400 80.8563465,21.2716596,400 80.8559583,21.2735542,400 80.8553845,21.2751781,400 80.8549775,21.2759901,400 80.8545322,21.2765314,400 80.8527144,21.2776140,400 80.8527576,21.2786966,400 80.8525809,21.2795086,400 80.8526786,21.2800499,400 80.8522957,21.2808203,400 80.8517158,21.2813177,400 80.8511359,21.2814178,400 80.8502660,21.2810100,400 80.8488162,21.2806596,400 80.8481633,21.2808619,400 80.8482363,21.2809668,400 80.8491062,21.2808947,400 80.8504431,21.2816738,400 80.8509570,21.2822151,400 80.8510270,21.2830271,400 80.8508033,21.2838391,400 80.8487426,21.2865456,400 80.8490262,21.2870869,400 80.8496861,21.2873726,400 80.8502976,21.2881695,400 80.8505560,21.2883819,400 80.8513810,21.2887108,400 80.8514845,21.2889815,400 80.8512308,21.2906054,400 80.8509336,21.2911467,400 80.8502660,21.2916761,400 80.8499761,21.2917565,400 80.8493962,21.2913769,400 80.8492724,21.2914174,400 80.8491707,21.2916880,400 80.8492888,21.2919587,400 80.8491591,21.2922293,400 80.8493625,21.2925000,400 80.8501511,21.2930413,400 80.8503285,21.2933120,400 80.8505752,21.2943946,400 80.8502672,21.2954772,400 80.8494679,21.2968305,400 80.8495184,21.2981837,400 80.8492334,21.2992664,400 80.8487677,21.3000783,400 80.8477003,21.3008903,400 80.8480280,21.3014316,400 80.8480564,21.3025142,400 80.8479091,21.3030555,400 80.8473803,21.3038675,400 80.8474810,21.3046794,400 80.8470679,21.3057621,400 80.8471659,21.3063034,400 80.8471531,21.3081979,400 80.8485263,21.3097257,400 80.8491224,21.3098219,400 80.8496861,21.3094821,400 80.8499761,21.3094306,400 80.8508459,21.3086359,400 80.8511359,21.3085125,400 80.8513427,21.3087393,400 80.8512721,21.3090099,400 80.8507298,21.3095512,400 80.8504124,21.3100925,400 80.8497877,21.3117164,400 80.8491119,21.3130697,400 80.8491501,21.3136110,400 80.8489175,21.3142200,400</coordinates></LineString></Placemark><Placemark><name>400 m</name><styleUrl>#major</styleUrl><ExtendedData><Data name="elevation"><value>400</value></Data></ExtendedData><LineString><tessellate>1</tessellate><altitudeMode>clampToGround</altitudeMode><coordinates>80.8488162,21.2908684,400 80.8487883,21.2911467,400 80.8491062,21.2912912,400 80.8491062,21.2909871,400 80.8488162,21.2908684,400</coordinates></LineString></Placemark><Placemark><name>400 m</name><styleUrl>#major</styleUrl><ExtendedData><Data name="elevation"><value>400</value></Data></ExtendedData><LineString><tessellate>1</tessellate><altitudeMode>clampToGround</altitudeMode><coordinates>80.8567886,21.2971011,400 80.8569349,21.2970585,400 80.8572166,21.2973718,400 80.8572494,21.2979131,400 80.8569349,21.2982871,400 80.8563550,21.2984211,400 80.8561238,21.2981837,400 80.8561900,21.2976424,400 80.8563550,21.2973571,400 80.8567886,21.2971011,400</coordinates></LineString></Placemark><Placemark><name>420 m</name><styleUrl>#minor</styleUrl><ExtendedData><Data name="elevation"><value>420</value></Data></ExtendedData><LineString><tessellate>1</tessellate><altitudeMode>clampToGround</altitudeMode><coordinates>80.8386469,21.2707800,420 80.8380880,21.2711390,420 80.8375081,21.2713605,420 80.8366382,21.2715362,420 80.8364281,21.2713890,420 80.8370204,21.2707800,420</coordinates></LineString></Placemark><Placemark><name>420 m</name><styleUrl>#minor</styleUrl><ExtendedData><Data name="elevation"><value>420</value></Data></ExtendedData><LineString><tessellate>1</tessellate><altitudeMode>clampToGround</altitudeMode><coordinates>80.8333148,21.2718007,420 80.8340286,21.2717069,420 80.8346435,21.2719303,420 80.8349101,21.2722009,420 80.8348840,21.2724716,420 80.8343186,21.2730560,420 80.8333148,21.2734931,420</coordinates></LineString></Placemark><Placemark><name>420 m</name><styleUrl>#minor</styleUrl><ExtendedData><Data name="elevation"><value>420</value></Data></ExtendedData><LineString><tessellate>1</tessellate><altitudeMode>clampToGround</altitudeMode><coordinates>80.8499249,21.2897935,420 80.8502660,21.2897641,420 80.8505405,21.2900641,420 80.8505367,21.2903348,420 80.8502660,21.2906451,420 80.8498840,21.2906054,420 80.8496714,21.2903348,420 80.8496201,21.2900641,420 80.8499249,21.2897935,420</coordinates></LineString></Placemark><Placemark><name>420 m</name><styleUrl>#minor</styleUrl><ExtendedData><Data name="elevation"><value>420</value></Data></ExtendedData><LineString><tessellate>1</tessellate><altitudeMode>clampToGround</altitudeMode><coordinates>80.8333148,21.2939236,420 80.8337387,21.2937644,420 80.8339964,21.2927707,420 80.8345115,21.2919587,420 80.8351769,21.2911467,420 80.8357442,21.2908761,420 80.8358413,21.2906054,420 80.8369989,21.2895228,420 80.8371959,21.2892521,420 80.8372996,21.2887108,420 80.8375642,21.2881695,420 80.8376232,21.2878989,420 80.8372777,21.2873576,420 80.8372591,21.2870869,420 80.8369282,21.2871000,420 80.8357684,21.2876972,420 80.8346085,21.2880174,420 80.8343186,21.2883257,420 80.8337387,21.2885551,420 80.8333148,21.2890495,420</coordinates></LineString></Placemark><Placemark><name>420 m</name><styleUrl>#minor</styleUrl><ExtendedData><Data name="elevation"><value>420</value></Data></ExtendedData><LineString><tessellate>1</tessellate><altitudeMode>clampToGround</altitudeMode><coordinates>80.8333148,21.2820065,420 80.8337387,21.2819532,420 80.8354784,21.2813607,420 80.8372181,21.2810983,420 80.8380282,21.2805912,420 80.8385989,21.2797793,420 80.8389578,21.2795720,420 80.8401571,21.2792379,420 80.8406976,21.2788726,420 80.8412819,21.2781553,420 80.8434978,21.2768021,420 80.8444669,21.2765515,420 80.8448695,21.2762607,420 80.8461780,21.2757194,420 80.8470765,21.2756040,420 80.8479464,21.2750507,420 80.8496861,21.2749255,420 80.8499761,21.2744968,420 80.8504623,21.2740955,420 80.8514170,21.2724716,420 80.8520057,21.2720808,420 80.8525856,21.2714027,420 80.8531655,21.2710046,420 80.8534555,21.2709020,420 80.8551952,21.2708024,420 80.8554852,21.2708697,420 80.8557751,21.2711070,420 80.8559019,21.2716596,420 80.8554346,21.2738249,420 80.8544647,21.2759901,420 80.8537454,21.2765718,420 80.8528756,21.2769086,420 80.8520487,21.2770727,420 80.8518685,21.2773434,420 80.8521870,21.2786966,420 80.8520594,21.2795086,420 80.8521891,21.2800499,420 80.8520057,21.2804634,420 80.8515059,21.2808619,420 80.8511359,21.2809055,420 80.8508459,21.2807464,420 80.8505560,21.2803646,420 80.8493962,21.2798478,420 80.8482363,21.2800259,420 80.8476564,21.2802996,420 80.8465598,21.2811325,420 80.8458928,21.2822151,420 80.8459167,21.2825129,420 80.8464966,21.2825675,420 80.8473665,21.2823089,420 80.8485263,21.2817928,420 80.8491062,21.2817959,420 80.8499761,21.2820181,420 80.8502349,21.2822151,420 80.8505213,21.2830271,420 80.8503196,21.2838391,420 80.8497320,21.2846510,420 80.8476188,21.2868163,420 80.8474246,21.2881695,420 80.8474927,21.2887108,420 80.8467866,21.2902197,420 80.8464526,21.2906054,420 80.8463134,21.2911467,420 80.8455006,21.2927707,420 80.8456268,21.2929184,420 80.8459167,21.2929055,420 80.8473665,21.2924890,420 80.8479464,21.2925151,420 80.8485263,21.2929492,420 80.8491062,21.2930838,420 80.8496861,21.2935431,420 80.8500507,21.2943946,420 80.8499750,21.2949359,420 80.8496456,21.2957479,420 80.8488162,21.2965672,420 80.8487549,21.2968305,420 80.8489842,21.2973718,420 80.8490352,21.2979131,420 80.8488162,21.2990324,420 80.8484975,21.2995370,420 80.8479464,21.3000943,420 80.8468557,21.3003490,420 80.8474082,21.3014316,420 80.8475941,21.3022436,420 80.8474369,21.3027849,420 80.8470765,21.3031482,420 80.8460947,21.3033262,420 80.8467505,21.3044088,420 80.8467006,21.3049501,420 80.8464966,21.3052218,420 80.8455444,21.3057621,420 80.8453199,21.3060327,420 80.8461531,21.3063034,420 80.8464966,21.3067553,420 80.8466017,21.3073860,420 80.8464966,21.3078179,420 80.8462196,21.3081979,420 80.8463120,21.3084686,420 80.8477686,21.3100925,420 80.8482363,21.3105005,420 80.8488162,21.3106401,420 80.8493962,21.3103636,420 80.8495857,21.3106338,420 80.8491875,21.3119871,420 80.8480502,21.3136110,420 80.8479519,21.3142200,420</coordinates></LineString></Placemark><Placemark><name>440 m</name><styleUrl>#minor</styleUrl><ExtendedData><Data name="elevation"><value>440</value></Data></ExtendedData><LineString><tessellate>1</tessellate><altitudeMode>clampToGround</altitudeMode><coordinates>80.8333148,21.2721385,440 80.8340286,21.2720658,440 80.8343375,21.2722009,440 80.8343371,21.2724716,440 80.8333148,21.2729885,440</coordinates></LineString></Placemark><Placemark><name>440 m</name><styleUrl>#minor</styleUrl><ExtendedData><Data name="elevation"><value>440</value></Data></ExtendedData><LineString><tessellate>1</tessellate><altitudeMode>clampToGround</altitudeMode><coordinates>80.8333148,21.2951671,440 80.8334487,21.2951243,440 80.8340286,21.2951747,440 80.8343186,21.2948268,440 80.8345847,21.2943946,440 80.8348252,21.2935826,440 80.8350834,21.2933120,440 80.8352840,21.2925000,440 80.8356892,21.2919587,440 80.8360583,21.2917712,440 80.8366382,21.2917679,440 80.8373576,21.2911467,440 80.8376798,21.2903348,440 80.8385478,21.2892521,440 80.8386563,21.2881695,440 80.8395890,21.2873576,440 80.8396179,21.2868163,440 80.8412775,21.2845591,440 80.8413060,21.2841097,440 80.8419414,21.2835684,440 80.8415674,21.2834612,440 80.8406976,21.2835295,440 80.8398277,21.2833607,440 80.8389578,21.2834614,440 80.8383326,21.2843804,440 80.8372289,21.2854630,440 80.8354784,21.2863392,440 80.8343186,21.2867443,440 80.8334764,21.2873576,440 80.8333148,21.2876943,440</coordinates></LineString></Placemark><Placemark><name>440 m</name><styleUrl>#minor</styleUrl><ExtendedData><Data name="elevation"><value>440</value></Data></ExtendedData><LineString><tessellate>1</tessellate><altitudeMode>clampToGround</altitudeMode><coordinates>80.8333148,21.2824363,440 80.8343186,21.2822363,440 80.8354784,21.2817539,440 80.8374270,21.2814032,440 80.8380880,21.2810197,440 80.8389578,21.2800963,440 80.8405730,21.2795086,440 80.8415674,21.2785106,440 80.8427272,21.2778001,440 80.8438870,21.2773006,440 80.8447569,21.2770777,440 80.8462067,21.2761858,440 80.8470765,21.2760650,440 80.8479464,21.2754124,440 80.8488162,21.2752791,440 80.8496861,21.2753338,440 80.8507107,21.2743662,440 80.8514258,21.2731327,440 80.8528756,21.2717556,440 80.8540354,21.2713261,440 80.8551952,21.2712900,440 80.8554235,21.2716596,440 80.8550995,21.2735542,440 80.8541693,21.2757194,440 80.8534555,21.2763197,440 80.8528692,21.2765314,440 80.8517158,21.2767011,440 80.8514227,21.2770727,440 80.8513612,21.2773434,440 80.8517236,21.2786966,440 80.8515316,21.2795086,440 80.8515864,21.2800499,440 80.8514258,21.2802860,440 80.8511359,21.2802322,440 80.8508459,21.2799597,440 80.8499761,21.2797330,440 80.8493962,21.2793521,440 80.8484097,21.2795086,440 80.8471922,21.2800499,440 80.8459134,21.2811325,440 80.8449761,21.2822151,440 80.8449498,21.2824858,440 80.8456268,21.2832097,440 80.8459167,21.2833369,440 80.8470765,21.2829619,440 80.8482363,21.2822998,440 80.8488162,21.2821365,440 80.8496861,21.2823523,440 80.8501187,21.2830271,440 80.8500364,21.2835684,440 80.8494534,21.2843804,440 80.8476564,21.2861365,440 80.8469438,21.2865456,440 80.8469711,21.2876282,440 80.8465869,21.2889815,440 80.8455080,21.2906054,440 80.8444669,21.2928156,440 80.8438870,21.2934665,440 80.8434871,21.2935826,440 80.8434292,21.2938533,440 80.8438870,21.2944818,440 80.8441770,21.2946904,440 80.8459167,21.2937709,440 80.8473665,21.2932062,440 80.8476564,21.2931924,440 80.8485263,21.2935706,440 80.8488162,21.2939431,440 80.8494853,21.2943946,440 80.8495712,21.2946652,440 80.8494610,21.2952065,440 80.8491515,21.2957479,440 80.8481605,21.2965598,440 80.8481961,21.2968305,440 80.8485591,21.2973718,440 80.8486592,21.2979131,440 80.8485215,21.2987250,440 80.8482363,21.2991904,440 80.8476564,21.2997140,440 80.8473665,21.2997272,440 80.8462067,21.2993363,440 80.8458571,21.2995370,440 80.8467799,21.3011609,440 80.8470347,21.3019729,440 80.8469430,21.3022436,440 80.8464966,21.3025887,440 80.8453368,21.3028270,440 80.8449759,21.3030555,440 80.8457938,21.3038675,440 80.8460976,21.3044088,440 80.8460851,21.3046794,440 80.8456128,21.3052207,440 80.8444751,21.3057621,440 80.8438870,21.3061908,440 80.8434690,21.3063034,440 80.8439359,21.3065740,440 80.8450469,21.3066684,440 80.8453604,21.3068447,440 80.8454612,21.3073860,440 80.8450584,21.3081979,440 80.8451401,21.3084686,440 80.8459628,21.3087393,440 80.8476564,21.3106860,440 80.8487829,21.3114458,440 80.8488370,21.3117164,440 80.8480638,21.3127991,440 80.8475195,21.3133404,440 80.8473545,21.3142200,440</coordinates></LineString></Placemark><Placemark><name>460 m</name><styleUrl>#minor</styleUrl><ExtendedData><Data name="elevation"><value>460</value></Data></ExtendedData><LineString><tessellate>1</tessellate><altitudeMode>clampToGround</altitudeMode><coordinates>80.8333148,21.2968506,460 80.8337387,21.2967341,460 80.8338526,21.2960185,460 80.8344903,21.2954772,460 80.8351885,21.2942331,460 80.8359094,21.2935826,460 80.8361725,21.2930413,460 80.8370068,21.2925000,460 80.8375081,21.2917998,460 80.8380565,21.2914174,460 80.8385620,21.2908761,460 80.8394303,21.2889815,460 80.8395481,21.2881695,460 80.8402894,21.2876282,460 80.8405150,21.2868163,460 80.8410612,21.2862750,460 80.8412775,21.2857987,460 80.8420413,21.2849217,460 80.8421989,21.2843804,460 80.8428591,21.2835684,460 80.8428037,21.2832978,460 80.8421473,21.2830389,460 80.8404076,21.2829815,460 80.8394418,21.2824858,460 80.8388992,21.2824858,460 80.8381400,21.2838391,460 80.8370573,21.2849217,460 80.8351885,21.2860058,460 80.8343186,21.2862785,460 80.8333148,21.2869084,460</coordinates></LineString></Placemark><Placemark><name>460 m</name><styleUrl>#minor</styleUrl><ExtendedData><Data name="elevation"><value>460</value></Data></ExtendedData><LineString><tessellate>1</tessellate><altitudeMode>clampToGround</altitudeMode><coordinates>80.8333148,21.2828917,460 80.8346085,21.2825496,460 80.8354784,21.2821159,460 80.8372181,21.2818221,460 80.8380880,21.2815187,460 80.8392478,21.2802926,460 80.8401177,21.2800940,460 80.8406976,21.2798417,460 80.8419707,21.2786966,460 80.8430172,21.2780204,460 80.8447569,21.2774756,460 80.8462067,21.2765270,460 80.8470765,21.2764467,460 80.8476564,21.2759558,460 80.8482363,21.2756862,460 80.8496861,21.2757080,460 80.8502660,21.2753256,460 80.8509270,21.2746368,460 80.8515091,21.2735542,460 80.8528756,21.2721923,460 80.8537454,21.2717907,460 80.8546153,21.2717459,460 80.8549053,21.2720087,460 80.8549610,21.2724716,460 80.8546608,21.2738249,460 80.8540650,21.2751781,460 80.8537411,21.2757194,460 80.8534041,21.2759901,460 80.8525856,21.2762369,460 80.8517158,21.2762860,460 80.8512583,21.2765314,460 80.8509647,21.2773434,460 80.8513429,21.2786966,460 80.8510281,21.2792379,460 80.8505560,21.2794856,460 80.8502660,21.2794654,460 80.8496861,21.2791155,460 80.8491062,21.2790347,460 80.8482363,21.2791558,460 80.8470765,21.2795427,460 80.8453923,21.2811325,460 80.8442117,21.2824858,460 80.8441747,21.2827564,460 80.8448323,21.2830271,460 80.8453368,21.2836452,460 80.8459167,21.2838447,460 80.8462067,21.2838328,460 80.8468622,21.2835684,460 80.8485263,21.2825375,460 80.8488162,21.2824974,460 80.8493962,21.2826848,460 80.8496376,21.2830271,460 80.8496598,21.2832978,460 80.8493178,21.2838391,460 80.8475576,21.2857336,460 80.8470765,21.2860500,460 80.8463845,21.2862750,460 80.8462292,21.2865456,460 80.8464704,21.2870869,460 80.8465252,21.2876282,460 80.8463015,21.2884402,460 80.8440601,21.2922293,460 80.8433071,21.2927523,460 80.8430172,21.2928515,460 80.8424373,21.2928321,460 80.8420162,21.2930413,460 80.8427272,21.2936798,460 80.8431734,21.2943946,460 80.8435971,21.2958006,460 80.8438870,21.2958206,460 80.8441770,21.2956652,460 80.8458190,21.2943946,460 80.8467866,21.2940201,460 80.8476564,21.2940280,460 80.8488277,21.2949359,460 80.8486836,21.2954772,460 80.8479464,21.2961323,460 80.8476534,21.2965598,460 80.8477155,21.2968305,460 80.8482363,21.2975613,460 80.8483143,21.2979131,460 80.8482345,21.2984544,460 80.8479464,21.2989878,460 80.8476564,21.2991677,460 80.8473665,21.2991890,460 80.8462067,21.2984721,460 80.8445989,21.2987250,460 80.8443768,21.2989957,460 80.8444089,21.2992664,460 80.8446484,21.2995370,460 80.8462067,21.3009122,460 80.8463576,21.3011609,460 80.8464059,21.3017022,460 80.8462523,21.3019729,460 80.8456268,21.3023444,460 80.8438870,21.3022734,460 80.8433071,21.3020035,460 80.8430172,21.3020706,460 80.8429035,21.3022436,460 80.8434080,21.3027849,460 80.8447569,21.3034882,460 80.8451650,21.3038675,460 80.8454196,21.3044088,460 80.8453678,21.3046794,460 80.8448430,21.3052207,460 80.8438870,21.3057596,460 80.8411950,21.3060327,460 80.8412480,21.3063034,460 80.8415674,21.3067401,460 80.8430172,21.3067403,460 80.8435971,21.3068549,460 80.8441610,21.3071153,460 80.8444669,21.3074754,460 80.8442484,21.3084686,460 80.8442622,21.3087393,460 80.8444669,21.3089992,460 80.8450469,21.3088862,460 80.8456268,21.3090136,460 80.8459167,21.3092393,460 80.8472730,21.3109045,460 80.8482694,21.3117164,460 80.8480397,21.3122578,460 80.8471225,21.3133404,460 80.8469154,21.3142200,460</coordinates></LineString></Placemark><Placemark><name>480 m</name><styleUrl>#minor</styleUrl><ExtendedData><Data name="elevation"><value>480</value></Data></ExtendedData><LineString><tessellate>1</tessellate><altitudeMode>clampToGround</altitudeMode><coordinates>80.8535317,21.2722009,480 80.8540354,21.2721394,480 80.8543254,21.2722730,480 80.8544703,21.2724716,480 80.8545038,21.2730129,480 80.8542728,21.2738249,480 80.8534757,21.2754488,480 80.8531714,21.2757194,480 80.8522957,21.2759583,480 80.8514258,21.2758984,480 80.8508874,21.2762607,480 80.8506193,21.2773434,480 80.8509910,21.2784260,480 80.8509675,21.2786966,480 80.8505560,21.2791156,480 80.8502660,21.2791035,480 80.8496861,21.2788176,480 80.8491062,21.2787514,480 80.8482363,21.2788099,480 80.8464966,21.2792184,480 80.8460109,21.2800499,480 80.8447569,21.2814029,480 80.8435971,21.2825900,480 80.8430172,21.2828466,480 80.8415674,21.2826201,480 80.8406976,21.2826853,480 80.8404076,21.2826178,480 80.8395377,21.2819991,480 80.8388316,21.2819445,480 80.8387637,21.2814032,480 80.8392478,21.2807202,480 80.8409261,21.2800499,480 80.8421473,21.2788954,480 80.8433071,21.2781652,480 80.8450469,21.2777243,480 80.8464966,21.2768143,480 80.8473665,21.2766737,480 80.8477576,21.2762607,480 80.8482363,21.2759948,480 80.8493962,21.2760438,480 80.8503823,21.2757194,480 80.8513283,21.2746368,480 80.8518981,21.2735542,480 80.8530575,21.2724716,480 80.8535317,21.2722009,480</coordinates></LineString></Placemark><Placemark><name>480 m</name><styleUrl>#minor</styleUrl><ExtendedData><Data name="elevation"><value>480</value></Data></ExtendedData><LineString><tessellate>1</tessellate><altitudeMode>clampToGround</altitudeMode><coordinates>80.8368653,21.2822151,480 80.8377980,21.2821467,480 80.8379274,21.2822151,480 80.8381486,21.2827564,480 80.8381368,21.2830271,480 80.8376547,21.2838391,480 80.8358595,21.2851923,480 80.8333148,21.2864455,480</coordinates></LineString></Placemark><Placemark><name>480 m</name><styleUrl>#minor</styleUrl><ExtendedData><Data name="elevation"><value>480</value></Data></ExtendedData><LineString><tessellate>1</tessellate><altitudeMode>clampToGround</altitudeMode><coordinates>80.8333148,21.2833115,480 80.8357684,21.2824345,480 80.8368653,21.2822151,480</coordinates></LineString></Placemark><Placemark><name>480 m</name><styleUrl>#minor</styleUrl><ExtendedData><Data name="elevation"><value>480</value></Data></ExtendedData><LineString><tessellate>1</tessellate><altitudeMode>clampToGround</altitudeMode><coordinates>80.8461501,21.2949359,480 80.8467866,21.2947823,480 80.8470765,21.2948311,480 80.8475407,21.2952065,480 80.8476520,21.2954772,480 80.8471547,21.2965598,480 80.8472710,21.2971011,480 80.8478430,21.2979131,480 80.8478358,21.2981837,480 80.8476564,21.2984845,480 80.8473665,21.2982977,480 80.8469632,21.2976424,480 80.8467866,21.2975250,480 80.8462067,21.2975522,480 80.8450469,21.2978422,480 80.8445458,21.2976424,480 80.8443678,21.2973718,480 80.8445527,21.2965598,480 80.8449061,21.2960185,480 80.8456268,21.2952296,480 80.8461501,21.2949359,480</coordinates></LineString></Placemark><Placemark><name>480 m</name><styleUrl>#minor</styleUrl><ExtendedData><Data name="elevation"><value>480</value></Data></ExtendedData><LineString><tessellate>1</tessellate><altitudeMode>clampToGround</altitudeMode><coordinates>80.8333148,21.2979459,480 80.8334072,21.2976424,480 80.8341636,21.2971011,480 80.8344098,21.2965598,480 80.8348985,21.2960508,480 80.8350350,21.2954772,480 80.8354784,21.2948731,480 80.8371158,21.2935826,480 80.8377510,21.2925000,480 80.8390486,21.2911467,480 80.8401177,21.2886664,480 80.8411751,21.2873576,480 80.8414713,21.2868163,480 80.8421708,21.2862750,480 80.8423522,21.2860043,480 80.8424497,21.2854630,480 80.8427873,21.2846510,480 80.8433071,21.2837500,480 80.8438870,21.2832946,480 80.8444669,21.2833035,480 80.8450469,21.2838977,480 80.8456268,21.2841870,480 80.8462067,21.2842154,480 80.8471879,21.2838391,480 80.8482684,21.2830271,480 80.8485263,21.2829329,480 80.8488162,21.2829891,480 80.8486354,21.2835684,480 80.8481317,21.2841097,480 80.8472078,21.2854630,480 80.8467866,21.2857426,480 80.8456268,21.2860694,480 80.8453204,21.2862750,480 80.8453570,21.2865456,480 80.8459382,21.2870869,480 80.8460475,21.2878989,480 80.8457481,21.2887108,480 80.8446410,21.2903348,480 80.8438844,21.2916880,480 80.8434160,21.2922293,480 80.8430172,21.2924764,480 80.8421473,21.2925753,480 80.8409875,21.2924555,480 80.8404760,21.2927707,480 80.8406976,21.2929668,480 80.8415674,21.2932324,480 80.8421473,21.2935766,480 80.8425837,21.2941239,480 80.8427961,21.2946652,480 80.8428433,21.2957479,480 80.8424065,21.2968305,480 80.8422748,21.2976424,480 80.8423828,21.2979131,480 80.8419829,21.2984544,480 80.8420688,21.2987250,480 80.8419498,21.2992664,480 80.8420639,21.2998077,480 80.8421473,21.2998817,480 80.8430172,21.2996181,480 80.8433071,21.2996362,480 80.8436444,21.2998077,480 80.8441857,21.3003490,480 80.8453368,21.3010286,480 80.8457426,21.3011609,480 80.8458308,21.3014316,480 80.8456268,21.3017836,480 80.8453368,21.3018164,480 80.8433071,21.3014790,480 80.8421473,21.3016545,480 80.8415674,21.3012650,480 80.8412775,21.3012875,480 80.8404852,21.3017022,480 80.8401197,21.3019729,480 80.8404076,21.3021504,480 80.8409875,21.3020987,480 80.8421473,21.3023872,480 80.8433071,21.3033804,480 80.8444669,21.3037631,480 80.8447569,21.3041380,480 80.8447931,21.3044088,480 80.8445220,21.3049501,480 80.8438870,21.3053335,480 80.8418574,21.3055487,480 80.8401177,21.3053803,480 80.8396738,21.3054914,480 80.8401177,21.3057263,480 80.8406976,21.3062799,480 80.8412775,21.3071842,480 80.8415674,21.3074571,480 80.8421473,21.3071196,480 80.8424373,21.3070810,480 80.8431138,21.3071153,480 80.8435971,21.3073477,480 80.8437923,21.3079273,480 80.8436328,21.3092806,480 80.8438194,21.3095512,480 80.8441770,21.3096006,480 80.8450469,21.3092831,480 80.8456268,21.3094481,480 80.8467910,21.3109045,480 80.8476859,21.3117164,480 80.8477638,21.3119871,480 80.8475025,21.3125284,480 80.8468128,21.3133404,480 80.8466076,21.3142200,480</coordinates></LineString></Placemark><Placemark><name>500 m</name><styleUrl>#major</styleUrl><ExtendedData><Data name="elevation"><value>500</value></Data></ExtendedData><LineString><tessellate>1</tessellate><altitudeMode>clampToGround</altitudeMode><coordinates>80.8533106,21.2727422,500 80.8537454,21.2726169,500 80.8539630,21.2727422,500 80.8540996,21.2730129,500 80.8539837,21.2735542,500 80.8531655,21.2750985,500 80.8528756,21.2754170,500 80.8525856,21.2755498,500 80.8522957,21.2755940,500 80.8517626,21.2754488,500 80.8515392,21.2751781,500 80.8518077,21.2743662,500 80.8522957,21.2736558,500 80.8533106,21.2727422,500</coordinates></LineString></Placemark><Placemark><name>500 m</name><styleUrl>#major</styleUrl><ExtendedData><Data name="elevation"><value>500</value></Data></ExtendedData><LineString><tessellate>1</tessellate><altitudeMode>clampToGround</altitudeMode><coordinates>80.8478677,21.2765314,500 80.8485263,21.2762827,500 80.8502660,21.2763796,500 80.8503117,21.2773434,500 80.8505712,21.2781553,500 80.8505560,21.2785451,500 80.8502660,21.2787279,500 80.8493962,21.2784934,500 80.8488162,21.2784802,500 80.8473665,21.2786438,500 80.8467866,21.2786107,500 80.8462067,21.2788078,500 80.8459167,21.2791586,500 80.8457125,21.2797793,500 80.8453431,21.2803206,500 80.8435971,21.2821427,500 80.8430172,21.2824991,500 80.8415674,21.2822863,500 80.8406976,21.2823457,500 80.8404076,21.2822474,500 80.8394234,21.2814032,500 80.8394929,21.2811325,500 80.8398109,21.2808619,500 80.8405458,21.2805912,500 80.8412775,21.2801485,500 80.8421473,21.2792369,500 80.8433071,21.2784566,500 80.8453368,21.2779522,500 80.8464966,21.2772463,500 80.8473665,21.2769850,500 80.8478677,21.2765314,500</coordinates></LineString></Placemark><Placemark><name>500 m</name><styleUrl>#major</styleUrl><ExtendedData><Data name="elevation"><value>500</value></Data></ExtendedData><LineString><tessellate>1</tessellate><altitudeMode>clampToGround</altitudeMode><coordinates>80.8357465,21.2827564,500 80.8366382,21.2825367,500 80.8372181,21.2825360,500 80.8376467,21.2827564,500 80.8377149,21.2830271,500 80.8371641,21.2838391,500 80.8356834,21.2849217,500 80.8334487,21.2860395,500 80.8333148,21.2860848,500</coordinates></LineString></Placemark><Placemark><name>500 m</name><styleUrl>#major</styleUrl><ExtendedData><Data name="elevation"><value>500</value></Data></ExtendedData><LineString><tessellate>1</tessellate><altitudeMode>clampToGround</altitudeMode><coordinates>80.8333148,21.2836497,500 80.8334487,21.2836167,500 80.8357465,21.2827564,500</coordinates></LineString></Placemark><Placemark><name>500 m</name><styleUrl>#major</styleUrl><ExtendedData><Data name="elevation"><value>500</value></Data></ExtendedData><LineString><tessellate>1</tessellate><altitudeMode>clampToGround</altitudeMode><coordinates>80.8458814,21.2957479,500 80.8462585,21.2957479,500 80.8463559,21.2960185,500 80.8462735,21.2962892,500 80.8454632,21.2971011,500 80.8450469,21.2971150,500 80.8452356,21.2965598,500 80.8458814,21.2957479,500</coordinates></LineString></Placemark><Placemark><name>500 m</name><styleUrl>#major</styleUrl><ExtendedData><Data name="elevation"><value>500</value></Data></ExtendedData><LineString><tessellate>1</tessellate><altitudeMode>clampToGround</altitudeMode><coordinates>80.8428489,21.3003490,500 80.8430172,21.3002806,500 80.8431061,21.3003490,500 80.8431551,21.3006196,500 80.8429956,21.3008903,500 80.8427272,21.3010020,500 80.8425538,21.3008903,500 80.8425991,21.3006196,500 80.8428489,21.3003490,500</coordinates></LineString></Placemark><Placemark><name>500 m</name><styleUrl>#major</styleUrl><ExtendedData><Data name="elevation"><value>500</value></Data></ExtendedData><LineString><tessellate>1</tessellate><altitudeMode>clampToGround</altitudeMode><coordinates>80.8333148,21.2998441,500 80.8333463,21.2998077,500 80.8334982,21.2989957,500 80.8339444,21.2981837,500 80.8358870,21.2954772,500 80.8375081,21.2939067,500 80.8381435,21.2927707,500 80.8393194,21.2914174,500 80.8401576,21.2895228,500 80.8413689,21.2878989,500 80.8425021,21.2868163,500 80.8429887,21.2857336,500 80.8433505,21.2843804,500 80.8435971,21.2839507,500 80.8438870,21.2836611,500 80.8441770,21.2835942,500 80.8444669,21.2837105,500 80.8453368,21.2846134,500 80.8456268,21.2847859,500 80.8464966,21.2845422,500 80.8468032,21.2846510,500 80.8462067,21.2853641,500 80.8459167,21.2854801,500 80.8453368,21.2853228,500 80.8450469,21.2855719,500 80.8447682,21.2862750,500 80.8448119,21.2868163,500 80.8454318,21.2873576,500 80.8455458,21.2878989,500 80.8452388,21.2887108,500 80.8435572,21.2914174,500 80.8427272,21.2922130,500 80.8421473,21.2922489,500 80.8409875,21.2920596,500 80.8406976,21.2921318,500 80.8401177,21.2926536,500 80.8397903,21.2933120,500 80.8397178,21.2935826,500 80.8398277,21.2937995,500 80.8409875,21.2933717,500 80.8418574,21.2937362,500 80.8422970,21.2943946,500 80.8423595,21.2952065,500 80.8421473,21.2959381,500 80.8412881,21.2973718,500 80.8412435,21.2987250,500 80.8408525,21.3003490,500 80.8401753,21.3011609,500 80.8389637,21.3022436,500 80.8392478,21.3030139,500 80.8395377,21.3032503,500 80.8398277,21.3032991,500 80.8404076,21.3030204,500 80.8415674,21.3027288,500 80.8421463,21.3030555,500 80.8430172,21.3038225,500 80.8438870,21.3041977,500 80.8441341,21.3044088,500 80.8438870,21.3047892,500 80.8430172,21.3047801,500 80.8415674,21.3050718,500 80.8406070,21.3049501,500 80.8395377,21.3043923,500 80.8389578,21.3046494,500 80.8386679,21.3049678,500 80.8384853,21.3052207,500 80.8384891,21.3057621,500 80.8386679,21.3063135,500 80.8395377,21.3062305,500 80.8401177,21.3064587,500 80.8410909,21.3076566,500 80.8415674,21.3079472,500 80.8424373,21.3074597,500 80.8427272,21.3074106,500 80.8430172,21.3075459,500 80.8432482,21.3079273,500 80.8432378,21.3092806,500 80.8434211,21.3098219,500 80.8435971,21.3099630,500 80.8438870,21.3099741,500 80.8450469,21.3096643,500 80.8453368,21.3097030,500 80.8466337,21.3111751,500 80.8472490,21.3117164,500 80.8473883,21.3119871,500 80.8473511,21.3122578,500 80.8464998,21.3133404,500 80.8462459,21.3142200,500</coordinates></LineString></Placemark><Placemark><name>500 m</name><styleUrl>#major</styleUrl><ExtendedData><Data name="elevation"><value>500</value></Data></ExtendedData><LineString><tessellate>1</tessellate><altitudeMode>clampToGround</altitudeMode><coordinates>80.8424849,21.3142200,500 80.8424373,21.3140962,500 80.8421473,21.3139666,500 80.8416549,21.3142200,500</coordinates></LineString></Placemark><Placemark><name>520 m</name><styleUrl>#minor</styleUrl><ExtendedData><Data name="elevation"><value>520</value></Data></ExtendedData><LineString><tessellate>1</tessellate><altitudeMode>clampToGround</altitudeMode><coordinates>80.8480373,21.2768021,520 80.8485263,21.2766002,520 80.8497868,21.2768021,520 80.8499993,21.2770727,520 80.8500723,21.2781553,520 80.8499761,21.2782391,520 80.8479464,21.2782368,520 80.8467866,21.2780313,520 80.8462067,21.2782123,520 80.8459856,21.2781553,520 80.8461355,21.2778847,520 80.8467866,21.2777234,520 80.8472472,21.2773434,520 80.8476564,21.2771754,520 80.8480373,21.2768021,520</coordinates></LineString></Placemark><Placemark><name>520 m</name><styleUrl>#minor</styleUrl><ExtendedData><Data name="elevation"><value>520</value></Data></ExtendedData><LineString><tessellate>1</tessellate><altitudeMode>clampToGround</altitudeMode><coordinates>80.8442916,21.2784260,520 80.8453368,21.2785381,520 80.8454508,21.2786966,520 80.8453949,21.2795086,520 80.8449502,21.2803206,520 80.8435971,21.2817042,520 80.8430172,21.2821344,520 80.8427272,21.2821894,520 80.8412775,21.2818661,520 80.8406976,21.2819559,520 80.8404076,21.2818451,520 80.8400659,21.2814032,520 80.8402147,21.2811325,520 80.8406976,21.2809726,520 80.8415464,21.2803206,520 80.8424373,21.2793551,520 80.8434631,21.2786966,520 80.8442916,21.2784260,520</coordinates></LineString></Placemark><Placemark><name>520 m</name><styleUrl>#minor</styleUrl><ExtendedData><Data name="elevation"><value>520</value></Data></ExtendedData><LineString><tessellate>1</tessellate><altitudeMode>clampToGround</altitudeMode><coordinates>80.8359057,21.2830271,520 80.8369282,21.2828165,520 80.8372631,21.2830271,520 80.8369282,21.2835579,520 80.8354784,21.2846790,520 80.8343186,21.2851424,520 80.8333148,21.2857008,520</coordinates></LineString></Placemark><Placemark><name>520 m</name><styleUrl>#minor</styleUrl><ExtendedData><Data name="elevation"><value>520</value></Data></ExtendedData><LineString><tessellate>1</tessellate><altitudeMode>clampToGround</altitudeMode><coordinates>80.8333148,21.2839429,520 80.8334487,21.2839089,520 80.8359057,21.2830271,520</coordinates></LineString></Placemark><Placemark><name>520 m</name><styleUrl>#minor</styleUrl><ExtendedData><Data name="elevation"><value>520</value></Data></ExtendedData><LineString><tessellate>1</tessellate><altitudeMode>clampToGround</altitudeMode><coordinates>80.8409558,21.3035968,520 80.8415674,21.3033548,520 80.8417555,21.3035968,520 80.8419055,21.3041381,520 80.8417208,21.3044088,520 80.8412775,21.3044899,520 80.8408941,21.3044088,520 80.8407194,21.3041381,520 80.8407485,21.3038675,520 80.8409558,21.3035968,520</coordinates></LineString></Placemark><Placemark><name>520 m</name><styleUrl>#minor</styleUrl><ExtendedData><Data name="elevation"><value>520</value></Data></ExtendedData><LineString><tessellate>1</tessellate><altitudeMode>clampToGround</altitudeMode><coordinates>80.8333148,21.3128142,520 80.8334665,21.3127991,520 80.8333148,21.3126233,520</coordinates></LineString></Placemark><Placemark><name>520 m</name><styleUrl>#minor</styleUrl><ExtendedData><Data name="elevation"><value>520</value></Data></ExtendedData><LineString><tessellate>1</tessellate><altitudeMode>clampToGround</altitudeMode><coordinates>80.8333148,21.3004596,520 80.8336493,21.3000783,520 80.8348265,21.2976424,520 80.8351885,21.2972899,520 80.8354784,21.2967455,520 80.8368479,21.2949359,520 80.8377980,21.2939653,520 80.8383603,21.2930413,520 80.8396833,21.2914174,520 80.8402222,21.2900641,520 80.8409875,21.2891722,520 80.8412775,21.2886236,520 80.8427846,21.2870869,520 80.8432910,21.2860043,520 80.8436758,21.2843804,520 80.8438870,21.2840466,520 80.8441770,21.2839072,520 80.8447474,21.2843804,520 80.8448297,21.2846510,520 80.8441758,21.2868163,520 80.8442698,21.2870869,520 80.8447520,21.2876282,520 80.8446448,21.2887108,520 80.8433071,21.2910751,520 80.8427272,21.2917837,520 80.8424373,21.2919626,520 80.8421473,21.2919954,520 80.8415674,21.2919063,520 80.8409875,21.2915058,520 80.8406976,21.2915747,520 80.8397500,21.2927707,520 80.8390932,21.2943946,520 80.8392478,21.2945540,520 80.8404076,21.2938426,520 80.8409875,21.2936599,520 80.8415178,21.2938533,520 80.8418093,21.2941239,520 80.8419574,21.2949359,520 80.8418279,21.2954772,520 80.8408830,21.2971011,520 80.8406248,21.2992664,520 80.8403862,21.3000783,520 80.8398277,21.3007780,520 80.8385353,21.3019729,520 80.8384450,21.3022436,520 80.8386419,21.3033262,520 80.8385835,21.3038675,520 80.8378455,21.3052207,520 80.8381193,21.3068447,520 80.8383779,21.3071002,520 80.8392478,21.3068509,520 80.8398277,21.3069701,520 80.8412775,21.3083604,520 80.8415674,21.3084140,520 80.8425347,21.3079273,520 80.8427945,21.3081979,520 80.8428860,21.3098219,520 80.8430172,21.3100969,520 80.8433071,21.3103336,520 80.8435971,21.3103614,520 80.8450469,21.3100215,520 80.8453368,21.3101140,520 80.8468198,21.3117164,520 80.8470243,21.3119871,520 80.8470021,21.3122578,520 80.8461949,21.3133404,520 80.8459191,21.3142200,520</coordinates></LineString></Placemark><Placemark><name>520 m</name><styleUrl>#minor</styleUrl><ExtendedData><Data name="elevation"><value>520</value></Data></ExtendedData><LineString><tessellate>1</tessellate><altitudeMode>clampToGround</altitudeMode><coordinates>80.8428487,21.3142200,520 80.8427272,21.3138473,520 80.8424373,21.3135756,520 80.8418574,21.3136479,520 80.8407131,21.3142200,520</coordinates></LineString></Placemark><Placemark><name>540 m</name><styleUrl>#minor</styleUrl><ExtendedData><Data name="elevation"><value>540</value></Data></ExtendedData><LineString><tessellate>1</tessellate><altitudeMode>clampToGround</altitudeMode><coordinates>80.8484607,21.2770727,540 80.8488162,21.2770298,540 80.8493962,21.2772942,540 80.8494991,21.2776140,540 80.8493962,21.2778147,540 80.8491062,21.2779152,540 80.8482363,21.2778574,540 80.8480518,21.2776140,540 80.8484607,21.2770727,540</coordinates></LineString></Placemark><Placemark><name>540 m</name><styleUrl>#minor</styleUrl><ExtendedData><Data name="elevation"><value>540</value></Data></ExtendedData><LineString><tessellate>1</tessellate><altitudeMode>clampToGround</altitudeMode><coordinates>80.8441291,21.2786966,540 80.8446189,21.2786966,540 80.8449713,21.2789673,540 80.8449411,21.2797793,540 80.8445796,21.2803206,540 80.8430172,21.2817952,540 80.8427272,21.2818685,540 80.8421473,21.2817745,540 80.8415084,21.2814032,540 80.8412676,21.2811325,540 80.8413557,21.2808619,540 80.8418574,21.2804642,540 80.8426923,21.2795086,540 80.8441291,21.2786966,540</coordinates></LineString></Placemark><Placemark><name>540 m</name><styleUrl>#minor</styleUrl><ExtendedData><Data name="elevation"><value>540</value></Data></ExtendedData><LineString><tessellate>1</tessellate><altitudeMode>clampToGround</altitudeMode><coordinates>80.8360547,21.2832978,540 80.8363483,21.2832235,540 80.8366763,21.2832978,540 80.8351885,21.2844902,540 80.8343186,21.2847423,540 80.8333148,21.2852710,540</coordinates></LineString></Placemark><Placemark><name>540 m</name><styleUrl>#minor</styleUrl><ExtendedData><Data name="elevation"><value>540</value></Data></ExtendedData><LineString><tessellate>1</tessellate><altitudeMode>clampToGround</altitudeMode><coordinates>80.8333148,21.2842177,540 80.8334487,21.2841849,540 80.8360547,21.2832978,540</coordinates></LineString></Placemark><Placemark><name>540 m</name><styleUrl>#minor</styleUrl><ExtendedData><Data name="elevation"><value>540</value></Data></ExtendedData><LineString><tessellate>1</tessellate><altitudeMode>clampToGround</altitudeMode><coordinates>80.8441187,21.2843804,540 80.8442543,21.2843804,540 80.8441770,21.2849379,540 80.8440478,21.2846510,540 80.8441187,21.2843804,540</coordinates></LineString></Placemark><Placemark><name>540 m</name><styleUrl>#minor</styleUrl><ExtendedData><Data name="elevation"><value>540</value></Data></ExtendedData><LineString><tessellate>1</tessellate><altitudeMode>clampToGround</altitudeMode><coordinates>80.8433021,21.2870869,540 80.8435971,21.2872917,540 80.8439827,21.2878989,540 80.8440216,21.2881695,540 80.8438502,21.2889815,540 80.8429296,21.2908761,540 80.8424373,21.2914947,540 80.8421473,21.2916689,540 80.8418574,21.2916887,540 80.8415674,21.2915399,540 80.8412775,21.2909627,540 80.8406976,21.2910731,540 80.8401177,21.2915392,540 80.8401159,21.2911467,540 80.8403816,21.2903348,540 80.8415293,21.2887108,540 80.8419989,21.2881695,540 80.8433021,21.2870869,540</coordinates></LineString></Placemark><Placemark><name>540 m</name><styleUrl>#minor</styleUrl><ExtendedData><Data name="elevation"><value>540</value></Data></ExtendedData><LineString><tessellate>1</tessellate><altitudeMode>clampToGround</altitudeMode><coordinates>80.8333148,21.3132407,540 80.8335382,21.3133404,540 80.8337387,21.3136638,540 80.8340286,21.3137220,540 80.8346085,21.3133470,540 80.8351885,21.3132696,540 80.8353094,21.3127991,540 80.8348985,21.3123791,540 80.8343186,21.3125902,540 80.8340286,21.3125850,540 80.8333148,21.3122962,540</coordinates></LineString></Placemark><Placemark><name>540 m</name><styleUrl>#minor</styleUrl><ExtendedData><Data name="elevation"><value>540</value></Data></ExtendedData><LineString><tessellate>1</tessellate><altitudeMode>clampToGround</altitudeMode><coordinates>80.8333148,21.3010361,540 80.8333692,21.3008903,540 80.8340324,21.3000783,540 80.8350630,21.2979131,540 80.8355285,21.2973718,540 80.8358079,21.2968305,540 80.8370167,21.2952065,540 80.8377980,21.2943896,540 80.8386679,21.2931338,540 80.8395377,21.2922047,540 80.8395520,21.2925000,540 80.8392478,21.2932537,540 80.8383067,21.2949359,540 80.8380880,21.2958831,540 80.8389578,21.2951304,540 80.8406976,21.2939842,540 80.8409875,21.2939418,540 80.8413471,21.2941239,540 80.8415056,21.2943946,540 80.8415531,21.2949359,540 80.8413638,21.2954772,540 80.8404765,21.2968305,540 80.8402940,21.2976424,540 80.8401841,21.2992664,540 80.8400018,21.2998077,540 80.8380808,21.3019729,540 80.8380328,21.3035968,540 80.8373741,21.3052207,540 80.8376479,21.3065740,540 80.8376223,21.3073860,540 80.8377980,21.3076978,540 80.8380880,21.3077071,540 80.8389578,21.3073839,540 80.8395377,21.3074228,540 80.8406976,21.3084414,540 80.8409875,21.3088418,540 80.8412775,21.3088979,540 80.8421473,21.3086350,540 80.8423692,21.3090099,540 80.8425193,21.3103632,540 80.8427139,21.3106338,540 80.8433071,21.3109481,540 80.8450469,21.3104061,540 80.8456268,21.3108223,540 80.8464112,21.3117164,540 80.8466196,21.3119871,540 80.8466255,21.3122578,540 80.8458999,21.3133404,540 80.8455979,21.3142200,540</coordinates></LineString></Placemark><Placemark><name>540 m</name><styleUrl>#minor</styleUrl><ExtendedData><Data name="elevation"><value>540</value></Data></ExtendedData><LineString><tessellate>1</tessellate><altitudeMode>clampToGround</altitudeMode><coordinates>80.8431982,21.3142200,540 80.8430172,21.3136278,540 80.8428025,21.3133404,540 80.8424373,21.3131661,540 80.8418574,21.3132311,540 80.8401177,21.3140445,540 80.8395377,21.3141310,540 80.8394081,21.3142200,540</coordinates></LineString></Placemark><Placemark><name>560 m</name><styleUrl>#minor</styleUrl><ExtendedData><Data name="elevation"><value>560</value></Data></ExtendedData><LineString><tessellate>1</tessellate><altitudeMode>clampToGround</altitudeMode><coordinates>80.8437121,21.2792379,560 80.8441770,21.2790907,560 80.8444669,21.2791403,560 80.8445889,21.2795086,560 80.8444019,21.2800499,560 80.8430172,21.2814520,560 80.8427272,21.2815122,560 80.8422620,21.2814032,560 80.8420206,21.2811325,560 80.8420226,21.2808619,560 80.8427985,21.2797793,560 80.8437121,21.2792379,560</coordinates></LineString></Placemark><Placemark><name>560 m</name><styleUrl>#minor</styleUrl><ExtendedData><Data name="elevation"><value>560</value></Data></ExtendedData><LineString><tessellate>1</tessellate><altitudeMode>clampToGround</altitudeMode><coordinates>80.8429106,21.2878989,560 80.8431152,21.2878989,560 80.8432639,21.2881695,560 80.8432576,21.2884402,560 80.8431300,21.2889815,560 80.8427205,21.2897935,560 80.8421473,21.2903325,560 80.8409875,21.2904928,560 80.8408059,21.2903348,560 80.8416512,21.2889815,560 80.8424123,21.2881695,560 80.8429106,21.2878989,560</coordinates></LineString></Placemark><Placemark><name>560 m</name><styleUrl>#minor</styleUrl><ExtendedData><Data name="elevation"><value>560</value></Data></ExtendedData><LineString><tessellate>1</tessellate><altitudeMode>clampToGround</altitudeMode><coordinates>80.8357682,21.3142200,560 80.8363448,21.3130697,560 80.8365706,21.3117164,560 80.8363483,21.3110493,560 80.8354784,21.3114963,560 80.8348985,21.3114657,560 80.8340112,21.3119871,560 80.8335005,21.3119871,560 80.8333148,21.3117973,560</coordinates></LineString></Placemark><Placemark><name>560 m</name><styleUrl>#minor</styleUrl><ExtendedData><Data name="elevation"><value>560</value></Data></ExtendedData><LineString><tessellate>1</tessellate><altitudeMode>clampToGround</altitudeMode><coordinates>80.8333148,21.3057945,560 80.8333326,21.3057621,560 80.8333277,21.3054914,560 80.8333148,21.3054762,560</coordinates></LineString></Placemark><Placemark><name>560 m</name><styleUrl>#minor</styleUrl><ExtendedData><Data name="elevation"><value>560</value></Data></ExtendedData><LineString><tessellate>1</tessellate><altitudeMode>clampToGround</altitudeMode><coordinates>80.8333148,21.3016350,560 80.8335607,21.3011609,560 80.8347008,21.2995370,560 80.8352601,21.2981837,560 80.8372181,21.2954694,560 80.8375081,21.2951432,560 80.8377980,21.2951104,560 80.8376676,21.2954772,560 80.8370861,21.2962892,560 80.8369746,21.2971011,560 80.8370737,21.2973718,560 80.8372181,21.2974492,560 80.8376498,21.2968305,560 80.8391262,21.2954772,560 80.8401177,21.2946772,560 80.8406976,21.2943581,560 80.8409875,21.2944534,560 80.8410490,21.2949359,560 80.8408708,21.2954772,560 80.8402695,21.2962892,560 80.8400140,21.2968305,560 80.8398115,21.2987250,560 80.8395740,21.2995370,560 80.8389883,21.3003490,560 80.8381144,21.3011609,560 80.8376714,21.3019729,560 80.8376391,21.3035968,560 80.8369838,21.3052207,560 80.8372875,21.3079273,560 80.8375081,21.3081429,560 80.8377980,21.3081908,560 80.8389578,21.3078207,560 80.8392478,21.3078212,560 80.8401177,21.3085031,560 80.8409875,21.3094341,560 80.8415674,21.3092589,560 80.8418574,21.3093999,560 80.8420243,21.3106338,560 80.8427272,21.3114057,560 80.8430172,21.3115054,560 80.8435971,21.3114129,560 80.8444669,21.3109737,560 80.8450469,21.3109231,560 80.8453368,21.3110592,560 80.8459167,21.3116240,560 80.8461594,21.3119871,560 80.8461596,21.3122578,560 80.8455896,21.3133404,560 80.8452581,21.3142200,560</coordinates></LineString></Placemark><Placemark><name>560 m</name><styleUrl>#minor</styleUrl><ExtendedData><Data name="elevation"><value>560</value></Data></ExtendedData><LineString><tessellate>1</tessellate><altitudeMode>clampToGround</altitudeMode><coordinates>80.8435848,21.3142200,560 80.8432784,21.3133404,560 80.8430172,21.3129245,560 80.8424373,21.3125854,560 80.8418574,21.3127040,560 80.8401177,21.3136057,560 80.8395377,21.3137418,560 80.8388815,21.3141523,560 80.8388148,21.3142200,560</coordinates></LineString></Placemark><Placemark><name>580 m</name><styleUrl>#minor</styleUrl><ExtendedData><Data name="elevation"><value>580</value></Data></ExtendedData><LineString><tessellate>1</tessellate><altitudeMode>clampToGround</altitudeMode><coordinates>80.8432780,21.2797793,580 80.8435971,21.2797061,580 80.8439135,21.2797793,580 80.8438864,21.2800499,580 80.8436958,21.2803206,580 80.8433071,21.2806333,580 80.8431160,21.2805912,580 80.8429997,21.2803206,580 80.8432780,21.2797793,580</coordinates></LineString></Placemark><Placemark><name>580 m</name><styleUrl>#minor</styleUrl><ExtendedData><Data name="elevation"><value>580</value></Data></ExtendedData><LineString><tessellate>1</tessellate><altitudeMode>clampToGround</altitudeMode><coordinates>80.8363088,21.2973718,580 80.8363483,21.2972815,580 80.8363483,21.2974929,580 80.8363088,21.2973718,580</coordinates></LineString></Placemark><Placemark><name>580 m</name><styleUrl>#minor</styleUrl><ExtendedData><Data name="elevation"><value>580</value></Data></ExtendedData><LineString><tessellate>1</tessellate><altitudeMode>clampToGround</altitudeMode><coordinates>80.8441470,21.3117164,580 80.8450469,21.3115198,580 80.8453368,21.3116377,580 80.8456381,21.3119871,580 80.8455857,21.3125284,580 80.8450469,21.3137468,580 80.8447486,21.3141523,580 80.8445637,21.3142200,580</coordinates></LineString></Placemark><Placemark><name>580 m</name><styleUrl>#minor</styleUrl><ExtendedData><Data name="elevation"><value>580</value></Data></ExtendedData><LineString><tessellate>1</tessellate><altitudeMode>clampToGround</altitudeMode><coordinates>80.8440176,21.3142200,580 80.8438870,21.3141041,580 80.8435912,21.3127991,580 80.8436899,21.3122578,580 80.8441470,21.3117164,580</coordinates></LineString></Placemark><Placemark><name>580 m</name><styleUrl>#minor</styleUrl><ExtendedData><Data name="elevation"><value>580</value></Data></ExtendedData><LineString><tessellate>1</tessellate><altitudeMode>clampToGround</altitudeMode><coordinates>80.8365518,21.3142200,580 80.8367474,21.3138817,580 80.8370300,21.3130697,580 80.8371377,21.3119871,580 80.8370663,21.3106338,580 80.8369282,21.3102739,580 80.8366382,21.3100658,580 80.8363483,21.3101327,580 80.8354784,21.3107253,580 80.8348985,21.3108419,580 80.8340286,21.3112717,580 80.8337387,21.3112411,580 80.8333148,21.3105738,580</coordinates></LineString></Placemark><Placemark><name>580 m</name><styleUrl>#minor</styleUrl><ExtendedData><Data name="elevation"><value>580</value></Data></ExtendedData><LineString><tessellate>1</tessellate><altitudeMode>clampToGround</altitudeMode><coordinates>80.8333148,21.3082391,580 80.8333274,21.3081979,580 80.8333305,21.3076566,580 80.8336347,21.3068447,580 80.8336094,21.3063034,580 80.8337578,21.3057621,580 80.8338519,21.3044088,580 80.8343329,21.3030555,580 80.8343186,21.3027238,580 80.8334047,21.3035968,580 80.8333148,21.3037316,580</coordinates></LineString></Placemark><Placemark><name>580 m</name><styleUrl>#minor</styleUrl><ExtendedData><Data name="elevation"><value>580</value></Data></ExtendedData><LineString><tessellate>1</tessellate><altitudeMode>clampToGround</altitudeMode><coordinates>80.8333148,21.3024974,580 80.8337567,21.3014316,580 80.8349089,21.2998077,580 80.8350660,21.2992664,580 80.8357684,21.2979236,580 80.8360583,21.2976041,580 80.8361913,21.2976424,580 80.8359511,21.2989957,580 80.8359277,21.2998077,580 80.8360583,21.2998432,580 80.8379099,21.2971011,580 80.8398277,21.2954608,580 80.8399898,21.2954772,580 80.8396271,21.2960185,580 80.8394755,21.2965598,580 80.8393666,21.2987250,580 80.8391783,21.2992664,580 80.8375793,21.3011609,580 80.8372188,21.3019729,580 80.8372470,21.3035968,580 80.8367390,21.3046794,580 80.8366017,21.3052207,580 80.8368317,21.3068447,580 80.8367460,21.3079273,580 80.8369282,21.3085440,580 80.8372181,21.3088956,580 80.8375081,21.3089260,580 80.8389578,21.3082617,580 80.8392478,21.3083225,580 80.8398159,21.3087393,580 80.8406089,21.3098219,580 80.8413296,21.3100925,580 80.8415591,21.3117164,580 80.8412748,21.3122578,580 80.8406459,21.3127991,580 80.8401177,21.3131094,580 80.8395377,21.3132361,580 80.8381154,21.3142200,580</coordinates></LineString></Placemark><Placemark><name>600 m</name><styleUrl>#major</styleUrl><ExtendedData><Data name="elevation"><value>600</value></Data></ExtendedData><LineString><tessellate>1</tessellate><altitudeMode>clampToGround</altitudeMode><coordinates>80.8383274,21.2973718,600 80.8386679,21.2972665,600 80.8388562,21.2976424,600 80.8387977,21.2987250,600 80.8386679,21.2990760,600 80.8384069,21.2995370,600 80.8369282,21.3011375,600 80.8365059,21.3019729,600 80.8367895,21.3030555,600 80.8368088,21.3035968,600 80.8362743,21.3049501,600 80.8364082,21.3071153,600 80.8359761,21.3087393,600 80.8356132,21.3092806,600 80.8348985,21.3099474,600 80.8343186,21.3101613,600 80.8337387,21.3100714,600 80.8335242,21.3098219,600 80.8334231,21.3092806,600 80.8339394,21.3068447,600 80.8342032,21.3046794,600 80.8344513,21.3038675,600 80.8354204,21.3014316,600 80.8359367,21.3008903,600 80.8372181,21.2987479,600 80.8383274,21.2973718,600</coordinates></LineString></Placemark><Placemark><name>600 m</name><styleUrl>#major</styleUrl><ExtendedData><Data name="elevation"><value>600</value></Data></ExtendedData><LineString><tessellate>1</tessellate><altitudeMode>clampToGround</altitudeMode><coordinates>80.8345222,21.3008903,600 80.8346085,21.3007894,600 80.8349368,21.3011609,600 80.8348985,21.3013098,600 80.8343186,21.3017014,600 80.8341698,21.3014316,600 80.8343186,21.3010551,600 80.8345222,21.3008903,600</coordinates></LineString></Placemark><Placemark><name>600 m</name><styleUrl>#major</styleUrl><ExtendedData><Data name="elevation"><value>600</value></Data></ExtendedData><LineString><tessellate>1</tessellate><altitudeMode>clampToGround</altitudeMode><coordinates>80.8385758,21.3090099,600 80.8389578,21.3089027,600 80.8395377,21.3092170,600 80.8406976,21.3110159,600 80.8408037,21.3114458,600 80.8404076,21.3121405,600 80.8395377,21.3123816,600 80.8389578,21.3126692,600 80.8383779,21.3127318,600 80.8380880,21.3126633,600 80.8378898,21.3122578,600 80.8376906,21.3106338,600 80.8378955,21.3098219,600 80.8385758,21.3090099,600</coordinates></LineString></Placemark><Placemark><name>600 m</name><styleUrl>#major</styleUrl><ExtendedData><Data name="elevation"><value>600</value></Data></ExtendedData><LineString><tessellate>1</tessellate><altitudeMode>clampToGround</altitudeMode><coordinates>80.8444664,21.3125284,600 80.8447569,21.3124885,600 80.8448380,21.3127991,600 80.8444669,21.3134619,600 80.8441770,21.3134736,600 80.8441770,21.3128752,600 80.8444664,21.3125284,600</coordinates></LineString></Placemark><Placemark><name>620 m</name><styleUrl>#minor</styleUrl><ExtendedData><Data name="elevation"><value>620</value></Data></ExtendedData><LineString><tessellate>1</tessellate><altitudeMode>clampToGround</altitudeMode><coordinates>80.8354178,21.3033262,620 80.8357684,21.3031223,620 80.8360583,21.3031785,620 80.8361862,21.3035968,620 80.8358200,21.3049501,620 80.8358192,21.3071153,620 80.8355621,21.3079273,620 80.8351885,21.3085078,620 80.8346085,21.3089022,620 80.8343186,21.3089234,620 80.8341576,21.3087393,620 80.8341882,21.3076566,620 80.8346202,21.3049501,620 80.8350712,21.3038675,620 80.8354178,21.3033262,620</coordinates></LineString></Placemark></Folder></Document></kml>