<?xml version='1.0' encoding='utf-8'?>
<kml xmlns="http://www.opengis.net/kml/2.2"><Document><name>Contours near 19.0680°N, 74.6010°E</name><description>Contains modified Copernicus DEM GLO-30 data: © DLR e.V. 2010-2014 and © Airbus Defence and Space GmbH 2014-2018, provided under COPERNICUS by the European Union and ESA. Contour interval 10 m, generated 2026-09-27 by Village Pond Planner. DEM-derived lines, not a field survey.</description><Style id="minor"><LineStyle><color>ff4f7f93</color><width>1</width></LineStyle></Style><Style id="major"><LineStyle><color>ff1d4f63</color><width>2.2</width></LineStyle></Style><Folder><name>Contours 10 m</name><Placemark><name>700 m</name><styleUrl>#major</styleUrl><ExtendedData><Data name="elevation"><value>700</value></Data></ExtendedData><LineString><tessellate>1</tessellate><altitudeMode>clampToGround</altitudeMode><coordinates>74.6191742,19.0822378,700 74.6178571,19.0818554,700 74.6172857,19.0822515,700 74.6167143,19.0822235,700 74.6158571,19.0824816,700 74.6152857,19.0828185,700 74.6148420,19.0833220,700 74.6147348,19.0835932,700 74.6148237,19.0838644,700 74.6156616,19.0849492,700 74.6160822,19.0857627,700 74.6164286,19.0858958,700 74.6165474,19.0860000,700</coordinates></LineString></Placemark><Placemark><name>700 m</name><styleUrl>#major</styleUrl><ExtendedData><Data name="elevation"><value>700</value></Data></ExtendedData><LineString><tessellate>1</tessellate><altitudeMode>clampToGround</altitudeMode><coordinates>74.6111416,19.0860000,700 74.6114617,19.0849492,700 74.6111794,19.0846780,700 74.6107143,19.0845554,700 74.6100468,19.0838644,700 74.6095058,19.0835932,700 74.6092857,19.0833469,700 74.6094485,19.0827797,700 74.6093910,19.0825085,700 74.6092849,19.0822373,700 74.6087143,19.0817856,700 74.6085522,19.0819661,700 74.6085706,19.0825085,700 74.6084286,19.0825879,700 74.6081429,19.0823394,700 74.6075714,19.0831307,700 74.6072857,19.0843000,700 74.6070000,19.0844975,700 74.6067143,19.0850887,700 74.6061429,19.0852519,700 74.6059965,19.0857627,700 74.6057802,19.0860000,700</coordinates></LineString></Placemark><Placemark><name>700 m</name><styleUrl>#major</styleUrl><ExtendedData><Data name="elevation"><value>700</value></Data></ExtendedData><LineString><tessellate>1</tessellate><altitudeMode>clampToGround</altitudeMode><coordinates>74.6026208,19.0860000,700 74.6024286,19.0853751,700 74.6021429,19.0849862,700 74.6013110,19.0852203,700 74.6009582,19.0857627,700 74.6010694,19.0860000,700</coordinates></LineString></Placemark><Placemark><name>710 m</name><styleUrl>#minor</styleUrl><ExtendedData><Data name="elevation"><value>710</value></Data></ExtendedData><LineString><tessellate>1</tessellate><altitudeMode>clampToGround</altitudeMode><coordinates>74.5964286,19.0777940,710 74.5964286,19.0779877,710</coordinates></LineString></Placemark><Placemark><name>710 m</name><styleUrl>#minor</styleUrl><ExtendedData><Data name="elevation"><value>710</value></Data></ExtendedData><LineString><tessellate>1</tessellate><altitudeMode>clampToGround</altitudeMode><coordinates>74.6191742,19.0796596,710 74.6190000,19.0797300,710 74.6178571,19.0796679,710 74.6170000,19.0793715,710 74.6161429,19.0795684,710 74.6155714,19.0795045,710 74.6152857,19.0794549,710 74.6147143,19.0789587,710 74.6141429,19.0787252,710 74.6139289,19.0784407,710 74.6132857,19.0782131,710 74.6110000,19.0766662,710 74.6092857,19.0767002,710 74.6084649,19.0762712,710 74.6081429,19.0764431,710 74.6078571,19.0761807,710 74.6072857,19.0761001,710 74.6067706,19.0762712,710 74.6067143,19.0765561,710 74.6061429,19.0764410,710 74.6058571,19.0767012,710 74.6057585,19.0770847,710 74.6055714,19.0773186,710 74.6052857,19.0771877,710 74.6049701,19.0773559,710 74.6047143,19.0776547,710 74.6041429,19.0777930,710 74.6038571,19.0784041,710 74.6032857,19.0785930,710 74.6027143,19.0785016,710 74.6018571,19.0787400,710 74.6004286,19.0787486,710 74.5998571,19.0785340,710 74.5995714,19.0782412,710 74.5992857,19.0781999,710 74.5983955,19.0784407,710 74.5985234,19.0787119,710 74.5984286,19.0791212,710 74.5975714,19.0786624,710 74.5974482,19.0784407,710 74.5974757,19.0778983,710 74.5972857,19.0776923,710 74.5968689,19.0781695,710 74.5968743,19.0784407,710 74.5967143,19.0787300,710 74.5964286,19.0787842,710 74.5955714,19.0786054,710 74.5951417,19.0787119,710 74.5950000,19.0789181,710 74.5947143,19.0789043,710 74.5944286,19.0790294,710 74.5942989,19.0792542,710 74.5941845,19.0806102,710 74.5947143,19.0813543,710 74.5950000,19.0815497,710 74.5952857,19.0815296,710 74.5954923,19.0816949,710 74.5952857,19.0818756,710 74.5947143,19.0818310,710 74.5941429,19.0824455,710 74.5938571,19.0825050,710 74.5940809,19.0827797,710 74.5938571,19.0828125,710 74.5933004,19.0835932,710 74.5932857,19.0839554,710 74.5930619,19.0844068,710 74.5930345,19.0852203,710 74.5926480,19.0854915,710 74.5925768,19.0860000,710</coordinates></LineString></Placemark><Placemark><name>720 m</name><styleUrl>#minor</styleUrl><ExtendedData><Data name="elevation"><value>720</value></Data></ExtendedData><LineString><tessellate>1</tessellate><altitudeMode>clampToGround</altitudeMode><coordinates>74.6191742,19.0612878,720 74.6190000,19.0612188,720 74.6187143,19.0612784,720 74.6183712,19.0610847,720 74.6184312,19.0608136,720 74.6181429,19.0608822,720 74.6180107,19.0608136,720 74.6180913,19.0602712,720 74.6177948,19.0600000,720 74.6171476,19.0597288,720 74.6170000,19.0593145,720 74.6167143,19.0591021,720 74.6161429,19.0588960,720 74.6158571,19.0590612,720 74.6155714,19.0590258,720 74.6152857,19.0592896,720 74.6151129,19.0597288,720 74.6156495,19.0602712,720 74.6155081,19.0608136,720 74.6156374,19.0613559,720 74.6154391,19.0618983,720 74.6150189,19.0621695,720 74.6150473,19.0624407,720 74.6152857,19.0625780,720 74.6161429,19.0623495,720 74.6175714,19.0626390,720 74.6178826,19.0629831,720 74.6183054,19.0637966,720 74.6191742,19.0644422,720</coordinates></LineString></Placemark><Placemark><name>720 m</name><styleUrl>#minor</styleUrl><ExtendedData><Data name="elevation"><value>720</value></Data></ExtendedData><LineString><tessellate>1</tessellate><altitudeMode>clampToGround</altitudeMode><coordinates>74.6191742,19.0785426,720 74.6190000,19.0786707,720 74.6181429,19.0787864,720 74.6178571,19.0786952,720 74.6164286,19.0774922,720 74.6161044,19.0773559,720 74.6156322,19.0762712,720 74.6141429,19.0749766,720 74.6112857,19.0745241,720 74.6101429,19.0747358,720 74.6098571,19.0746435,720 74.6092857,19.0739564,720 74.6089779,19.0738305,720 74.6078571,19.0738427,720 74.6072857,19.0737380,720 74.6061429,19.0729089,720 74.6052857,19.0725845,720 74.6045851,19.0732881,720 74.6038571,19.0744288,720 74.6030175,19.0751864,720 74.6030000,19.0754855,720 74.6023961,19.0760000,720 74.6018571,19.0763666,720 74.6007143,19.0763279,720 74.6004286,19.0762333,720 74.6001429,19.0759161,720 74.5994630,19.0749153,720 74.5993864,19.0738305,720 74.5997154,19.0727458,720 74.5998250,19.0719322,720 74.5997247,19.0716610,720 74.5995714,19.0715085,720 74.5987143,19.0718617,720 74.5978571,19.0720688,720 74.5968635,19.0724746,720 74.5966378,19.0727458,720 74.5967143,19.0728567,720 74.5972406,19.0730169,720 74.5973127,19.0732881,720 74.5967143,19.0732869,720 74.5964286,19.0731482,720 74.5958571,19.0732133,720 74.5952857,19.0736351,720 74.5950000,19.0736500,720 74.5941429,19.0740785,720 74.5938571,19.0744366,720 74.5932857,19.0747192,720 74.5930506,19.0751864,720 74.5929521,19.0757288,720 74.5917655,19.0778983,720 74.5915714,19.0781722,720 74.5908218,19.0787119,720 74.5904874,19.0792542,720 74.5899296,19.0797966,720 74.5898230,19.0800678,720 74.5900443,19.0806102,720 74.5901684,19.0822373,720 74.5905059,19.0841356,720 74.5904310,19.0849492,720 74.5901950,19.0854915,720 74.5895406,19.0860000,720</coordinates></LineString></Placemark><Placemark><name>730 m</name><styleUrl>#minor</styleUrl><ExtendedData><Data name="elevation"><value>730</value></Data></ExtendedData><LineString><tessellate>1</tessellate><altitudeMode>clampToGround</altitudeMode><coordinates>74.6191742,19.0563157,730 74.6190000,19.0564291,730 74.6184286,19.0563849,730 74.6181429,19.0565982,730 74.6177874,19.0562034,730 74.6172857,19.0559616,730 74.6169426,19.0553898,730 74.6164286,19.0549485,730 74.6155714,19.0547562,730 74.6152272,19.0545763,730 74.6138571,19.0543818,730 74.6135714,19.0544593,730 74.6132857,19.0547111,730 74.6127143,19.0546857,730 74.6121429,19.0550248,730 74.6112857,19.0547511,730 74.6110905,19.0548475,730 74.6109011,19.0553898,730 74.6109991,19.0559322,730 74.6112687,19.0564746,730 74.6112400,19.0567458,730 74.6116939,19.0572881,730 74.6118862,19.0578305,730 74.6115714,19.0578751,730 74.6106303,19.0586441,730 74.6105335,19.0589153,730 74.6106495,19.0591864,730 74.6112857,19.0593571,730 74.6115545,19.0597288,730 74.6117468,19.0602712,730 74.6115527,19.0610847,730 74.6117049,19.0613559,730 74.6104216,19.0618983,730 74.6099898,19.0624407,730 74.6104655,19.0632542,730 74.6110388,19.0637966,730 74.6114262,19.0646102,730 74.6118571,19.0651592,730 74.6124286,19.0654141,730 74.6135714,19.0652224,730 74.6141429,19.0652344,730 74.6152251,19.0662373,730 74.6155044,19.0667797,730 74.6156740,19.0675932,730 74.6161429,19.0682861,730 74.6165371,19.0684068,730 74.6167522,19.0686780,730 74.6172857,19.0688995,730 74.6178571,19.0693379,730 74.6187143,19.0695868,730 74.6191742,19.0695378,730</coordinates></LineString></Placemark><Placemark><name>730 m</name><styleUrl>#minor</styleUrl><ExtendedData><Data name="elevation"><value>730</value></Data></ExtendedData><LineString><tessellate>1</tessellate><altitudeMode>clampToGround</altitudeMode><coordinates>74.6191742,19.0781101,730 74.6190000,19.0782152,730 74.6184286,19.0783856,730 74.6181429,19.0783570,730 74.6176026,19.0778983,730 74.6172790,19.0768136,730 74.6163570,19.0757288,730 74.6161429,19.0750702,730 74.6155714,19.0745349,730 74.6135714,19.0736722,730 74.6127143,19.0736050,730 74.6115714,19.0737394,730 74.6107143,19.0735773,730 74.6106830,19.0730169,730 74.6105457,19.0727458,730 74.6101429,19.0724830,730 74.6096442,19.0724746,730 74.6092857,19.0726382,730 74.6090000,19.0726313,730 74.6081429,19.0723775,730 74.6076499,19.0719322,730 74.6076126,19.0708475,730 74.6077635,19.0705763,730 74.6075714,19.0701894,730 74.6070000,19.0699037,730 74.6041429,19.0693365,730 74.6040455,19.0692203,730 74.6041672,19.0689492,730 74.6040733,19.0684068,730 74.6037522,19.0678644,730 74.6036259,19.0670508,730 74.6032857,19.0663859,730 74.6030000,19.0665089,730 74.6027143,19.0669292,730 74.6024286,19.0670110,730 74.6021043,19.0675932,730 74.6015701,19.0678644,730 74.6012148,19.0684068,730 74.6010000,19.0685537,730 74.6004286,19.0684931,730 74.5995714,19.0679465,730 74.5990000,19.0680739,730 74.5987143,19.0680260,730 74.5984286,19.0676828,730 74.5983044,19.0681356,730 74.5983848,19.0684068,730 74.5981917,19.0689492,730 74.5978571,19.0689476,730 74.5975714,19.0692018,730 74.5970000,19.0693941,730 74.5958571,19.0692813,730 74.5955714,19.0688439,730 74.5952857,19.0689635,730 74.5950000,19.0687703,730 74.5947143,19.0688695,730 74.5943363,19.0694915,730 74.5944276,19.0697627,730 74.5942336,19.0700339,730 74.5940853,19.0705763,730 74.5942541,19.0708475,730 74.5941695,19.0711186,730 74.5942626,19.0713898,730 74.5938002,19.0719322,730 74.5936197,19.0724746,730 74.5930000,19.0727501,730 74.5924286,19.0719175,730 74.5921429,19.0718853,730 74.5909631,19.0724746,730 74.5907326,19.0727458,730 74.5907700,19.0730169,730 74.5910763,19.0735593,730 74.5915714,19.0739476,730 74.5917539,19.0743729,730 74.5917463,19.0746441,730 74.5913865,19.0754576,730 74.5913576,19.0762712,730 74.5907143,19.0775158,730 74.5904286,19.0776743,730 74.5895714,19.0775810,730 74.5887143,19.0780058,730 74.5878571,19.0787747,730 74.5872857,19.0790088,730 74.5870000,19.0794408,730 74.5868768,19.0803390,730 74.5867217,19.0806102,730 74.5870340,19.0811525,730 74.5872857,19.0813554,730 74.5876251,19.0814237,730 74.5878605,19.0819661,730 74.5895714,19.0836049,730 74.5899070,19.0841356,730 74.5899337,19.0844068,730 74.5897601,19.0849492,730 74.5895106,19.0852203,730 74.5890000,19.0854492,730 74.5881429,19.0855134,730 74.5872857,19.0858917,730 74.5871377,19.0860000,730</coordinates></LineString></Placemark><Placemark><name>730 m</name><styleUrl>#minor</styleUrl><ExtendedData><Data name="elevation"><value>730</value></Data></ExtendedData><LineString><tessellate>1</tessellate><altitudeMode>clampToGround</altitudeMode><coordinates>74.6038133,19.0697627,730 74.6038571,19.0696883,730 74.6040034,19.0700339,730 74.6038571,19.0703739,730 74.6034239,19.0700339,730 74.6038133,19.0697627,730</coordinates></LineString></Placemark><Placemark><name>730 m</name><styleUrl>#minor</styleUrl><ExtendedData><Data name="elevation"><value>730</value></Data></ExtendedData><LineString><tessellate>1</tessellate><altitudeMode>clampToGround</altitudeMode><coordinates>74.6023663,19.0713898,730 74.6027775,19.0713898,730 74.6030000,19.0726133,730 74.6026603,19.0732881,730 74.6026487,19.0735593,730 74.6022856,19.0738305,730 74.6019416,19.0743729,730 74.6019881,19.0749153,730 74.6018580,19.0751864,730 74.6015714,19.0753130,730 74.6012857,19.0752738,730 74.6008005,19.0749153,730 74.6006909,19.0746441,730 74.6008917,19.0743729,730 74.6006636,19.0741017,730 74.6011856,19.0732881,730 74.6013452,19.0727458,730 74.6020742,19.0722034,730 74.6020672,19.0719322,730 74.6023663,19.0713898,730</coordinates></LineString></Placemark><Placemark><name>740 m</name><styleUrl>#minor</styleUrl><ExtendedData><Data name="elevation"><value>740</value></Data></ExtendedData><LineString><tessellate>1</tessellate><altitudeMode>clampToGround</altitudeMode><coordinates>74.6191742,19.0542904,740 74.6187143,19.0543695,740 74.6184286,19.0542888,740 74.6182089,19.0540339,740 74.6181429,19.0537275,740 74.6178571,19.0534334,740 74.6170000,19.0528522,740 74.6158752,19.0524068,740 74.6150000,19.0522208,740 74.6130000,19.0524337,740 74.6104286,19.0523014,740 74.6087143,19.0530821,740 74.6081429,19.0530226,740 74.6078571,19.0531315,740 74.6073053,19.0537627,740 74.6073748,19.0540339,740 74.6076944,19.0543051,740 74.6077844,19.0545763,740 74.6074245,19.0553898,740 74.6067939,19.0559322,740 74.6070462,19.0562034,740 74.6071053,19.0567458,740 74.6078571,19.0576561,740 74.6081429,19.0577763,740 74.6081905,19.0581017,740 74.6080463,19.0586441,740 74.6079930,19.0600000,740 74.6070980,19.0616271,740 74.6067143,19.0620456,740 74.6065387,19.0627119,740 74.6066500,19.0632542,740 74.6070000,19.0635717,740 74.6081725,19.0637966,740 74.6090000,19.0642311,740 74.6092855,19.0646102,740 74.6095714,19.0653105,740 74.6102977,19.0659661,740 74.6109259,19.0670508,740 74.6112857,19.0674140,740 74.6115714,19.0675112,740 74.6121429,19.0674385,740 74.6127143,19.0676162,740 74.6131437,19.0681356,740 74.6138371,19.0694915,740 74.6139968,19.0700339,740 74.6143780,19.0705763,740 74.6144286,19.0708979,740 74.6150000,19.0709705,740 74.6155714,19.0712551,740 74.6161429,19.0713858,740 74.6167143,19.0713717,740 74.6175714,19.0711025,740 74.6181429,19.0711518,740 74.6187143,19.0713812,740 74.6191742,19.0717249,740</coordinates></LineString></Placemark><Placemark><name>740 m</name><styleUrl>#minor</styleUrl><ExtendedData><Data name="elevation"><value>740</value></Data></ExtendedData><LineString><tessellate>1</tessellate><altitudeMode>clampToGround</altitudeMode><coordinates>74.6191742,19.0776016,740 74.6187143,19.0778521,740 74.6184286,19.0778124,740 74.6179516,19.0773559,740 74.6177403,19.0768136,740 74.6177206,19.0762712,740 74.6170596,19.0757288,740 74.6167143,19.0747965,740 74.6161429,19.0741212,740 74.6147143,19.0736671,740 74.6141102,19.0732881,740 74.6137141,19.0727458,740 74.6135449,19.0719322,740 74.6132857,19.0718334,740 74.6127143,19.0718905,740 74.6118571,19.0721498,740 74.6112857,19.0719851,740 74.6110634,19.0713898,740 74.6104286,19.0710773,740 74.6097389,19.0703051,740 74.6090896,19.0692203,740 74.6084286,19.0688139,740 74.6072857,19.0677465,740 74.6062559,19.0673220,740 74.6056476,19.0662373,740 74.6053441,19.0654237,740 74.6054049,19.0648814,740 74.6049653,19.0646102,740 74.6044538,19.0637966,740 74.6042766,19.0632542,740 74.6035714,19.0627181,740 74.6032857,19.0627621,740 74.6030000,19.0629940,740 74.6028743,19.0627119,740 74.6027143,19.0626798,740 74.6018571,19.0625676,740 74.6010000,19.0626077,740 74.6007248,19.0627119,740 74.6007535,19.0632542,740 74.6006085,19.0635254,740 74.5996502,19.0640678,740 74.5992857,19.0644377,740 74.5984286,19.0644633,740 74.5975714,19.0639927,740 74.5964286,19.0644671,740 74.5961429,19.0650500,740 74.5952857,19.0655422,740 74.5947143,19.0656117,740 74.5941429,19.0654722,740 74.5935714,19.0651817,740 74.5930000,19.0653357,740 74.5920298,19.0659661,740 74.5923634,19.0665085,740 74.5918018,19.0673220,740 74.5915738,19.0678644,740 74.5915792,19.0686780,740 74.5918571,19.0687607,740 74.5919695,19.0689492,740 74.5919522,19.0694915,740 74.5911604,19.0703051,740 74.5911801,19.0705763,740 74.5907143,19.0708657,740 74.5901429,19.0716809,740 74.5895714,19.0718689,740 74.5881429,19.0717761,740 74.5877811,19.0719322,740 74.5880386,19.0727458,740 74.5882238,19.0741017,740 74.5886115,19.0746441,740 74.5887182,19.0751864,740 74.5883101,19.0760000,740 74.5874558,19.0768136,740 74.5870799,19.0773559,740 74.5858526,19.0784407,740 74.5855692,19.0789831,740 74.5856182,19.0792542,740 74.5850801,19.0803390,740 74.5850184,19.0808814,740 74.5853086,19.0814237,740 74.5858571,19.0819121,740 74.5864286,19.0821090,740 74.5880010,19.0830508,740 74.5883681,19.0844068,740 74.5882416,19.0846780,740 74.5878607,19.0849492,740 74.5872857,19.0850508,740 74.5858571,19.0859479,740 74.5858220,19.0860000,740</coordinates></LineString></Placemark><Placemark><name>740 m</name><styleUrl>#minor</styleUrl><ExtendedData><Data name="elevation"><value>740</value></Data></ExtendedData><LineString><tessellate>1</tessellate><altitudeMode>clampToGround</altitudeMode><coordinates>74.5828258,19.0775002,740 74.5835714,19.0772408,740 74.5841186,19.0768136,740 74.5847448,19.0749153,740 74.5850000,19.0745251,740 74.5860382,19.0735593,740 74.5863337,19.0724746,740 74.5862040,19.0708475,740 74.5861429,19.0707601,740 74.5858571,19.0707511,740 74.5847143,19.0710504,740 74.5844286,19.0712623,740 74.5838571,19.0713785,740 74.5832857,19.0718003,740 74.5828258,19.0719319,740</coordinates></LineString></Placemark><Placemark><name>750 m</name><styleUrl>#major</styleUrl><ExtendedData><Data name="elevation"><value>750</value></Data></ExtendedData><LineString><tessellate>1</tessellate><altitudeMode>clampToGround</altitudeMode><coordinates>74.6191742,19.0534016,750 74.6190000,19.0535258,750 74.6187143,19.0535117,750 74.6184485,19.0532203,750 74.6178571,19.0520183,750 74.6172857,19.0521301,750 74.6170000,19.0519573,750 74.6164894,19.0513220,750 74.6161429,19.0512359,750 74.6158571,19.0512142,750 74.6152857,19.0514187,750 74.6144286,19.0512231,750 74.6127143,19.0512401,750 74.6115714,19.0509371,750 74.6110000,19.0511345,750 74.6104286,19.0511010,750 74.6098571,19.0513549,750 74.6092857,19.0513011,750 74.6087143,19.0516835,750 74.6084286,19.0517492,750 74.6064286,19.0519851,750 74.6061429,19.0521487,750 74.6058571,19.0525797,750 74.6052857,19.0530868,750 74.6042884,19.0537627,750 74.6041025,19.0543051,750 74.6040966,19.0545763,750 74.6045808,19.0553898,750 74.6047143,19.0563380,750 74.6049398,19.0567458,750 74.6055714,19.0569665,750 74.6061429,19.0573337,750 74.6070000,19.0580998,750 74.6070832,19.0583729,750 74.6071120,19.0589153,750 74.6068289,19.0597288,750 74.6058571,19.0610363,750 74.6057198,19.0618983,750 74.6055714,19.0621938,750 74.6052857,19.0623627,750 74.6050000,19.0623308,750 74.6047943,19.0621695,750 74.6044286,19.0612146,750 74.6030000,19.0602255,750 74.6024286,19.0601425,750 74.6007143,19.0603800,750 74.6001429,19.0603199,750 74.5998571,19.0603626,750 74.5994385,19.0610847,750 74.5990000,19.0613914,750 74.5987143,19.0614361,750 74.5981429,19.0613166,750 74.5972857,19.0615138,750 74.5962656,19.0618983,750 74.5958571,19.0625904,750 74.5956218,19.0627119,750 74.5950000,19.0626621,750 74.5941429,19.0628449,750 74.5934734,19.0632542,750 74.5930000,19.0638203,750 74.5925421,19.0640678,750 74.5920971,19.0646102,750 74.5915714,19.0649151,750 74.5910000,19.0649160,750 74.5908580,19.0646102,750 74.5904534,19.0643390,750 74.5902932,19.0637966,750 74.5901429,19.0637070,750 74.5898571,19.0640823,750 74.5896846,19.0651525,750 74.5893402,19.0656949,750 74.5893330,19.0659661,750 74.5894263,19.0662373,750 74.5898192,19.0665085,750 74.5904286,19.0664024,750 74.5907143,19.0666349,750 74.5908257,19.0667797,750 74.5908055,19.0670508,750 74.5905957,19.0673220,750 74.5895714,19.0677429,750 74.5890000,19.0674393,750 74.5887078,19.0670508,750 74.5890000,19.0664878,750 74.5887143,19.0664630,750 74.5884286,19.0666922,750 74.5875714,19.0666812,750 74.5870000,19.0664442,750 74.5867143,19.0664996,750 74.5861429,19.0671627,750 74.5847143,19.0676702,750 74.5837150,19.0689492,750 74.5828258,19.0692376,750</coordinates></LineString></Placemark><Placemark><name>750 m</name><styleUrl>#major</styleUrl><ExtendedData><Data name="elevation"><value>750</value></Data></ExtendedData><LineString><tessellate>1</tessellate><altitudeMode>clampToGround</altitudeMode><coordinates>74.6074378,19.0643390,750 74.6078571,19.0643532,750 74.6087143,19.0651789,750 74.6091254,19.0656949,750 74.6095714,19.0666283,750 74.6100365,19.0670508,750 74.6107479,19.0681356,750 74.6110000,19.0683856,750 74.6117483,19.0686780,750 74.6123330,19.0692203,750 74.6126133,19.0697627,750 74.6123756,19.0711186,750 74.6121429,19.0712615,750 74.6118571,19.0711263,750 74.6116898,19.0708475,750 74.6110000,19.0705011,750 74.6105884,19.0700339,750 74.6101429,19.0691783,750 74.6088136,19.0684068,750 74.6076540,19.0670508,750 74.6066111,19.0662373,750 74.6063919,19.0656949,750 74.6065857,19.0648814,750 74.6070000,19.0644839,750 74.6074378,19.0643390,750</coordinates></LineString></Placemark><Placemark><name>750 m</name><styleUrl>#major</styleUrl><ExtendedData><Data name="elevation"><value>750</value></Data></ExtendedData><LineString><tessellate>1</tessellate><altitudeMode>clampToGround</altitudeMode><coordinates>74.5898123,19.0686780,750 74.5901429,19.0686050,750 74.5904527,19.0686780,750 74.5903106,19.0689492,750 74.5898571,19.0691866,750 74.5897012,19.0689492,750 74.5898123,19.0686780,750</coordinates></LineString></Placemark><Placemark><name>750 m</name><styleUrl>#major</styleUrl><ExtendedData><Data name="elevation"><value>750</value></Data></ExtendedData><LineString><tessellate>1</tessellate><altitudeMode>clampToGround</altitudeMode><coordinates>74.5894754,19.0694915,750 74.5895714,19.0693610,750 74.5897989,19.0697627,750 74.5896417,19.0703051,750 74.5892857,19.0704229,750 74.5890203,19.0703051,750 74.5890604,19.0700339,750 74.5894754,19.0694915,750</coordinates></LineString></Placemark><Placemark><name>750 m</name><styleUrl>#major</styleUrl><ExtendedData><Data name="elevation"><value>750</value></Data></ExtendedData><LineString><tessellate>1</tessellate><altitudeMode>clampToGround</altitudeMode><coordinates>74.6168529,19.0719322,750 74.6172857,19.0717644,750 74.6178571,19.0717423,750 74.6190000,19.0722253,750 74.6191742,19.0724329,750</coordinates></LineString></Placemark><Placemark><name>750 m</name><styleUrl>#major</styleUrl><ExtendedData><Data name="elevation"><value>750</value></Data></ExtendedData><LineString><tessellate>1</tessellate><altitudeMode>clampToGround</altitudeMode><coordinates>74.6191742,19.0768673,750 74.6187143,19.0769324,750 74.6184286,19.0767872,750 74.6178571,19.0758100,750 74.6173846,19.0754576,750 74.6170530,19.0746441,750 74.6164306,19.0738305,750 74.6155714,19.0734785,750 74.6153538,19.0732881,750 74.6153682,19.0730169,750 74.6158052,19.0724746,750 74.6168529,19.0719322,750</coordinates></LineString></Placemark><Placemark><name>750 m</name><styleUrl>#major</styleUrl><ExtendedData><Data name="elevation"><value>750</value></Data></ExtendedData><LineString><tessellate>1</tessellate><altitudeMode>clampToGround</altitudeMode><coordinates>74.5835482,19.0854915,750 74.5838571,19.0853848,750 74.5840517,19.0854915,750 74.5841504,19.0857627,750 74.5841131,19.0860000,750</coordinates></LineString></Placemark><Placemark><name>750 m</name><styleUrl>#major</styleUrl><ExtendedData><Data name="elevation"><value>750</value></Data></ExtendedData><LineString><tessellate>1</tessellate><altitudeMode>clampToGround</altitudeMode><coordinates>74.5828595,19.0860000,750 74.5830000,19.0857786,750 74.5835482,19.0854915,750</coordinates></LineString></Placemark><Placemark><name>760 m</name><styleUrl>#minor</styleUrl><ExtendedData><Data name="elevation"><value>760</value></Data></ExtendedData><LineString><tessellate>1</tessellate><altitudeMode>clampToGround</altitudeMode><coordinates>74.6191742,19.0530342,760 74.6190000,19.0531469,760 74.6187143,19.0530045,760 74.6184128,19.0524068,760 74.6182664,19.0515932,760 74.6181429,19.0515312,760 74.6172857,19.0516498,760 74.6169034,19.0510508,760 74.6161429,19.0506557,760 74.6158571,19.0506879,760 74.6152857,19.0510618,760 74.6132857,19.0506328,760 74.6124286,19.0508169,760 74.6119968,19.0505085,760 74.6118571,19.0501169,760 74.6107143,19.0507486,760 74.6095714,19.0508082,760 74.6078571,19.0512260,760 74.6067143,19.0510665,760 74.6064286,19.0511228,760 74.6055714,19.0515113,760 74.6048887,19.0515932,760 74.6047143,19.0517442,760 74.6027143,19.0523875,760 74.6021951,19.0529492,760 74.6021507,19.0532203,760 74.6029181,19.0543051,760 74.6032857,19.0553892,760 74.6036066,19.0556610,760 74.6042888,19.0570169,760 74.6045803,19.0572881,760 74.6058571,19.0579006,760 74.6063169,19.0583729,760 74.6065322,19.0589153,760 74.6062430,19.0597288,760 74.6057982,19.0602712,760 74.6054028,19.0605424,760 74.6054402,19.0610847,760 74.6052857,19.0615733,760 74.6050000,19.0613193,760 74.6047799,19.0605424,760 74.6034907,19.0594576,760 74.6024286,19.0590535,760 74.6004286,19.0591655,760 74.5990000,19.0599951,760 74.5987143,19.0599176,760 74.5984286,19.0593438,760 74.5978571,19.0593103,760 74.5973275,19.0600000,760 74.5960632,19.0608136,760 74.5952857,19.0615004,760 74.5938571,19.0619892,760 74.5933849,19.0624407,760 74.5930000,19.0625678,760 74.5924286,19.0625984,760 74.5921429,19.0625400,760 74.5921035,19.0624407,760 74.5921429,19.0603971,760 74.5920027,19.0608136,760 74.5915714,19.0611485,760 74.5910000,19.0620441,760 74.5905381,19.0621695,760 74.5887143,19.0635901,760 74.5884286,19.0636666,760 74.5881748,19.0635254,760 74.5878571,19.0628842,760 74.5875714,19.0626540,760 74.5874187,19.0627119,760 74.5864286,19.0634917,760 74.5859601,19.0643390,760 74.5858109,19.0648814,760 74.5844286,19.0658815,760 74.5839207,19.0665085,760 74.5830000,19.0672408,760 74.5828258,19.0673300,760</coordinates></LineString></Placemark><Placemark><name>760 m</name><styleUrl>#minor</styleUrl><ExtendedData><Data name="elevation"><value>760</value></Data></ExtendedData><LineString><tessellate>1</tessellate><altitudeMode>clampToGround</altitudeMode><coordinates>74.6075183,19.0646102,760 74.6078571,19.0647312,760 74.6084286,19.0654223,760 74.6087969,19.0656949,760 74.6091405,19.0662373,760 74.6092857,19.0667896,760 74.6098571,19.0673107,760 74.6107143,19.0685796,760 74.6115714,19.0690507,760 74.6120179,19.0694915,760 74.6121748,19.0697627,760 74.6121727,19.0700339,760 74.6119568,19.0703051,760 74.6115714,19.0703856,760 74.6112857,19.0702806,760 74.6108337,19.0697627,760 74.6104651,19.0689492,760 74.6090000,19.0682309,760 74.6078571,19.0668487,760 74.6070000,19.0662022,760 74.6068202,19.0659661,760 74.6067194,19.0654237,760 74.6070000,19.0649290,760 74.6075183,19.0646102,760</coordinates></LineString></Placemark><Placemark><name>760 m</name><styleUrl>#minor</styleUrl><ExtendedData><Data name="elevation"><value>760</value></Data></ExtendedData><LineString><tessellate>1</tessellate><altitudeMode>clampToGround</altitudeMode><coordinates>74.6169720,19.0722034,760 74.6175714,19.0720513,760 74.6178571,19.0721042,760 74.6187143,19.0723665,760 74.6190000,19.0726925,760 74.6191742,19.0733728,760</coordinates></LineString></Placemark><Placemark><name>760 m</name><styleUrl>#minor</styleUrl><ExtendedData><Data name="elevation"><value>760</value></Data></ExtendedData><LineString><tessellate>1</tessellate><altitudeMode>clampToGround</altitudeMode><coordinates>74.6191742,19.0765597,760 74.6190000,19.0766162,760 74.6187143,19.0765524,760 74.6184286,19.0763335,760 74.6181103,19.0757288,760 74.6175479,19.0751864,760 74.6172408,19.0743729,760 74.6162714,19.0732881,760 74.6161703,19.0730169,760 74.6162727,19.0727458,760 74.6169720,19.0722034,760</coordinates></LineString></Placemark><Placemark><name>770 m</name><styleUrl>#minor</styleUrl><ExtendedData><Data name="elevation"><value>770</value></Data></ExtendedData><LineString><tessellate>1</tessellate><altitudeMode>clampToGround</altitudeMode><coordinates>74.6191742,19.0526955,770 74.6190000,19.0527035,770 74.6187559,19.0524068,770 74.6185310,19.0513220,770 74.6184286,19.0512307,770 74.6175714,19.0513196,770 74.6172857,19.0511413,770 74.6170000,19.0507376,770 74.6161429,19.0503088,770 74.6150000,19.0507393,770 74.6132857,19.0503392,770 74.6127143,19.0504851,770 74.6124286,19.0504042,770 74.6122404,19.0500000,770</coordinates></LineString></Placemark><Placemark><name>770 m</name><styleUrl>#minor</styleUrl><ExtendedData><Data name="elevation"><value>770</value></Data></ExtendedData><LineString><tessellate>1</tessellate><altitudeMode>clampToGround</altitudeMode><coordinates>74.6113264,19.0500000,770 74.6107143,19.0504196,770 74.6084286,19.0508462,770 74.6078571,19.0509310,770 74.6067143,19.0507580,770 74.6052857,19.0510832,770 74.6047143,19.0509366,770 74.6041429,19.0513656,770 74.6030000,19.0516090,770 74.6015714,19.0521346,770 74.6014914,19.0526780,770 74.6011563,19.0532203,770 74.6024788,19.0545763,770 74.6027143,19.0549731,770 74.6028949,19.0556610,770 74.6040507,19.0572881,770 74.6058571,19.0582995,770 74.6061429,19.0586378,770 74.6061594,19.0591864,770 74.6055714,19.0600242,770 74.6052857,19.0601917,770 74.6050000,19.0602098,770 74.6038571,19.0592756,770 74.6030000,19.0588112,770 74.6024509,19.0586441,770 74.6008213,19.0586441,770 74.5992857,19.0591606,770 74.5989118,19.0589153,770 74.5984286,19.0575738,770 74.5981429,19.0577784,770 74.5968073,19.0597288,770 74.5961429,19.0602281,770 74.5950000,19.0608057,770 74.5945469,19.0613559,770 74.5941429,19.0615685,770 74.5935714,19.0616003,770 74.5932272,19.0613559,770 74.5927159,19.0600000,770 74.5927143,19.0589383,770 74.5924286,19.0585798,770 74.5921429,19.0587098,770 74.5919192,19.0591864,770 74.5910000,19.0601866,770 74.5900148,19.0605424,770 74.5896759,19.0610847,770 74.5892857,19.0612603,770 74.5884286,19.0609671,770 74.5875714,19.0611315,770 74.5870000,19.0610923,770 74.5858502,19.0605424,770 74.5856398,19.0616271,770 74.5859062,19.0624407,770 74.5857383,19.0629831,770 74.5855714,19.0632904,770 74.5847143,19.0639789,770 74.5844286,19.0651151,770 74.5837920,19.0651525,770 74.5838377,19.0656949,770 74.5835496,19.0662373,770 74.5828258,19.0667903,770</coordinates></LineString></Placemark><Placemark><name>770 m</name><styleUrl>#minor</styleUrl><ExtendedData><Data name="elevation"><value>770</value></Data></ExtendedData><LineString><tessellate>1</tessellate><altitudeMode>clampToGround</altitudeMode><coordinates>74.6071285,19.0651525,770 74.6075714,19.0648870,770 74.6087143,19.0659648,770 74.6091785,19.0670508,770 74.6095755,19.0673220,770 74.6101014,19.0681356,770 74.6101429,19.0684387,770 74.6098571,19.0684321,770 74.6092209,19.0681356,770 74.6080837,19.0667797,770 74.6070977,19.0659661,770 74.6069775,19.0654237,770 74.6071285,19.0651525,770</coordinates></LineString></Placemark><Placemark><name>770 m</name><styleUrl>#minor</styleUrl><ExtendedData><Data name="elevation"><value>770</value></Data></ExtendedData><LineString><tessellate>1</tessellate><altitudeMode>clampToGround</altitudeMode><coordinates>74.6109940,19.0692203,770 74.6112857,19.0692075,770 74.6116244,19.0694915,770 74.6118684,19.0697627,770 74.6118231,19.0700339,770 74.6115714,19.0700957,770 74.6112857,19.0699010,770 74.6110306,19.0694915,770 74.6109940,19.0692203,770</coordinates></LineString></Placemark><Placemark><name>770 m</name><styleUrl>#minor</styleUrl><ExtendedData><Data name="elevation"><value>770</value></Data></ExtendedData><LineString><tessellate>1</tessellate><altitudeMode>clampToGround</altitudeMode><coordinates>74.6170356,19.0724746,770 74.6175714,19.0723407,770 74.6184286,19.0725018,770 74.6187825,19.0727458,770 74.6190297,19.0735593,770 74.6191295,19.0743729,770 74.6191742,19.0744463,770</coordinates></LineString></Placemark><Placemark><name>770 m</name><styleUrl>#minor</styleUrl><ExtendedData><Data name="elevation"><value>770</value></Data></ExtendedData><LineString><tessellate>1</tessellate><altitudeMode>clampToGround</altitudeMode><coordinates>74.6191742,19.0763324,770 74.6190000,19.0763909,770 74.6187143,19.0763056,770 74.6181615,19.0754576,770 74.6178291,19.0751864,770 74.6175265,19.0743729,770 74.6169173,19.0735593,770 74.6166509,19.0730169,770 74.6167341,19.0727458,770 74.6170356,19.0724746,770</coordinates></LineString></Placemark><Placemark><name>780 m</name><styleUrl>#minor</styleUrl><ExtendedData><Data name="elevation"><value>780</value></Data></ExtendedData><LineString><tessellate>1</tessellate><altitudeMode>clampToGround</altitudeMode><coordinates>74.6191742,19.0522312,780 74.6190000,19.0521241,780 74.6187921,19.0513220,780 74.6185394,19.0510508,780 74.6175714,19.0509760,780 74.6170671,19.0505085,780 74.6161429,19.0500772,780 74.6152857,19.0503881,780 74.6147143,19.0504172,780 74.6132857,19.0501245,780 74.6127143,19.0501435,780 74.6125423,19.0500000,780</coordinates></LineString></Placemark><Placemark><name>780 m</name><styleUrl>#minor</styleUrl><ExtendedData><Data name="elevation"><value>780</value></Data></ExtendedData><LineString><tessellate>1</tessellate><altitudeMode>clampToGround</altitudeMode><coordinates>74.6107669,19.0500000,780 74.6103023,19.0502373,780 74.6084286,19.0506227,780 74.6078571,19.0506786,780 74.6067143,19.0505449,780 74.6061429,19.0505693,780 74.6055714,19.0507425,780 74.6047143,19.0505694,780 74.6038571,19.0511032,780 74.6027143,19.0513060,780 74.6023474,19.0515932,780 74.6012857,19.0519220,780 74.6011880,19.0526780,780 74.6008944,19.0529492,780 74.6007948,19.0532203,780 74.6008987,19.0534915,780 74.6022854,19.0548475,780 74.6024672,19.0551186,780 74.6025409,19.0556610,780 74.6038571,19.0574743,780 74.6050000,19.0582448,780 74.6058177,19.0586441,780 74.6059266,19.0589153,780 74.6058542,19.0591864,780 74.6052857,19.0598497,780 74.6050000,19.0598411,780 74.6041429,19.0591130,780 74.6027143,19.0584178,780 74.6012857,19.0582550,780 74.5995714,19.0587143,780 74.5992857,19.0586713,780 74.5989545,19.0581017,780 74.5987303,19.0567458,780 74.5984286,19.0566609,780 74.5978571,19.0574401,780 74.5975437,19.0581017,780 74.5964286,19.0595814,780 74.5952857,19.0602743,780 74.5945572,19.0605424,780 74.5943710,19.0610847,780 74.5941429,19.0612751,780 74.5938571,19.0612964,780 74.5937348,19.0610847,780 74.5937778,19.0608136,780 74.5932857,19.0601025,780 74.5931804,19.0597288,780 74.5938956,19.0583729,780 74.5938571,19.0580461,780 74.5930000,19.0579826,780 74.5921429,19.0571408,780 74.5918571,19.0573402,780 74.5916666,19.0583729,780 74.5910000,19.0593916,780 74.5884286,19.0604142,780 74.5875714,19.0603877,780 74.5867143,19.0601043,780 74.5855758,19.0591864,780 74.5850000,19.0585548,780 74.5847143,19.0585942,780 74.5846501,19.0589153,780 74.5847958,19.0600000,780 74.5851125,19.0610847,780 74.5850978,19.0627119,780 74.5849838,19.0629831,780 74.5842911,19.0635254,780 74.5838571,19.0645077,780 74.5830675,19.0648814,780 74.5829228,19.0651525,780 74.5831359,19.0656949,780 74.5828258,19.0660930,780</coordinates></LineString></Placemark><Placemark><name>780 m</name><styleUrl>#minor</styleUrl><ExtendedData><Data name="elevation"><value>780</value></Data></ExtendedData><LineString><tessellate>1</tessellate><altitudeMode>clampToGround</altitudeMode><coordinates>74.6072757,19.0654237,780 74.6075714,19.0652190,780 74.6083847,19.0659661,780 74.6087143,19.0665341,780 74.6087143,19.0670875,780 74.6074314,19.0659661,780 74.6072545,19.0656949,780 74.6072757,19.0654237,780</coordinates></LineString></Placemark><Placemark><name>780 m</name><styleUrl>#minor</styleUrl><ExtendedData><Data name="elevation"><value>780</value></Data></ExtendedData><LineString><tessellate>1</tessellate><altitudeMode>clampToGround</altitudeMode><coordinates>74.6091258,19.0675932,780 74.6092857,19.0674966,780 74.6094487,19.0678644,780 74.6092857,19.0678757,780 74.6091258,19.0675932,780</coordinates></LineString></Placemark><Placemark><name>780 m</name><styleUrl>#minor</styleUrl><ExtendedData><Data name="elevation"><value>780</value></Data></ExtendedData><LineString><tessellate>1</tessellate><altitudeMode>clampToGround</altitudeMode><coordinates>74.6170975,19.0727458,780 74.6175714,19.0725957,780 74.6184286,19.0727088,780 74.6186785,19.0730169,780 74.6188692,19.0743729,780 74.6191742,19.0748801,780</coordinates></LineString></Placemark><Placemark><name>780 m</name><styleUrl>#minor</styleUrl><ExtendedData><Data name="elevation"><value>780</value></Data></ExtendedData><LineString><tessellate>1</tessellate><altitudeMode>clampToGround</altitudeMode><coordinates>74.6191742,19.0756604,780 74.6190000,19.0761085,780 74.6187143,19.0759878,780 74.6185046,19.0754576,780 74.6179102,19.0749153,780 74.6176370,19.0741017,780 74.6170483,19.0732881,780 74.6169604,19.0730169,780 74.6170975,19.0727458,780</coordinates></LineString></Placemark><Placemark><name>790 m</name><styleUrl>#minor</styleUrl><ExtendedData><Data name="elevation"><value>790</value></Data></ExtendedData><LineString><tessellate>1</tessellate><altitudeMode>clampToGround</altitudeMode><coordinates>74.6191742,19.0514959,790 74.6189447,19.0510508,790 74.6187143,19.0508582,790 74.6178571,19.0507488,790 74.6172857,19.0503263,790 74.6165834,19.0500000,790</coordinates></LineString></Placemark><Placemark><name>790 m</name><styleUrl>#minor</styleUrl><ExtendedData><Data name="elevation"><value>790</value></Data></ExtendedData><LineString><tessellate>1</tessellate><altitudeMode>clampToGround</altitudeMode><coordinates>74.6153872,19.0500000,790 74.6147143,19.0501371,790 74.6137336,19.0500000,790</coordinates></LineString></Placemark><Placemark><name>790 m</name><styleUrl>#minor</styleUrl><ExtendedData><Data name="elevation"><value>790</value></Data></ExtendedData><LineString><tessellate>1</tessellate><altitudeMode>clampToGround</altitudeMode><coordinates>74.6101787,19.0500000,790 74.6101429,19.0500162,790 74.6090000,19.0502892,790 74.6078571,19.0504189,790 74.6061429,19.0502829,790 74.6055714,19.0504315,790 74.6047143,19.0502903,790 74.6035714,19.0508813,790 74.6027143,19.0509167,790 74.6021429,19.0513468,790 74.6010000,19.0517175,790 74.6009274,19.0518644,790 74.6010014,19.0524068,790 74.6005711,19.0529492,790 74.6005333,19.0534915,790 74.6021484,19.0551186,790 74.6023884,19.0559322,790 74.6035044,19.0575593,790 74.6043779,19.0583729,790 74.6045008,19.0586441,790 74.6044286,19.0586611,790 74.6030000,19.0582025,790 74.6012857,19.0579707,790 74.5995714,19.0583714,790 74.5992684,19.0581017,790 74.5990870,19.0567458,790 74.5987143,19.0563346,790 74.5984286,19.0562213,790 74.5981059,19.0564746,790 74.5972857,19.0579299,790 74.5960859,19.0594576,790 74.5950549,19.0600000,790 74.5941429,19.0599682,790 74.5940380,19.0597288,790 74.5941079,19.0591864,790 74.5945661,19.0583729,790 74.5942490,19.0570169,790 74.5938571,19.0570070,790 74.5935714,19.0571220,790 74.5930000,19.0569359,790 74.5927143,19.0567550,790 74.5924286,19.0563764,790 74.5921429,19.0556950,790 74.5915714,19.0556415,790 74.5914314,19.0559322,790 74.5914834,19.0562034,790 74.5912066,19.0581017,790 74.5908986,19.0586441,790 74.5901429,19.0591575,790 74.5885168,19.0597288,790 74.5875714,19.0597551,790 74.5867196,19.0594576,790 74.5861429,19.0590033,790 74.5855877,19.0583729,790 74.5850000,19.0571553,790 74.5847143,19.0570815,790 74.5843886,19.0578305,790 74.5841455,19.0594576,790 74.5844667,19.0616271,790 74.5844664,19.0624407,790 74.5838571,19.0628547,790 74.5836689,19.0635254,790 74.5832857,19.0641621,790 74.5828258,19.0644117,790</coordinates></LineString></Placemark><Placemark><name>790 m</name><styleUrl>#minor</styleUrl><ExtendedData><Data name="elevation"><value>790</value></Data></ExtendedData><LineString><tessellate>1</tessellate><altitudeMode>clampToGround</altitudeMode><coordinates>74.6172876,19.0730169,790 74.6175714,19.0728940,790 74.6184409,19.0730169,790 74.6185408,19.0735593,790 74.6184934,19.0741017,790 74.6187143,19.0750030,790 74.6181429,19.0748222,790 74.6179275,19.0741017,790 74.6172876,19.0730169,790</coordinates></LineString></Placemark><Placemark><name>800 m</name><styleUrl>#major</styleUrl><ExtendedData><Data name="elevation"><value>800</value></Data></ExtendedData><LineString><tessellate>1</tessellate><altitudeMode>clampToGround</altitudeMode><coordinates>74.6191742,19.0503686,800 74.6181429,19.0501903,800 74.6176141,19.0500000,800</coordinates></LineString></Placemark><Placemark><name>800 m</name><styleUrl>#major</styleUrl><ExtendedData><Data name="elevation"><value>800</value></Data></ExtendedData><LineString><tessellate>1</tessellate><altitudeMode>clampToGround</altitudeMode><coordinates>74.6079395,19.0500000,800 74.6075714,19.0500239,800 74.6074512,19.0500000,800</coordinates></LineString></Placemark><Placemark><name>800 m</name><styleUrl>#major</styleUrl><ExtendedData><Data name="elevation"><value>800</value></Data></ExtendedData><LineString><tessellate>1</tessellate><altitudeMode>clampToGround</altitudeMode><coordinates>74.6043895,19.0500000,800 74.6033327,19.0505085,800 74.6024286,19.0505887,800 74.6010000,19.0512864,800 74.6006247,19.0515932,800 74.6006269,19.0524068,800 74.6002870,19.0529492,800 74.6002418,19.0534915,800 74.6010661,19.0545763,800 74.6018571,19.0553426,800 74.6020177,19.0559322,800 74.6026747,19.0572881,800 74.6026230,19.0575593,800 74.6021429,19.0576740,800 74.6010000,19.0576472,800 74.6001429,19.0578599,800 74.5996963,19.0578305,800 74.5995148,19.0575593,800 74.5994316,19.0567458,800 74.5987143,19.0560072,800 74.5984286,19.0559079,800 74.5979463,19.0562034,800 74.5964286,19.0584068,800 74.5955714,19.0590305,800 74.5954159,19.0589153,800 74.5952857,19.0584897,800 74.5950000,19.0574451,800 74.5948817,19.0564746,800 74.5947143,19.0561154,800 74.5941429,19.0564328,800 74.5935714,19.0563071,800 74.5924395,19.0551186,800 74.5915714,19.0549697,800 74.5910000,19.0545290,800 74.5907143,19.0546441,800 74.5907143,19.0559488,800 74.5905633,19.0570169,800 74.5899408,19.0581017,800 74.5895714,19.0584460,800 74.5890000,19.0586679,800 74.5881429,19.0587984,800 74.5875714,19.0587568,800 74.5866029,19.0583729,800 74.5855865,19.0572881,800 74.5852194,19.0564746,800 74.5844286,19.0560419,800 74.5840998,19.0562034,800 74.5836694,19.0575593,800 74.5834867,19.0594576,800 74.5836082,19.0618983,800 74.5830000,19.0633436,800 74.5828258,19.0635356,800</coordinates></LineString></Placemark><Placemark><name>810 m</name><styleUrl>#minor</styleUrl><ExtendedData><Data name="elevation"><value>810</value></Data></ExtendedData><LineString><tessellate>1</tessellate><altitudeMode>clampToGround</altitudeMode><coordinates>74.5944280,19.0500000,810 74.5944286,19.0500008,810 74.5944297,19.0500000,810</coordinates></LineString></Placemark><Placemark><name>810 m</name><styleUrl>#minor</styleUrl><ExtendedData><Data name="elevation"><value>810</value></Data></ExtendedData><LineString><tessellate>1</tessellate><altitudeMode>clampToGround</altitudeMode><coordinates>74.6023151,19.0500000,810 74.6008087,19.0507797,810 74.6003626,19.0513220,810 74.6002535,19.0521356,810 74.6000060,19.0526780,810 74.5999724,19.0537627,810 74.6006643,19.0548475,810 74.6012857,19.0553976,810 74.6015271,19.0559322,810 74.6015265,19.0567458,810 74.6012857,19.0570351,810 74.6007143,19.0572053,810 74.6004286,19.0572345,810 74.6001429,19.0571195,810 74.5997699,19.0564746,810 74.5987143,19.0556797,810 74.5984286,19.0556204,810 74.5978571,19.0559351,810 74.5970000,19.0569057,810 74.5964286,19.0572360,810 74.5961429,19.0572650,810 74.5958571,19.0570184,810 74.5957308,19.0567458,810 74.5956564,19.0556610,810 74.5954458,19.0553898,810 74.5950000,19.0552819,810 74.5947143,19.0553497,810 74.5944286,19.0555755,810 74.5941429,19.0556385,810 74.5938571,19.0555514,810 74.5930000,19.0547686,810 74.5918571,19.0543086,810 74.5915714,19.0542937,810 74.5907143,19.0536684,810 74.5904286,19.0537946,810 74.5901250,19.0551186,810 74.5894910,19.0567458,810 74.5890000,19.0572231,810 74.5887143,19.0573270,810 74.5881429,19.0574458,810 74.5875714,19.0573992,810 74.5861429,19.0565399,810 74.5855714,19.0557619,810 74.5841429,19.0554410,810 74.5837741,19.0556610,810 74.5831014,19.0572881,810 74.5828258,19.0594917,810</coordinates></LineString></Placemark><Placemark><name>820 m</name><styleUrl>#minor</styleUrl><ExtendedData><Data name="elevation"><value>820</value></Data></ExtendedData><LineString><tessellate>1</tessellate><altitudeMode>clampToGround</altitudeMode><coordinates>74.5939337,19.0500000,820 74.5941429,19.0503043,820 74.5947143,19.0503913,820 74.5951478,19.0500000,820</coordinates></LineString></Placemark><Placemark><name>820 m</name><styleUrl>#minor</styleUrl><ExtendedData><Data name="elevation"><value>820</value></Data></ExtendedData><LineString><tessellate>1</tessellate><altitudeMode>clampToGround</altitudeMode><coordinates>74.6013882,19.0500000,820 74.6007143,19.0503834,820 74.6000275,19.0513220,820 74.5999983,19.0518644,820 74.5997085,19.0526780,820 74.5996683,19.0537627,820 74.6004049,19.0551186,820 74.6010060,19.0556610,820 74.6010790,19.0559322,820 74.6010099,19.0564746,820 74.6007143,19.0566648,820 74.5998571,19.0559814,820 74.5988459,19.0553898,820 74.5984286,19.0552770,820 74.5978571,19.0555561,820 74.5967143,19.0564900,820 74.5964286,19.0564826,820 74.5961058,19.0553898,820 74.5957516,19.0551186,820 74.5950000,19.0548634,820 74.5947143,19.0545872,820 74.5944286,19.0545202,820 74.5941429,19.0547213,820 74.5938571,19.0547397,820 74.5930000,19.0540819,820 74.5904286,19.0530722,820 74.5901429,19.0531627,820 74.5899216,19.0534915,820 74.5895949,19.0548475,820 74.5893733,19.0551186,820 74.5890000,19.0560931,820 74.5887143,19.0564354,820 74.5884286,19.0565575,820 74.5878571,19.0565401,820 74.5870000,19.0557989,820 74.5864286,19.0556510,820 74.5858571,19.0549564,820 74.5852857,19.0550523,820 74.5841429,19.0548930,820 74.5835714,19.0551483,820 74.5833147,19.0553898,820 74.5828258,19.0564501,820</coordinates></LineString></Placemark><Placemark><name>830 m</name><styleUrl>#minor</styleUrl><ExtendedData><Data name="elevation"><value>830</value></Data></ExtendedData><LineString><tessellate>1</tessellate><altitudeMode>clampToGround</altitudeMode><coordinates>74.5923405,19.0500000,830 74.5935714,19.0504809,830 74.5938571,19.0507177,830 74.5950000,19.0508855,830 74.5955328,19.0502373,830 74.5961446,19.0500000,830</coordinates></LineString></Placemark><Placemark><name>830 m</name><styleUrl>#minor</styleUrl><ExtendedData><Data name="elevation"><value>830</value></Data></ExtendedData><LineString><tessellate>1</tessellate><altitudeMode>clampToGround</altitudeMode><coordinates>74.5999948,19.0500000,830 74.5999378,19.0502373,830 74.6000068,19.0505085,830 74.5997155,19.0513220,830 74.5997565,19.0518644,830 74.5995006,19.0524068,830 74.5993708,19.0534915,830 74.5994516,19.0540339,830 74.5997433,19.0545763,830 74.5998571,19.0551826,830 74.5995714,19.0552638,830 74.5984286,19.0548638,830 74.5972857,19.0553723,830 74.5967143,19.0554297,830 74.5963276,19.0551186,830 74.5951972,19.0545763,830 74.5944286,19.0534702,830 74.5932857,19.0532157,830 74.5927143,19.0526441,830 74.5912857,19.0520759,830 74.5898571,19.0524406,830 74.5892857,19.0527716,830 74.5887423,19.0534915,830 74.5881429,19.0539419,830 74.5878571,19.0539722,830 74.5870000,19.0536479,830 74.5858571,19.0530045,830 74.5847143,19.0534061,830 74.5838571,19.0534353,830 74.5828258,19.0539449,830</coordinates></LineString></Placemark><Placemark><name>840 m</name><styleUrl>#minor</styleUrl><ExtendedData><Data name="elevation"><value>840</value></Data></ExtendedData><LineString><tessellate>1</tessellate><altitudeMode>clampToGround</altitudeMode><coordinates>74.5993812,19.0500000,840 74.5993404,19.0502373,840 74.5995623,19.0507797,840 74.5994133,19.0513220,840 74.5995301,19.0518644,840 74.5992598,19.0524068,840 74.5991136,19.0534915,840 74.5992825,19.0545763,840 74.5990000,19.0546569,840 74.5984286,19.0544261,840 74.5972857,19.0549481,840 74.5967143,19.0550040,840 74.5954469,19.0543051,840 74.5947143,19.0529318,840 74.5935714,19.0524821,840 74.5933575,19.0521356,840 74.5932730,19.0515932,840 74.5941429,19.0512525,840 74.5947143,19.0513161,840 74.5952857,19.0512194,840 74.5958571,19.0505251,840 74.5969342,19.0500000,840</coordinates></LineString></Placemark><Placemark><name>850 m</name><styleUrl>#major</styleUrl><ExtendedData><Data name="elevation"><value>850</value></Data></ExtendedData><LineString><tessellate>1</tessellate><altitudeMode>clampToGround</altitudeMode><coordinates>74.5989911,19.0500000,850 74.5989744,19.0502373,850 74.5992185,19.0507797,850 74.5991134,19.0513220,850 74.5992816,19.0518644,850 74.5990114,19.0524068,850 74.5987199,19.0537627,850 74.5984286,19.0538499,850 74.5983524,19.0540339,850 74.5972857,19.0546276,850 74.5970000,19.0547089,850 74.5964286,19.0545831,850 74.5958571,19.0542528,850 74.5952857,19.0533916,850 74.5950000,19.0527307,850 74.5938571,19.0522525,850 74.5937541,19.0521356,850 74.5937814,19.0518644,850 74.5941429,19.0515900,850 74.5947143,19.0516462,850 74.5955714,19.0514276,850 74.5960053,19.0507797,850 74.5975855,19.0500000,850</coordinates></LineString></Placemark><Placemark><name>860 m</name><styleUrl>#minor</styleUrl><ExtendedData><Data name="elevation"><value>860</value></Data></ExtendedData><LineString><tessellate>1</tessellate><altitudeMode>clampToGround</altitudeMode><coordinates>74.5973341,19.0505085,860 74.5978571,19.0503128,860 74.5981429,19.0503110,860 74.5984286,19.0504814,860 74.5987184,19.0510508,860 74.5987869,19.0518644,860 74.5984286,19.0525870,860 74.5977682,19.0532203,860 74.5975714,19.0535572,860 74.5970000,19.0536603,860 74.5964284,19.0534915,860 74.5961429,19.0531767,860 74.5959927,19.0526780,860 74.5962902,19.0518644,860 74.5968094,19.0510508,860 74.5973341,19.0505085,860</coordinates></LineString></Placemark><Placemark><name>870 m</name><styleUrl>#minor</styleUrl><ExtendedData><Data name="elevation"><value>870</value></Data></ExtendedData><LineString><tessellate>1</tessellate><altitudeMode>clampToGround</altitudeMode><coordinates>74.5975603,19.0510508,870 74.5978571,19.0508449,870 74.5981239,19.0510508,870 74.5982676,19.0518644,870 74.5981150,19.0521356,870 74.5975714,19.0526002,870 74.5972857,19.0527122,870 74.5970000,19.0526484,870 74.5968290,19.0524068,870 74.5968137,19.0521356,870 74.5972601,19.0513220,870 74.5975603,19.0510508,870</coordinates></LineString></Placemark></Folder></Document></kml>