<?xml version='1.0' encoding='utf-8'?>
<kml xmlns="http://www.opengis.net/kml/2.2"><Document><name>Contours near 22.0375°N, 81.1639°E</name><description>Contains modified Copernicus DEM GLO-30 data: © DLR e.V. 2010-2014 and © Airbus Defence and Space GmbH 2014-2018, provided under COPERNICUS by the European Union and ESA. Contour interval 20 m, generated 2026-09-27 by Village Pond Planner. DEM-derived lines, not a field survey.</description><Style id="minor"><LineStyle><color>ff4f7f93</color><width>1</width></LineStyle></Style><Style id="major"><LineStyle><color>ff1d4f63</color><width>2.2</width></LineStyle></Style><Folder><name>Contours 20 m</name><Placemark><name>360 m</name><styleUrl>#minor</styleUrl><ExtendedData><Data name="elevation"><value>360</value></Data></ExtendedData><LineString><tessellate>1</tessellate><altitudeMode>clampToGround</altitudeMode><coordinates>81.1864960,22.0198601,360 81.1864960,22.0201023,360</coordinates></LineString></Placemark><Placemark><name>360 m</name><styleUrl>#minor</styleUrl><ExtendedData><Data name="elevation"><value>360</value></Data></ExtendedData><LineString><tessellate>1</tessellate><altitudeMode>clampToGround</altitudeMode><coordinates>81.1870804,22.0208927,360 81.1867882,22.0210711,360 81.1866892,22.0212607,360 81.1867882,22.0214508,360 81.1870804,22.0214875,360 81.1872053,22.0214237,360</coordinates></LineString></Placemark><Placemark><name>360 m</name><styleUrl>#minor</styleUrl><ExtendedData><Data name="elevation"><value>360</value></Data></ExtendedData><LineString><tessellate>1</tessellate><altitudeMode>clampToGround</altitudeMode><coordinates>81.1872053,22.0210223,360 81.1870804,22.0208927,360</coordinates></LineString></Placemark><Placemark><name>360 m</name><styleUrl>#minor</styleUrl><ExtendedData><Data name="elevation"><value>360</value></Data></ExtendedData><LineString><tessellate>1</tessellate><altitudeMode>clampToGround</altitudeMode><coordinates>81.1872053,22.0264453,360 81.1870804,22.0264161,360 81.1866417,22.0266738,360 81.1869782,22.0269445,360 81.1868847,22.0272151,360 81.1864960,22.0274632,360 81.1862038,22.0270405,360 81.1853272,22.0269508,360 81.1844979,22.0274858,360 81.1844506,22.0276539,360 81.1841879,22.0269445,360 81.1837821,22.0266738,360 81.1833203,22.0261325,360 81.1829895,22.0261001,360 81.1828977,22.0261325,360 81.1830447,22.0264032,360 81.1828752,22.0266738,360 81.1829961,22.0269445,360 81.1828026,22.0272151,360 81.1836877,22.0280271,360 81.1842731,22.0282978,360 81.1840243,22.0285684,360 81.1841713,22.0293804,360 81.1840233,22.0296510,360 81.1841584,22.0299138,360 81.1856194,22.0294274,360 81.1864960,22.0290136,360 81.1867464,22.0291097,360 81.1869334,22.0293804,360 81.1867723,22.0299217,360 81.1872053,22.0300981,360</coordinates></LineString></Placemark><Placemark><name>360 m</name><styleUrl>#minor</styleUrl><ExtendedData><Data name="elevation"><value>360</value></Data></ExtendedData><LineString><tessellate>1</tessellate><altitudeMode>clampToGround</altitudeMode><coordinates>81.1872053,22.0303377,360 81.1870804,22.0304161,360 81.1869622,22.0307336,360 81.1870804,22.0309995,360 81.1872053,22.0309087,360</coordinates></LineString></Placemark><Placemark><name>360 m</name><styleUrl>#minor</styleUrl><ExtendedData><Data name="elevation"><value>360</value></Data></ExtendedData><LineString><tessellate>1</tessellate><altitudeMode>clampToGround</altitudeMode><coordinates>81.1872053,22.0343824,360 81.1870785,22.0345228,360 81.1870734,22.0347935,360 81.1872053,22.0349892,360</coordinates></LineString></Placemark><Placemark><name>380 m</name><styleUrl>#minor</styleUrl><ExtendedData><Data name="elevation"><value>380</value></Data></ExtendedData><LineString><tessellate>1</tessellate><altitudeMode>clampToGround</altitudeMode><coordinates>81.1570525,22.0157800,380 81.1573312,22.0166596,380 81.1570843,22.0172009,380 81.1571255,22.0182836,380 81.1568804,22.0188249,380 81.1568170,22.0193662,380 81.1565307,22.0199075,380 81.1565318,22.0201781,380 81.1567828,22.0207194,380 81.1572646,22.0212607,380 81.1572754,22.0216596,380 81.1576062,22.0220727,380 81.1575676,22.0234345,380 81.1578117,22.0236966,380 81.1587364,22.0237160,380 81.1590286,22.0238155,380 81.1593208,22.0241403,380 81.1607310,22.0223434,380 81.1609974,22.0215314,380 81.1612215,22.0201781,380 81.1613662,22.0199272,380 81.1619507,22.0195703,380 81.1622760,22.0196368,380 81.1625247,22.0201781,380 81.1631690,22.0209901,380 81.1641575,22.0226140,380 81.1639961,22.0232543,380 81.1631001,22.0239673,380 81.1639961,22.0245908,380 81.1646399,22.0247793,380 81.1647890,22.0250499,380 81.1649961,22.0264032,380 81.1649923,22.0272151,380 81.1648727,22.0275916,380 81.1639961,22.0275167,380 81.1634117,22.0282123,380 81.1634117,22.0284780,380 81.1638020,22.0288391,380 81.1639961,22.0293766,380 81.1642883,22.0297410,380 81.1644386,22.0293804,380 81.1648727,22.0291053,380 81.1651649,22.0290664,380 81.1654571,22.0293228,380 81.1660415,22.0295744,380 81.1669182,22.0294877,380 81.1672799,22.0299217,380 81.1680335,22.0301923,380 81.1678069,22.0307336,380 81.1677318,22.0312750,380 81.1677948,22.0325706,380 81.1683792,22.0326908,380 81.1686714,22.0330697,380 81.1696721,22.0334402,380 81.1703282,22.0347935,380 81.1703154,22.0353348,380 81.1698402,22.0357142,380 81.1690637,22.0358761,380 81.1688403,22.0361467,380 81.1689413,22.0364174,380 81.1692558,22.0365111,380 81.1698907,22.0369587,380 81.1695480,22.0370846,380 81.1692949,22.0375000,380 81.1698402,22.0380609,380 81.1701324,22.0381231,380 81.1704246,22.0380292,380 81.1707169,22.0382473,380 81.1714391,22.0393946,380 81.1717010,22.0410185,380 81.1714826,22.0418305,380 81.1711258,22.0421011,380 81.1708493,22.0426424,380 81.1711294,22.0434544,380 81.1706549,22.0448077,380 81.1706662,22.0450783,380 81.1707169,22.0451701,380 81.1710091,22.0451526,380 81.1713013,22.0448866,380 81.1715935,22.0450075,380 81.1718648,22.0453490,380 81.1719457,22.0461609,380 81.1718857,22.0463126,380 81.1715935,22.0464205,380 81.1710091,22.0461662,380 81.1710975,22.0458903,380 81.1710341,22.0456196,380 81.1707169,22.0455376,380 81.1701770,22.0461609,380 81.1702237,22.0469729,380 81.1700668,22.0472436,380 81.1694815,22.0475142,380 81.1694158,22.0477849,380 81.1694453,22.0488675,380 81.1693012,22.0494088,380 81.1694240,22.0502207,380 81.1697642,22.0507621,380 81.1698402,22.0515943,380 81.1703767,22.0526566,380 81.1707640,22.0529273,380 81.1713013,22.0535833,380 81.1719253,22.0548219,380 81.1724669,22.0553632,380 81.1724398,22.0556338,380 81.1730407,22.0559045,380 81.1729414,22.0561751,380 81.1731546,22.0567164,380 81.1731615,22.0572578,380 81.1733273,22.0575284,380 81.1736389,22.0574331,380 81.1740026,22.0567164,380 81.1742233,22.0564724,380 81.1745155,22.0563736,380 81.1747716,22.0567164,380 81.1747565,22.0575284,380 81.1750356,22.0577991,380 81.1751018,22.0580697,380 81.1756844,22.0585371,380 81.1759359,22.0588817,380 81.1759562,22.0592200,380</coordinates></LineString></Placemark><Placemark><name>380 m</name><styleUrl>#minor</styleUrl><ExtendedData><Data name="elevation"><value>380</value></Data></ExtendedData><LineString><tessellate>1</tessellate><altitudeMode>clampToGround</altitudeMode><coordinates>81.1618497,22.0157800,380 81.1618222,22.0158477,380 81.1617934,22.0169303,380 81.1616585,22.0177285,380 81.1615402,22.0177422,380 81.1613565,22.0177422,380 81.1610740,22.0173608,380 81.1605493,22.0163890,380 81.1604009,22.0158477,380 81.1604074,22.0157800,380</coordinates></LineString></Placemark><Placemark><name>380 m</name><styleUrl>#minor</styleUrl><ExtendedData><Data name="elevation"><value>380</value></Data></ExtendedData><LineString><tessellate>1</tessellate><altitudeMode>clampToGround</altitudeMode><coordinates>81.1666963,22.0291097,380 81.1669182,22.0290409,380 81.1670124,22.0291097,380 81.1669182,22.0293500,380 81.1666963,22.0291097,380</coordinates></LineString></Placemark><Placemark><name>380 m</name><styleUrl>#minor</styleUrl><ExtendedData><Data name="elevation"><value>380</value></Data></ExtendedData><LineString><tessellate>1</tessellate><altitudeMode>clampToGround</altitudeMode><coordinates>81.1703016,22.0342521,380 81.1707169,22.0340676,380 81.1708951,22.0342521,380 81.1707169,22.0343979,380 81.1703016,22.0342521,380</coordinates></LineString></Placemark><Placemark><name>380 m</name><styleUrl>#minor</styleUrl><ExtendedData><Data name="elevation"><value>380</value></Data></ExtendedData><LineString><tessellate>1</tessellate><altitudeMode>clampToGround</altitudeMode><coordinates>81.1706483,22.0467022,380 81.1710091,22.0464996,380 81.1715935,22.0464722,380 81.1716160,22.0469729,380 81.1718857,22.0474280,380 81.1722972,22.0477849,380 81.1721779,22.0480403,380 81.1718857,22.0480990,380 81.1713013,22.0478435,380 81.1710091,22.0481925,380 81.1707169,22.0481305,380 81.1706422,22.0480555,380 81.1707581,22.0477849,380 81.1706183,22.0475142,380 81.1707826,22.0472436,380 81.1706483,22.0467022,380</coordinates></LineString></Placemark><Placemark><name>400 m</name><styleUrl>#major</styleUrl><ExtendedData><Data name="elevation"><value>400</value></Data></ExtendedData><LineString><tessellate>1</tessellate><altitudeMode>clampToGround</altitudeMode><coordinates>81.1535630,22.0157800,400 81.1535546,22.0161183,400 81.1539781,22.0172009,400 81.1541919,22.0174716,400 81.1541752,22.0177422,400 81.1539791,22.0180129,400 81.1544285,22.0185542,400 81.1543383,22.0196368,400 81.1549897,22.0201781,400 81.1553723,22.0209901,400 81.1552464,22.0218021,400 81.1549081,22.0223434,400 81.1549120,22.0231553,400 81.1552841,22.0239673,400 81.1558143,22.0245312,400 81.1560881,22.0250499,400 81.1563789,22.0272151,400 81.1568306,22.0280271,400 81.1570598,22.0288391,400 81.1580417,22.0299217,400 81.1589441,22.0320869,400 81.1591114,22.0328989,400 81.1594698,22.0334402,400 81.1592490,22.0345228,400 81.1587379,22.0353348,400 81.1584986,22.0361467,400 81.1574638,22.0369587,400 81.1571291,22.0375000,400 81.1571013,22.0377707,400 81.1567545,22.0380413,400 81.1568380,22.0383120,400 81.1567383,22.0385826,400 81.1568383,22.0388533,400 81.1568067,22.0393946,400 81.1571570,22.0399359,400 81.1573616,22.0410185,400 81.1576476,22.0418305,400 81.1578857,22.0434544,400 81.1582857,22.0439957,400 81.1584988,22.0450783,400 81.1588784,22.0461609,400 81.1588525,22.0464316,400 81.1581655,22.0475142,400 81.1581331,22.0477849,400 81.1583384,22.0485968,400 81.1582553,22.0491381,400 81.1584935,22.0496794,400 81.1585371,22.0502207,400 81.1583744,22.0515740,400 81.1596041,22.0531979,400 81.1592933,22.0545512,400 81.1595986,22.0553632,400 81.1594883,22.0556338,400 81.1596342,22.0559045,400 81.1596621,22.0569871,400 81.1593203,22.0575284,400 81.1595944,22.0580697,400 81.1594212,22.0583404,400 81.1596130,22.0584975,400 81.1599052,22.0585466,400 81.1601974,22.0584967,400 81.1610740,22.0579964,400 81.1612113,22.0580697,400 81.1614386,22.0592200,400</coordinates></LineString></Placemark><Placemark><name>400 m</name><styleUrl>#major</styleUrl><ExtendedData><Data name="elevation"><value>400</value></Data></ExtendedData><LineString><tessellate>1</tessellate><altitudeMode>clampToGround</altitudeMode><coordinates>81.1574297,22.0396652,400 81.1575676,22.0395356,400 81.1578598,22.0395480,400 81.1579648,22.0396652,400 81.1578598,22.0398334,400 81.1574297,22.0396652,400</coordinates></LineString></Placemark><Placemark><name>420 m</name><styleUrl>#minor</styleUrl><ExtendedData><Data name="elevation"><value>420</value></Data></ExtendedData><LineString><tessellate>1</tessellate><altitudeMode>clampToGround</altitudeMode><coordinates>81.1527440,22.0157800,420 81.1527822,22.0161183,420 81.1531677,22.0169303,420 81.1531033,22.0180129,420 81.1531845,22.0183666,420 81.1536086,22.0190955,420 81.1535683,22.0199075,420 81.1542307,22.0212607,420 81.1540228,22.0220727,420 81.1541551,22.0228847,420 81.1540439,22.0234260,420 81.1543804,22.0242379,420 81.1550429,22.0250499,420 81.1550881,22.0261325,420 81.1556507,22.0280271,420 81.1558974,22.0282978,420 81.1561065,22.0288028,420 81.1562581,22.0299217,420 81.1561053,22.0304630,420 81.1562188,22.0315456,420 81.1563668,22.0318163,420 81.1570364,22.0323576,420 81.1572667,22.0331695,420 81.1571887,22.0350641,420 81.1558143,22.0365558,420 81.1554377,22.0375000,420 81.1550517,22.0380413,420 81.1546455,22.0383120,420 81.1537689,22.0382188,420 81.1529563,22.0388533,420 81.1531845,22.0389487,420 81.1537689,22.0388303,420 81.1543533,22.0389343,420 81.1552299,22.0393719,420 81.1559453,22.0399359,420 81.1563215,22.0407479,420 81.1568674,22.0429131,420 81.1568795,22.0434544,420 81.1566417,22.0439957,420 81.1566909,22.0444445,420 81.1571516,22.0450783,420 81.1578598,22.0455397,420 81.1580461,22.0458903,420 81.1580764,22.0461609,420 81.1578838,22.0467022,420 81.1571624,22.0477849,420 81.1570808,22.0488675,420 81.1568779,22.0496794,420 81.1571169,22.0507621,420 81.1574727,22.0513034,420 81.1575049,22.0515740,420 81.1574369,22.0526566,420 81.1576366,22.0540099,420 81.1575056,22.0548219,420 81.1572254,22.0553632,420 81.1574395,22.0559045,420 81.1571886,22.0564458,420 81.1572298,22.0567164,420 81.1576064,22.0572578,420 81.1577586,22.0580697,420 81.1574134,22.0592200,420</coordinates></LineString></Placemark><Placemark><name>440 m</name><styleUrl>#minor</styleUrl><ExtendedData><Data name="elevation"><value>440</value></Data></ExtendedData><LineString><tessellate>1</tessellate><altitudeMode>clampToGround</altitudeMode><coordinates>81.1522986,22.0157800,440 81.1530328,22.0199075,440 81.1534518,22.0209901,440 81.1534549,22.0220727,440 81.1536256,22.0226140,440 81.1535516,22.0236966,440 81.1537640,22.0245086,440 81.1541848,22.0253206,440 81.1541705,22.0261325,440 81.1544190,22.0266738,440 81.1545726,22.0274858,440 81.1553326,22.0288391,440 81.1553168,22.0296510,440 81.1550372,22.0304630,440 81.1554808,22.0312750,440 81.1553943,22.0320869,440 81.1561065,22.0326915,440 81.1563155,22.0331695,440 81.1562832,22.0337108,440 81.1559714,22.0350641,440 81.1556609,22.0358761,440 81.1552898,22.0364174,440 81.1549560,22.0375000,440 81.1546455,22.0379772,440 81.1537689,22.0379171,440 81.1526000,22.0385769,440 81.1517234,22.0386658,440 81.1514312,22.0386551,440 81.1505546,22.0382062,440 81.1493858,22.0379270,440 81.1482169,22.0380305,440 81.1479247,22.0378864,440 81.1471251,22.0369587,440 81.1469247,22.0361467,440 81.1464637,22.0354618,440 81.1458793,22.0349462,440 81.1455107,22.0342521,440 81.1444183,22.0335753,440 81.1441261,22.0336252,440 81.1441261,22.0343654,440 81.1447105,22.0354564,440 81.1450820,22.0358761,440 81.1450027,22.0363698,440 81.1446881,22.0366880,440 81.1446913,22.0369587,440 81.1448949,22.0372293,440 81.1449403,22.0377707,440 81.1450027,22.0378836,440 81.1454968,22.0380413,440 81.1450027,22.0382057,440 81.1449630,22.0383120,440 81.1454519,22.0388533,440 81.1455410,22.0391239,440 81.1447092,22.0399359,440 81.1445339,22.0412892,440 81.1454215,22.0423718,440 81.1458793,22.0433118,440 81.1464637,22.0437609,440 81.1464596,22.0431837,440 81.1470821,22.0418305,440 81.1473403,22.0414761,440 81.1479247,22.0411421,440 81.1480972,22.0404772,440 81.1483105,22.0402065,440 81.1490936,22.0398544,440 81.1493858,22.0398979,440 81.1496780,22.0402097,440 81.1505546,22.0398588,440 81.1520156,22.0397382,440 81.1540611,22.0391838,440 81.1551332,22.0396652,440 81.1554280,22.0399359,440 81.1557308,22.0404772,440 81.1563538,22.0431837,440 81.1560716,22.0439957,440 81.1562477,22.0448077,440 81.1564619,22.0453490,440 81.1570226,22.0456196,440 81.1573016,22.0467022,440 81.1565151,22.0483262,440 81.1565633,22.0488675,440 81.1562249,22.0499501,440 81.1562608,22.0510327,440 81.1565165,22.0515740,440 81.1563921,22.0523860,440 81.1568270,22.0537393,440 81.1564976,22.0550925,440 81.1569040,22.0559045,440 81.1565726,22.0564458,440 81.1565012,22.0569871,440 81.1568499,22.0580697,440 81.1568072,22.0592200,440</coordinates></LineString></Placemark><Placemark><name>460 m</name><styleUrl>#minor</styleUrl><ExtendedData><Data name="elevation"><value>460</value></Data></ExtendedData><LineString><tessellate>1</tessellate><altitudeMode>clampToGround</altitudeMode><coordinates>81.1404947,22.0197590,460 81.1405739,22.0199075,460 81.1406009,22.0204488,460 81.1407946,22.0207194,460 81.1409118,22.0212613,460 81.1411277,22.0215314,460 81.1409777,22.0220727,460 81.1411417,22.0226140,460 81.1416062,22.0231553,460 81.1416272,22.0236966,460 81.1418176,22.0242379,460 81.1418076,22.0247793,460 81.1422973,22.0255912,460 81.1426650,22.0256891,460 81.1431354,22.0261325,460 81.1435416,22.0271947,460 81.1438338,22.0273657,460 81.1442538,22.0269445,460 81.1443190,22.0264032,460 81.1442045,22.0261325,460 81.1436505,22.0255912,460 81.1434424,22.0250499,460 81.1438040,22.0239673,460 81.1434932,22.0223434,460 81.1435012,22.0215314,460 81.1436854,22.0207194,460 81.1434192,22.0199075,460 81.1434729,22.0193662,460 81.1440819,22.0182836,460 81.1437280,22.0174716,460 81.1435764,22.0163890,460 81.1436719,22.0157800,460</coordinates></LineString></Placemark><Placemark><name>460 m</name><styleUrl>#minor</styleUrl><ExtendedData><Data name="elevation"><value>460</value></Data></ExtendedData><LineString><tessellate>1</tessellate><altitudeMode>clampToGround</altitudeMode><coordinates>81.1518753,22.0157800,460 81.1518920,22.0158477,460 81.1519680,22.0169303,460 81.1522930,22.0182836,460 81.1524561,22.0196368,460 81.1529860,22.0212607,460 81.1530952,22.0236966,460 81.1533593,22.0253206,460 81.1545733,22.0296510,460 81.1545993,22.0307336,460 81.1548990,22.0312750,460 81.1548846,22.0323576,460 81.1551758,22.0328989,460 81.1554122,22.0337108,460 81.1553212,22.0347935,460 81.1548403,22.0366880,460 81.1545636,22.0375000,460 81.1543533,22.0377198,460 81.1534767,22.0377117,460 81.1524061,22.0383120,460 81.1517234,22.0383415,460 81.1514312,22.0383035,460 81.1496780,22.0374968,460 81.1490936,22.0374545,460 81.1485092,22.0375653,460 81.1482169,22.0374748,460 81.1478171,22.0369587,460 81.1478388,22.0361467,460 81.1473403,22.0354739,460 81.1470481,22.0346941,460 81.1466357,22.0342521,460 81.1465550,22.0339815,460 81.1466130,22.0334402,460 81.1459855,22.0328989,460 81.1460878,22.0323576,460 81.1460277,22.0318163,460 81.1461651,22.0312750,460 81.1455274,22.0304630,460 81.1453572,22.0299217,460 81.1447105,22.0296323,460 81.1443411,22.0291097,460 81.1443544,22.0288391,460 81.1448006,22.0282978,460 81.1448046,22.0280271,460 81.1444183,22.0278910,460 81.1438338,22.0280342,460 81.1435416,22.0279174,460 81.1432494,22.0280250,460 81.1432274,22.0282978,460 81.1434598,22.0288391,460 81.1430224,22.0296510,460 81.1430190,22.0299217,460 81.1434070,22.0323576,460 81.1435025,22.0353348,460 81.1438188,22.0366880,460 81.1435271,22.0375000,460 81.1436043,22.0383120,460 81.1431702,22.0402065,460 81.1435416,22.0408527,460 81.1440664,22.0423718,460 81.1449130,22.0437250,460 81.1449771,22.0448077,460 81.1446896,22.0450783,460 81.1444739,22.0456196,460 81.1446433,22.0469729,460 81.1450284,22.0477849,460 81.1450027,22.0481484,460 81.1457634,22.0488675,460 81.1458449,22.0491381,460 81.1458038,22.0494088,460 81.1454354,22.0499501,460 81.1454545,22.0502207,460 81.1455871,22.0503339,460 81.1461715,22.0504320,460 81.1464637,22.0501962,460 81.1469184,22.0494088,460 81.1469573,22.0485968,460 81.1467898,22.0477849,460 81.1467913,22.0469729,460 81.1472766,22.0461609,460 81.1473553,22.0456196,460 81.1476059,22.0450783,460 81.1474123,22.0434544,460 81.1474980,22.0431837,460 81.1483202,22.0423718,460 81.1485630,22.0415598,460 81.1490936,22.0408821,460 81.1496780,22.0408788,460 81.1505546,22.0403281,460 81.1523078,22.0399786,460 81.1537689,22.0395225,460 81.1540611,22.0394973,460 81.1546455,22.0397075,460 81.1550434,22.0399359,460 81.1552144,22.0402065,460 81.1556273,22.0418305,460 81.1558110,22.0431837,460 81.1556654,22.0437250,460 81.1558719,22.0453490,460 81.1560125,22.0456196,460 81.1564688,22.0458903,460 81.1567639,22.0467022,460 81.1561076,22.0483262,460 81.1560760,22.0491381,460 81.1558714,22.0496794,460 81.1556425,22.0513034,460 81.1559172,22.0518447,460 81.1561766,22.0531979,460 81.1560897,22.0550925,460 81.1564659,22.0559045,460 81.1562217,22.0564458,460 81.1560988,22.0577991,460 81.1563221,22.0583404,460 81.1564285,22.0592200,460</coordinates></LineString></Placemark><Placemark><name>480 m</name><styleUrl>#minor</styleUrl><ExtendedData><Data name="elevation"><value>480</value></Data></ExtendedData><LineString><tessellate>1</tessellate><altitudeMode>clampToGround</altitudeMode><coordinates>81.1404947,22.0229903,480 81.1409118,22.0251962,480 81.1412040,22.0262185,480 81.1416638,22.0272151,480 81.1417131,22.0280271,480 81.1423621,22.0291097,480 81.1424268,22.0304630,480 81.1428512,22.0318163,480 81.1430834,22.0347935,480 81.1429093,22.0353348,480 81.1431840,22.0358761,480 81.1433408,22.0366880,480 81.1432494,22.0370274,480 81.1426879,22.0375000,480 81.1429269,22.0380413,480 81.1423455,22.0402065,480 81.1426650,22.0409370,480 81.1432494,22.0412030,480 81.1439699,22.0434544,480 81.1440372,22.0442664,480 81.1439074,22.0448077,480 81.1440183,22.0450783,480 81.1442853,22.0485968,480 81.1445797,22.0491381,480 81.1443977,22.0499501,480 81.1444106,22.0504914,480 81.1447105,22.0512105,480 81.1454413,22.0521153,480 81.1455247,22.0523860,480 81.1455541,22.0526566,480 81.1452968,22.0531979,480 81.1452606,22.0540099,480 81.1454382,22.0542806,480 81.1453776,22.0545512,480 81.1458632,22.0550925,480 81.1459186,22.0553632,480 81.1456497,22.0564458,480 81.1458793,22.0565546,480 81.1464637,22.0563937,480 81.1467680,22.0561751,480 81.1465724,22.0556338,480 81.1466115,22.0553632,480 81.1469557,22.0548219,480 81.1470476,22.0542806,480 81.1468883,22.0540099,480 81.1468953,22.0534686,480 81.1473403,22.0526523,480 81.1475908,22.0518447,480 81.1473747,22.0502207,480 81.1477244,22.0496794,480 81.1476160,22.0477849,480 81.1479419,22.0469729,480 81.1479370,22.0458903,480 81.1481048,22.0453490,480 81.1481658,22.0434544,480 81.1482819,22.0431837,480 81.1491800,22.0421011,480 81.1492766,22.0415598,480 81.1508468,22.0406411,480 81.1537689,22.0398177,480 81.1540611,22.0398109,480 81.1546455,22.0400227,480 81.1548855,22.0402065,480 81.1550021,22.0404772,480 81.1552553,22.0418305,480 81.1553445,22.0429131,480 81.1552707,22.0437250,480 81.1554889,22.0456196,480 81.1560374,22.0464316,480 81.1561028,22.0469729,480 81.1557180,22.0483262,480 81.1552140,22.0513034,480 81.1552601,22.0515740,480 81.1555398,22.0518447,480 81.1558017,22.0531979,480 81.1557139,22.0548219,480 81.1560616,22.0559045,480 81.1559021,22.0572578,480 81.1556530,22.0577991,480 81.1559611,22.0583404,480 81.1560761,22.0592200,480</coordinates></LineString></Placemark><Placemark><name>480 m</name><styleUrl>#minor</styleUrl><ExtendedData><Data name="elevation"><value>480</value></Data></ExtendedData><LineString><tessellate>1</tessellate><altitudeMode>clampToGround</altitudeMode><coordinates>81.1515330,22.0157800,480 81.1515492,22.0158477,480 81.1516965,22.0174716,480 81.1519767,22.0182836,480 81.1520152,22.0196368,480 81.1524455,22.0209901,480 81.1526544,22.0234260,480 81.1528554,22.0245086,480 81.1527833,22.0255912,480 81.1533659,22.0269445,480 81.1538931,22.0291097,480 81.1541391,22.0307336,480 81.1544277,22.0318163,480 81.1547712,22.0345228,480 81.1543511,22.0372293,480 81.1540611,22.0374536,480 81.1532761,22.0375000,480 81.1523078,22.0380122,480 81.1520156,22.0380370,480 81.1514312,22.0379410,480 81.1493858,22.0370113,480 81.1485092,22.0369950,480 81.1482544,22.0366880,480 81.1482733,22.0358761,480 81.1472349,22.0339815,480 81.1473462,22.0334402,480 81.1470452,22.0326282,480 81.1469328,22.0318163,480 81.1472565,22.0310043,480 81.1471950,22.0307336,480 81.1470481,22.0303972,480 81.1464637,22.0301705,480 81.1462458,22.0296510,480 81.1462902,22.0291097,480 81.1458311,22.0288391,480 81.1456766,22.0285684,480 81.1458262,22.0280271,480 81.1462131,22.0274858,480 81.1465879,22.0272151,480 81.1466619,22.0269445,480 81.1464637,22.0267103,480 81.1458793,22.0268079,480 81.1456620,22.0266738,480 81.1447665,22.0250499,480 81.1449562,22.0239673,480 81.1449005,22.0231553,480 81.1446541,22.0220727,480 81.1446405,22.0207194,480 81.1444850,22.0199075,480 81.1445997,22.0190955,480 81.1449350,22.0185542,480 81.1450449,22.0180129,480 81.1446393,22.0174716,480 81.1445223,22.0158477,480 81.1445077,22.0157800,480</coordinates></LineString></Placemark><Placemark><name>480 m</name><styleUrl>#minor</styleUrl><ExtendedData><Data name="elevation"><value>480</value></Data></ExtendedData><LineString><tessellate>1</tessellate><altitudeMode>clampToGround</altitudeMode><coordinates>81.1455871,22.0566366,480 81.1455871,22.0567267,480</coordinates></LineString></Placemark><Placemark><name>500 m</name><styleUrl>#major</styleUrl><ExtendedData><Data name="elevation"><value>500</value></Data></ExtendedData><LineString><tessellate>1</tessellate><altitudeMode>clampToGround</altitudeMode><coordinates>81.1404947,22.0252907,500 81.1406314,22.0258619,500 81.1410408,22.0269445,500 81.1414042,22.0285684,500 81.1419204,22.0296510,500 81.1420511,22.0304630,500 81.1425149,22.0318163,500 81.1426799,22.0345228,500 81.1423178,22.0353348,500 81.1426691,22.0358761,500 81.1427475,22.0366880,500 81.1423728,22.0368079,500 81.1421732,22.0372293,500 81.1423057,22.0380413,500 81.1421592,22.0393946,500 81.1417814,22.0402065,500 81.1423728,22.0414606,500 81.1429572,22.0416733,500 81.1430513,22.0418305,500 81.1435234,22.0437250,500 81.1435217,22.0439957,500 81.1432457,22.0445370,500 81.1436349,22.0453490,500 81.1437995,22.0461609,500 81.1438628,22.0472436,500 81.1436580,22.0475142,500 81.1439140,22.0483262,500 81.1440487,22.0513034,500 81.1445781,22.0526566,500 81.1442232,22.0534686,500 81.1442778,22.0548219,500 81.1445274,22.0553632,500 81.1444335,22.0567164,500 81.1448200,22.0575284,500 81.1448378,22.0583404,500 81.1451428,22.0586110,500 81.1451942,22.0588817,500 81.1461578,22.0592200,500</coordinates></LineString></Placemark><Placemark><name>500 m</name><styleUrl>#major</styleUrl><ExtendedData><Data name="elevation"><value>500</value></Data></ExtendedData><LineString><tessellate>1</tessellate><altitudeMode>clampToGround</altitudeMode><coordinates>81.1467708,22.0592200,500 81.1469643,22.0591523,500 81.1471612,22.0583404,500 81.1470794,22.0577991,500 81.1478090,22.0567164,500 81.1475106,22.0556338,500 81.1478566,22.0545512,500 81.1477859,22.0542806,500 81.1478928,22.0531979,500 81.1481292,22.0523860,500 81.1484472,22.0518447,500 81.1481016,22.0507621,500 81.1483121,22.0496794,500 81.1482515,22.0477849,500 81.1485244,22.0469729,500 81.1484317,22.0458903,500 81.1489096,22.0431837,500 81.1495885,22.0423718,500 81.1500391,22.0415598,500 81.1508468,22.0410283,500 81.1531845,22.0402139,500 81.1537689,22.0400992,500 81.1543533,22.0402367,500 81.1546455,22.0404104,500 81.1547935,22.0407479,500 81.1549445,22.0418305,500 81.1550926,22.0453490,500 81.1555006,22.0469729,500 81.1550824,22.0507621,500 81.1547710,22.0513034,500 81.1547501,22.0515740,500 81.1553293,22.0521153,500 81.1554321,22.0526566,500 81.1554474,22.0534686,500 81.1553263,22.0540099,500 81.1555188,22.0553632,500 81.1557255,22.0559045,500 81.1556880,22.0569871,500 81.1555221,22.0574427,500 81.1551832,22.0577991,500 81.1557288,22.0586110,500 81.1557418,22.0592200,500</coordinates></LineString></Placemark><Placemark><name>500 m</name><styleUrl>#major</styleUrl><ExtendedData><Data name="elevation"><value>500</value></Data></ExtendedData><LineString><tessellate>1</tessellate><altitudeMode>clampToGround</altitudeMode><coordinates>81.1512194,22.0157800,500 81.1512329,22.0158477,500 81.1513368,22.0172009,500 81.1516433,22.0182836,500 81.1515999,22.0190955,500 81.1521339,22.0218021,500 81.1524428,22.0242379,500 81.1524227,22.0255912,500 81.1528915,22.0266738,500 81.1531072,22.0280271,500 81.1536037,22.0296510,500 81.1536422,22.0304630,500 81.1540379,22.0320869,500 81.1540261,22.0334402,500 81.1542785,22.0342521,500 81.1542078,22.0364174,500 81.1540611,22.0370721,500 81.1537689,22.0372180,500 81.1531845,22.0372478,500 81.1520156,22.0377178,500 81.1514312,22.0375880,500 81.1505546,22.0371016,500 81.1488905,22.0364174,500 81.1488112,22.0358761,500 81.1477720,22.0339815,500 81.1478113,22.0331695,500 81.1475217,22.0318163,500 81.1478640,22.0310043,500 81.1477642,22.0304630,500 81.1474428,22.0296510,500 81.1470654,22.0293804,500 81.1469856,22.0288391,500 81.1465246,22.0285684,500 81.1464637,22.0283576,500 81.1466027,22.0277564,500 81.1470995,22.0274858,500 81.1474213,22.0266738,500 81.1470902,22.0261325,500 81.1467559,22.0258972,500 81.1461715,22.0259526,500 81.1460608,22.0258619,500 81.1457777,22.0250499,500 81.1457762,22.0247793,500 81.1462751,22.0242379,500 81.1463319,22.0239673,500 81.1460980,22.0236966,500 81.1459315,22.0231553,500 81.1454932,22.0226140,500 81.1454516,22.0223434,500 81.1454605,22.0215314,500 81.1455958,22.0209901,500 81.1454456,22.0196368,500 81.1454789,22.0193662,500 81.1458178,22.0188249,500 81.1459612,22.0174716,500 81.1458816,22.0172009,500 81.1455154,22.0169303,500 81.1453842,22.0166596,500 81.1452031,22.0157800,500</coordinates></LineString></Placemark><Placemark><name>520 m</name><styleUrl>#minor</styleUrl><ExtendedData><Data name="elevation"><value>520</value></Data></ExtendedData><LineString><tessellate>1</tessellate><altitudeMode>clampToGround</altitudeMode><coordinates>81.1404947,22.0265318,520 81.1406749,22.0269445,520 81.1411386,22.0291097,520 81.1416237,22.0299217,520 81.1421989,22.0318163,520 81.1423250,22.0337108,520 81.1422090,22.0345228,520 81.1418902,22.0353348,520 81.1421405,22.0358761,520 81.1421301,22.0361467,520 81.1417596,22.0369587,520 81.1419286,22.0380413,520 81.1418604,22.0391239,520 81.1416561,22.0396652,520 81.1411644,22.0399359,520 81.1412096,22.0402065,520 81.1417884,22.0408842,520 81.1420806,22.0418337,520 81.1427880,22.0423718,520 81.1430658,22.0437250,520 81.1430453,22.0439957,520 81.1426054,22.0445370,520 81.1426214,22.0448077,520 81.1431444,22.0453490,520 81.1434780,22.0461609,520 81.1435429,22.0469729,520 81.1431737,22.0475142,520 81.1434757,22.0480555,520 81.1435151,22.0483262,520 81.1433580,22.0488675,520 81.1436744,22.0496794,520 81.1436316,22.0513034,520 81.1439506,22.0523860,520 81.1437944,22.0534686,520 81.1438172,22.0545512,520 81.1435824,22.0561751,520 81.1437548,22.0572578,520 81.1440113,22.0577991,520 81.1437336,22.0588817,520 81.1437735,22.0592200,520</coordinates></LineString></Placemark><Placemark><name>520 m</name><styleUrl>#minor</styleUrl><ExtendedData><Data name="elevation"><value>520</value></Data></ExtendedData><LineString><tessellate>1</tessellate><altitudeMode>clampToGround</altitudeMode><coordinates>81.1478295,22.0592200,520 81.1477716,22.0588817,520 81.1479976,22.0583404,520 81.1479324,22.0577991,520 81.1483252,22.0567164,520 81.1481990,22.0559045,520 81.1484141,22.0548219,520 81.1483587,22.0542806,520 81.1485931,22.0529273,520 81.1489410,22.0518447,520 81.1486060,22.0507621,520 81.1487747,22.0499501,520 81.1486737,22.0488675,520 81.1489813,22.0467022,520 81.1488686,22.0458903,520 81.1489539,22.0450783,520 81.1492604,22.0434544,520 81.1493858,22.0431599,520 81.1500468,22.0423718,520 81.1503076,22.0418305,520 81.1505922,22.0415598,520 81.1514312,22.0411163,520 81.1528923,22.0405794,520 81.1537689,22.0403959,520 81.1540611,22.0404457,520 81.1544840,22.0407479,520 81.1546455,22.0413414,520 81.1547990,22.0453490,520 81.1550803,22.0469729,520 81.1550492,22.0485968,520 81.1548486,22.0504914,520 81.1547942,22.0507621,520 81.1543360,22.0513034,520 81.1543705,22.0515740,520 81.1551268,22.0523860,520 81.1551718,22.0534686,520 81.1549403,22.0540099,520 81.1552442,22.0545512,520 81.1554420,22.0561751,520 81.1554246,22.0569871,520 81.1552776,22.0572578,520 81.1549171,22.0575284,520 81.1548104,22.0577991,520 81.1555218,22.0588817,520 81.1555126,22.0592200,520</coordinates></LineString></Placemark><Placemark><name>520 m</name><styleUrl>#minor</styleUrl><ExtendedData><Data name="elevation"><value>520</value></Data></ExtendedData><LineString><tessellate>1</tessellate><altitudeMode>clampToGround</altitudeMode><coordinates>81.1509078,22.0157800,520 81.1511170,22.0174716,520 81.1513238,22.0182836,520 81.1512527,22.0190955,520 81.1521272,22.0242379,520 81.1521064,22.0255912,520 81.1524466,22.0264032,520 81.1532275,22.0296510,520 81.1534832,22.0315456,520 81.1536681,22.0320869,520 81.1536153,22.0334402,520 81.1539061,22.0345228,520 81.1539036,22.0364174,520 81.1537689,22.0368753,520 81.1520156,22.0373389,520 81.1517234,22.0373360,520 81.1494589,22.0361467,520 81.1482364,22.0339815,520 81.1482928,22.0331695,520 81.1480554,22.0320869,520 81.1483647,22.0310043,520 81.1482743,22.0301923,520 81.1480623,22.0296510,520 81.1476373,22.0291097,520 81.1476603,22.0288391,520 81.1478394,22.0285684,520 81.1474610,22.0280271,520 81.1477962,22.0277564,520 81.1479618,22.0266738,520 81.1477601,22.0261325,520 81.1467603,22.0250499,520 81.1467177,22.0247793,520 81.1469851,22.0239673,520 81.1469351,22.0236966,520 81.1460664,22.0223434,520 81.1460720,22.0220727,520 81.1464323,22.0212607,520 81.1462085,22.0196368,520 81.1464018,22.0193662,520 81.1465823,22.0182836,520 81.1464700,22.0177422,520 81.1465300,22.0172009,520 81.1464555,22.0169303,520 81.1460244,22.0163890,520 81.1459555,22.0157800,520</coordinates></LineString></Placemark><Placemark><name>540 m</name><styleUrl>#minor</styleUrl><ExtendedData><Data name="elevation"><value>540</value></Data></ExtendedData><LineString><tessellate>1</tessellate><altitudeMode>clampToGround</altitudeMode><coordinates>81.1506118,22.0157800,540 81.1509872,22.0182836,540 81.1509087,22.0188249,540 81.1513178,22.0209901,540 81.1513159,22.0218021,540 81.1515282,22.0223434,540 81.1517540,22.0236966,540 81.1518381,22.0255912,540 81.1525841,22.0282978,540 81.1533460,22.0323576,540 81.1532708,22.0334402,540 81.1534925,22.0342521,540 81.1535886,22.0364174,540 81.1534767,22.0366884,540 81.1520156,22.0369428,540 81.1514312,22.0368320,540 81.1499702,22.0361204,540 81.1496780,22.0358237,540 81.1487047,22.0339815,540 81.1486992,22.0328989,540 81.1485669,22.0320869,540 81.1488002,22.0304630,540 81.1487043,22.0299217,540 81.1483333,22.0291097,540 81.1484769,22.0285684,540 81.1482692,22.0280271,540 81.1483820,22.0266738,540 81.1482179,22.0261325,540 81.1474748,22.0250499,540 81.1474700,22.0236966,540 81.1470166,22.0228847,540 81.1468909,22.0223434,540 81.1471213,22.0201781,540 81.1470545,22.0196368,540 81.1472310,22.0190955,540 81.1469295,22.0177422,540 81.1469256,22.0169303,540 81.1466848,22.0163890,540 81.1466699,22.0157800,540</coordinates></LineString></Placemark><Placemark><name>540 m</name><styleUrl>#minor</styleUrl><ExtendedData><Data name="elevation"><value>540</value></Data></ExtendedData><LineString><tessellate>1</tessellate><altitudeMode>clampToGround</altitudeMode><coordinates>81.1404947,22.0279807,540 81.1406748,22.0282978,540 81.1407833,22.0291097,540 81.1412455,22.0299217,540 81.1418651,22.0318163,540 81.1420046,22.0331695,540 81.1419325,22.0339815,540 81.1417989,22.0345228,540 81.1414737,22.0350641,540 81.1416652,22.0361467,540 81.1413282,22.0369587,540 81.1416109,22.0380413,540 81.1415559,22.0391239,540 81.1412040,22.0395312,540 81.1406196,22.0396668,540 81.1404947,22.0397908,540</coordinates></LineString></Placemark><Placemark><name>540 m</name><styleUrl>#minor</styleUrl><ExtendedData><Data name="elevation"><value>540</value></Data></ExtendedData><LineString><tessellate>1</tessellate><altitudeMode>clampToGround</altitudeMode><coordinates>81.1404947,22.0402211,540 81.1409118,22.0403864,540 81.1413356,22.0407479,540 81.1418236,22.0421011,540 81.1420806,22.0424674,540 81.1423728,22.0426569,540 81.1425961,22.0431837,540 81.1425854,22.0437250,540 81.1421078,22.0442664,540 81.1420399,22.0445370,540 81.1421535,22.0450783,540 81.1428301,22.0456196,540 81.1430697,22.0461609,540 81.1431423,22.0467022,540 81.1430377,22.0469729,540 81.1427367,22.0472436,540 81.1431221,22.0483262,540 81.1430536,22.0485968,540 81.1428171,22.0488675,540 81.1428959,22.0491381,540 81.1432494,22.0494142,540 81.1433958,22.0499501,540 81.1432494,22.0514129,540 81.1435325,22.0523860,540 81.1431629,22.0561751,540 81.1433046,22.0572578,540 81.1432158,22.0588817,540 81.1433364,22.0592200,540</coordinates></LineString></Placemark><Placemark><name>540 m</name><styleUrl>#minor</styleUrl><ExtendedData><Data name="elevation"><value>540</value></Data></ExtendedData><LineString><tessellate>1</tessellate><altitudeMode>clampToGround</altitudeMode><coordinates>81.1483315,22.0592200,540 81.1483238,22.0591523,540 81.1487440,22.0569871,540 81.1486894,22.0561751,540 81.1487749,22.0553632,540 81.1489105,22.0550925,540 81.1488410,22.0545512,540 81.1490181,22.0531979,540 81.1493743,22.0518447,540 81.1491098,22.0507621,540 81.1490731,22.0488675,540 81.1493336,22.0472436,540 81.1493407,22.0450783,540 81.1495388,22.0445370,540 81.1496702,22.0434544,540 81.1505696,22.0421011,540 81.1514312,22.0414739,540 81.1528923,22.0408686,540 81.1537689,22.0407125,540 81.1540611,22.0408104,540 81.1543757,22.0412892,540 81.1545507,22.0448077,540 81.1545036,22.0461609,540 81.1548041,22.0477849,540 81.1547626,22.0494088,540 81.1545792,22.0504914,540 81.1539714,22.0513034,540 81.1539916,22.0515740,540 81.1547443,22.0523860,540 81.1549349,22.0529273,540 81.1549441,22.0534686,540 81.1545792,22.0540099,540 81.1545603,22.0542806,540 81.1549377,22.0545793,540 81.1550447,22.0548219,540 81.1551740,22.0567164,540 81.1551018,22.0569871,540 81.1546455,22.0574003,540 81.1544611,22.0577991,540 81.1552299,22.0588968,540 81.1552332,22.0592200,540</coordinates></LineString></Placemark><Placemark><name>560 m</name><styleUrl>#minor</styleUrl><ExtendedData><Data name="elevation"><value>560</value></Data></ExtendedData><LineString><tessellate>1</tessellate><altitudeMode>clampToGround</altitudeMode><coordinates>81.1502681,22.0157800,560 81.1504412,22.0166596,560 81.1506684,22.0190955,560 81.1509333,22.0204488,560 81.1509855,22.0218021,560 81.1514532,22.0236966,560 81.1517441,22.0266738,560 81.1522568,22.0282978,560 81.1525916,22.0301923,560 81.1528258,22.0307336,560 81.1528330,22.0318163,560 81.1530431,22.0326282,560 81.1529106,22.0334402,560 81.1533045,22.0358761,560 81.1532072,22.0364174,560 81.1526000,22.0366102,560 81.1517234,22.0366256,560 81.1501988,22.0358761,560 81.1495016,22.0347935,560 81.1491365,22.0339815,560 81.1491504,22.0328989,560 81.1490164,22.0320869,560 81.1492255,22.0304630,560 81.1487657,22.0280271,560 81.1488116,22.0269445,560 81.1486221,22.0261325,560 81.1480374,22.0250499,560 81.1478854,22.0234260,560 81.1475481,22.0218021,560 81.1477223,22.0204488,560 81.1477347,22.0190955,560 81.1473457,22.0177422,560 81.1472602,22.0163890,560 81.1473197,22.0157800,560</coordinates></LineString></Placemark><Placemark><name>560 m</name><styleUrl>#minor</styleUrl><ExtendedData><Data name="elevation"><value>560</value></Data></ExtendedData><LineString><tessellate>1</tessellate><altitudeMode>clampToGround</altitudeMode><coordinates>81.1404947,22.0291696,560 81.1408765,22.0299217,560 81.1415669,22.0318163,560 81.1416690,22.0331695,560 81.1414962,22.0341964,560 81.1411434,22.0347935,560 81.1413111,22.0361467,560 81.1410165,22.0366880,560 81.1410041,22.0369587,560 81.1412871,22.0377707,560 81.1413390,22.0385826,560 81.1411339,22.0391239,560 81.1404947,22.0393512,560</coordinates></LineString></Placemark><Placemark><name>560 m</name><styleUrl>#minor</styleUrl><ExtendedData><Data name="elevation"><value>560</value></Data></ExtendedData><LineString><tessellate>1</tessellate><altitudeMode>clampToGround</altitudeMode><coordinates>81.1404947,22.0406395,560 81.1409118,22.0407523,560 81.1412396,22.0412892,560 81.1420049,22.0431837,560 81.1419574,22.0437250,560 81.1416124,22.0445370,560 81.1417024,22.0450783,560 81.1418509,22.0453490,560 81.1425233,22.0458903,560 81.1426650,22.0463616,560 81.1426590,22.0467022,560 81.1422840,22.0472436,560 81.1426327,22.0477849,560 81.1427029,22.0483262,560 81.1422945,22.0488675,560 81.1423728,22.0491696,560 81.1429768,22.0496794,560 81.1431208,22.0502207,560 81.1429524,22.0513034,560 81.1431468,22.0521153,560 81.1431824,22.0534686,560 81.1428730,22.0553632,560 81.1428873,22.0588817,560 81.1429222,22.0592200,560</coordinates></LineString></Placemark><Placemark><name>560 m</name><styleUrl>#minor</styleUrl><ExtendedData><Data name="elevation"><value>560</value></Data></ExtendedData><LineString><tessellate>1</tessellate><altitudeMode>clampToGround</altitudeMode><coordinates>81.1534305,22.0410185,560 81.1537689,22.0410446,560 81.1540353,22.0412892,560 81.1541141,22.0415598,560 81.1543093,22.0439957,560 81.1541590,22.0461609,560 81.1545239,22.0477849,560 81.1545600,22.0485968,560 81.1543911,22.0502207,560 81.1536041,22.0513034,560 81.1535991,22.0515740,560 81.1546970,22.0529273,560 81.1546455,22.0534021,560 81.1542450,22.0540099,560 81.1542237,22.0542806,560 81.1548616,22.0550925,560 81.1549174,22.0556338,560 81.1549000,22.0567164,560 81.1541839,22.0575284,560 81.1541045,22.0577991,560 81.1549377,22.0590667,560 81.1549744,22.0592200,560</coordinates></LineString></Placemark><Placemark><name>560 m</name><styleUrl>#minor</styleUrl><ExtendedData><Data name="elevation"><value>560</value></Data></ExtendedData><LineString><tessellate>1</tessellate><altitudeMode>clampToGround</altitudeMode><coordinates>81.1487835,22.0592200,560 81.1487762,22.0591523,560 81.1489398,22.0577991,560 81.1491656,22.0569871,560 81.1491272,22.0561751,560 81.1493356,22.0550925,560 81.1492751,22.0545512,560 81.1497447,22.0518447,560 81.1494756,22.0488675,560 81.1497767,22.0469729,560 81.1497037,22.0453490,560 81.1501314,22.0434544,560 81.1510584,22.0421011,560 81.1523078,22.0413680,560 81.1534305,22.0410185,560</coordinates></LineString></Placemark><Placemark><name>580 m</name><styleUrl>#minor</styleUrl><ExtendedData><Data name="elevation"><value>580</value></Data></ExtendedData><LineString><tessellate>1</tessellate><altitudeMode>clampToGround</altitudeMode><coordinates>81.1500077,22.0157800,580 81.1500884,22.0161183,580 81.1502836,22.0185542,580 81.1511534,22.0236966,580 81.1514094,22.0266738,580 81.1518819,22.0280271,580 81.1521049,22.0293804,580 81.1525229,22.0307336,580 81.1524285,22.0318163,580 81.1527224,22.0326282,580 81.1526155,22.0337108,580 81.1529921,22.0358761,580 81.1528923,22.0361960,580 81.1526000,22.0363481,580 81.1517234,22.0363200,580 81.1504224,22.0356054,580 81.1496780,22.0343429,580 81.1494771,22.0337108,580 81.1495834,22.0328989,580 81.1494341,22.0320869,580 81.1495745,22.0296510,580 81.1493637,22.0291097,580 81.1490936,22.0264123,580 81.1486220,22.0253206,580 81.1485577,22.0245086,580 81.1483117,22.0236966,580 81.1480048,22.0212607,580 81.1481332,22.0204488,580 81.1480999,22.0188249,580 81.1477108,22.0174716,580 81.1478277,22.0158477,580 81.1478238,22.0157800,580</coordinates></LineString></Placemark><Placemark><name>580 m</name><styleUrl>#minor</styleUrl><ExtendedData><Data name="elevation"><value>580</value></Data></ExtendedData><LineString><tessellate>1</tessellate><altitudeMode>clampToGround</altitudeMode><coordinates>81.1404947,22.0298062,580 81.1405518,22.0299217,580 81.1413351,22.0320869,580 81.1413547,22.0331695,580 81.1407834,22.0347935,580 81.1409657,22.0361467,580 81.1406716,22.0366880,580 81.1409859,22.0377707,580 81.1410000,22.0385826,580 81.1408787,22.0388533,580 81.1404947,22.0389999,580</coordinates></LineString></Placemark><Placemark><name>580 m</name><styleUrl>#minor</styleUrl><ExtendedData><Data name="elevation"><value>580</value></Data></ExtendedData><LineString><tessellate>1</tessellate><altitudeMode>clampToGround</altitudeMode><coordinates>81.1404947,22.0409651,580 81.1406196,22.0409782,580 81.1409118,22.0412637,580 81.1415827,22.0431837,580 81.1416282,22.0434544,580 81.1412575,22.0445370,580 81.1412854,22.0448077,580 81.1415111,22.0453490,580 81.1421308,22.0461609,580 81.1421871,22.0464316,580 81.1422013,22.0467022,580 81.1419316,22.0472436,580 81.1422303,22.0480555,580 81.1419119,22.0488675,580 81.1420806,22.0494116,580 81.1426650,22.0499417,580 81.1427762,22.0502207,580 81.1426906,22.0515740,580 81.1428405,22.0531979,580 81.1425177,22.0553632,580 81.1426181,22.0564458,580 81.1425374,22.0583404,580 81.1425924,22.0592200,580</coordinates></LineString></Placemark><Placemark><name>580 m</name><styleUrl>#minor</styleUrl><ExtendedData><Data name="elevation"><value>580</value></Data></ExtendedData><LineString><tessellate>1</tessellate><altitudeMode>clampToGround</altitudeMode><coordinates>81.1525854,22.0415598,580 81.1534767,22.0413353,580 81.1537689,22.0415824,580 81.1539521,22.0423718,580 81.1540157,22.0448077,580 81.1537320,22.0456196,580 81.1542644,22.0483262,580 81.1543147,22.0494088,580 81.1540876,22.0502207,580 81.1531937,22.0513034,580 81.1531298,22.0515740,580 81.1537689,22.0521791,580 81.1543533,22.0530244,580 81.1543821,22.0531979,580 81.1539875,22.0540099,580 81.1539478,22.0545512,580 81.1546455,22.0553085,580 81.1546562,22.0564458,580 81.1538008,22.0575284,580 81.1537671,22.0577991,580 81.1545708,22.0591523,580 81.1545862,22.0592200,580</coordinates></LineString></Placemark><Placemark><name>580 m</name><styleUrl>#minor</styleUrl><ExtendedData><Data name="elevation"><value>580</value></Data></ExtendedData><LineString><tessellate>1</tessellate><altitudeMode>clampToGround</altitudeMode><coordinates>81.1491630,22.0592200,580 81.1491627,22.0591523,580 81.1493304,22.0577991,580 81.1495550,22.0569871,580 81.1495248,22.0564458,580 81.1497504,22.0550925,580 81.1496978,22.0545512,580 81.1501052,22.0518447,580 81.1498796,22.0491381,580 81.1501511,22.0469729,580 81.1500364,22.0461609,580 81.1500938,22.0453490,580 81.1503578,22.0445370,580 81.1504474,22.0437250,580 81.1506665,22.0431837,580 81.1515669,22.0421011,580 81.1525854,22.0415598,580</coordinates></LineString></Placemark><Placemark><name>600 m</name><styleUrl>#major</styleUrl><ExtendedData><Data name="elevation"><value>600</value></Data></ExtendedData><LineString><tessellate>1</tessellate><altitudeMode>clampToGround</altitudeMode><coordinates>81.1497514,22.0157800,600 81.1498533,22.0161183,600 81.1500885,22.0188249,600 81.1504582,22.0207194,600 81.1510893,22.0253206,600 81.1510619,22.0266738,600 81.1516133,22.0280271,600 81.1518425,22.0293804,600 81.1522423,22.0307336,600 81.1520557,22.0318163,600 81.1523625,22.0326282,600 81.1524321,22.0345228,600 81.1526782,22.0356054,600 81.1526000,22.0359986,600 81.1523078,22.0361097,600 81.1514312,22.0359215,600 81.1506110,22.0353348,600 81.1499982,22.0342521,600 81.1498417,22.0337108,600 81.1499464,22.0328989,600 81.1498235,22.0323576,600 81.1499436,22.0296510,600 81.1497481,22.0288391,600 81.1494725,22.0264032,600 81.1490634,22.0253206,600 81.1490078,22.0245086,600 81.1487353,22.0236966,600 81.1486226,22.0223434,600 81.1483715,22.0212607,600 81.1484724,22.0204488,600 81.1483758,22.0188249,600 81.1480734,22.0174716,600 81.1481937,22.0158477,600 81.1481888,22.0157800,600</coordinates></LineString></Placemark><Placemark><name>600 m</name><styleUrl>#major</styleUrl><ExtendedData><Data name="elevation"><value>600</value></Data></ExtendedData><LineString><tessellate>1</tessellate><altitudeMode>clampToGround</altitudeMode><coordinates>81.1404947,22.0306372,600 81.1410388,22.0323576,600 81.1410211,22.0331695,600 81.1404947,22.0344601,600</coordinates></LineString></Placemark><Placemark><name>600 m</name><styleUrl>#major</styleUrl><ExtendedData><Data name="elevation"><value>600</value></Data></ExtendedData><LineString><tessellate>1</tessellate><altitudeMode>clampToGround</altitudeMode><coordinates>81.1404947,22.0346960,600 81.1406688,22.0358761,600 81.1404947,22.0363452,600</coordinates></LineString></Placemark><Placemark><name>600 m</name><styleUrl>#major</styleUrl><ExtendedData><Data name="elevation"><value>600</value></Data></ExtendedData><LineString><tessellate>1</tessellate><altitudeMode>clampToGround</altitudeMode><coordinates>81.1404947,22.0370874,600 81.1406262,22.0375000,600 81.1406519,22.0383120,600 81.1405433,22.0385826,600 81.1404947,22.0386203,600</coordinates></LineString></Placemark><Placemark><name>600 m</name><styleUrl>#major</styleUrl><ExtendedData><Data name="elevation"><value>600</value></Data></ExtendedData><LineString><tessellate>1</tessellate><altitudeMode>clampToGround</altitudeMode><coordinates>81.1404947,22.0414014,600 81.1406196,22.0414309,600 81.1411835,22.0429131,600 81.1412783,22.0437250,600 81.1409327,22.0445370,600 81.1409294,22.0448077,600 81.1417805,22.0464316,600 81.1416342,22.0472436,600 81.1417952,22.0480555,600 81.1416258,22.0485968,600 81.1416397,22.0491381,600 81.1417890,22.0496794,600 81.1423728,22.0502971,600 81.1425085,22.0507621,600 81.1423810,22.0513034,600 81.1425306,22.0521153,600 81.1425164,22.0534686,600 81.1422419,22.0556338,600 81.1423385,22.0592200,600</coordinates></LineString></Placemark><Placemark><name>600 m</name><styleUrl>#major</styleUrl><ExtendedData><Data name="elevation"><value>600</value></Data></ExtendedData><LineString><tessellate>1</tessellate><altitudeMode>clampToGround</altitudeMode><coordinates>81.1526983,22.0418305,600 81.1531845,22.0416860,600 81.1534767,22.0418242,600 81.1536651,22.0423718,600 81.1537134,22.0445370,600 81.1533899,22.0456196,600 81.1540951,22.0491381,600 81.1536799,22.0502207,600 81.1532975,22.0507621,600 81.1526355,22.0513034,600 81.1525804,22.0515740,600 81.1527633,22.0518447,600 81.1535265,22.0523860,600 81.1538874,22.0529273,600 81.1539914,22.0531979,600 81.1536224,22.0545512,600 81.1537195,22.0548219,600 81.1543555,22.0553632,600 81.1544288,22.0559045,600 81.1542934,22.0564458,600 81.1536140,22.0572578,600 81.1534819,22.0577991,600 81.1535156,22.0580697,600 81.1541401,22.0591523,600 81.1541451,22.0592200,600</coordinates></LineString></Placemark><Placemark><name>600 m</name><styleUrl>#major</styleUrl><ExtendedData><Data name="elevation"><value>600</value></Data></ExtendedData><LineString><tessellate>1</tessellate><altitudeMode>clampToGround</altitudeMode><coordinates>81.1495497,22.0592200,600 81.1495481,22.0591523,600 81.1499162,22.0569871,600 81.1500882,22.0545512,600 81.1502624,22.0539899,600 81.1502477,22.0529273,600 81.1504825,22.0518447,600 81.1502738,22.0488675,600 81.1504997,22.0469729,600 81.1504007,22.0464316,600 81.1504770,22.0453490,600 81.1506700,22.0448077,600 81.1508176,22.0437250,600 81.1510538,22.0431837,600 81.1517234,22.0423265,600 81.1523078,22.0419438,600 81.1526983,22.0418305,600</coordinates></LineString></Placemark><Placemark><name>620 m</name><styleUrl>#minor</styleUrl><ExtendedData><Data name="elevation"><value>620</value></Data></ExtendedData><LineString><tessellate>1</tessellate><altitudeMode>clampToGround</altitudeMode><coordinates>81.1495081,22.0157800,620 81.1496284,22.0161183,620 81.1496162,22.0174716,620 81.1498478,22.0190955,620 81.1502825,22.0207194,620 81.1504927,22.0220727,620 81.1508645,22.0255912,620 81.1507089,22.0266738,620 81.1513488,22.0280271,620 81.1516768,22.0296510,620 81.1519548,22.0304630,620 81.1517426,22.0320869,620 81.1520989,22.0328989,620 81.1523723,22.0356054,620 81.1523078,22.0357466,620 81.1520156,22.0358367,620 81.1514312,22.0356392,620 81.1510208,22.0353348,620 81.1504905,22.0345228,620 81.1501875,22.0337108,620 81.1502851,22.0296510,620 81.1498534,22.0264032,620 81.1494663,22.0253206,620 81.1487228,22.0212607,620 81.1487696,22.0199075,620 81.1483989,22.0174716,620 81.1485011,22.0158477,620 81.1484986,22.0157800,620</coordinates></LineString></Placemark><Placemark><name>620 m</name><styleUrl>#minor</styleUrl><ExtendedData><Data name="elevation"><value>620</value></Data></ExtendedData><LineString><tessellate>1</tessellate><altitudeMode>clampToGround</altitudeMode><coordinates>81.1404947,22.0317317,620 81.1406571,22.0323576,620 81.1406196,22.0333598,620 81.1404947,22.0335315,620</coordinates></LineString></Placemark><Placemark><name>620 m</name><styleUrl>#minor</styleUrl><ExtendedData><Data name="elevation"><value>620</value></Data></ExtendedData><LineString><tessellate>1</tessellate><altitudeMode>clampToGround</altitudeMode><coordinates>81.1404947,22.0420686,620 81.1408958,22.0429131,620 81.1410060,22.0437250,620 81.1405961,22.0445370,620 81.1405855,22.0448077,620 81.1414235,22.0464316,620 81.1413295,22.0472436,620 81.1414442,22.0480555,620 81.1413057,22.0491381,620 81.1414962,22.0497258,620 81.1421334,22.0507621,620 81.1419152,22.0513034,620 81.1422520,22.0521153,620 81.1422523,22.0537393,620 81.1419659,22.0559045,620 81.1420844,22.0569871,620 81.1420694,22.0592200,620</coordinates></LineString></Placemark><Placemark><name>620 m</name><styleUrl>#minor</styleUrl><ExtendedData><Data name="elevation"><value>620</value></Data></ExtendedData><LineString><tessellate>1</tessellate><altitudeMode>clampToGround</altitudeMode><coordinates>81.1527824,22.0421011,620 81.1531845,22.0421210,620 81.1534152,22.0426424,620 81.1534270,22.0442664,620 81.1531431,22.0453490,620 81.1530936,22.0461609,620 81.1533058,22.0472436,620 81.1537026,22.0483262,620 81.1538015,22.0491381,620 81.1531845,22.0504103,620 81.1528923,22.0507101,620 81.1522256,22.0510327,620 81.1521347,22.0513034,620 81.1523078,22.0519368,620 81.1531845,22.0524778,620 81.1535580,22.0529273,620 81.1536316,22.0534686,620 81.1533429,22.0548219,620 81.1540611,22.0555805,620 81.1541102,22.0559045,620 81.1540868,22.0561751,620 81.1537689,22.0567298,620 81.1534515,22.0569871,620 81.1532098,22.0575284,620 81.1532873,22.0583404,620 81.1537648,22.0591523,620 81.1537505,22.0592200,620</coordinates></LineString></Placemark><Placemark><name>620 m</name><styleUrl>#minor</styleUrl><ExtendedData><Data name="elevation"><value>620</value></Data></ExtendedData><LineString><tessellate>1</tessellate><altitudeMode>clampToGround</altitudeMode><coordinates>81.1499880,22.0592200,620 81.1500240,22.0583404,620 81.1502806,22.0569871,620 81.1504455,22.0545512,620 81.1506418,22.0537393,620 81.1505546,22.0529522,620 81.1508680,22.0515740,620 81.1506351,22.0491381,620 81.1506374,22.0480555,620 81.1508243,22.0472436,620 81.1507842,22.0456196,620 81.1511567,22.0437250,620 81.1513842,22.0431837,620 81.1520156,22.0424279,620 81.1527824,22.0421011,620</coordinates></LineString></Placemark><Placemark><name>640 m</name><styleUrl>#minor</styleUrl><ExtendedData><Data name="elevation"><value>640</value></Data></ExtendedData><LineString><tessellate>1</tessellate><altitudeMode>clampToGround</altitudeMode><coordinates>81.1488791,22.0158477,640 81.1489748,22.0157800,640</coordinates></LineString></Placemark><Placemark><name>640 m</name><styleUrl>#minor</styleUrl><ExtendedData><Data name="elevation"><value>640</value></Data></ExtendedData><LineString><tessellate>1</tessellate><altitudeMode>clampToGround</altitudeMode><coordinates>81.1491458,22.0157800,640 81.1493562,22.0161183,640 81.1492775,22.0172009,640 81.1495787,22.0193662,640 81.1499702,22.0201953,640 81.1503369,22.0220727,640 81.1503593,22.0236966,640 81.1506184,22.0253206,640 81.1505546,22.0256677,640 81.1502624,22.0259258,640 81.1499702,22.0256421,640 81.1498378,22.0253206,640 81.1490594,22.0212607,640 81.1490754,22.0199075,640 81.1487391,22.0177422,640 81.1488791,22.0158477,640</coordinates></LineString></Placemark><Placemark><name>640 m</name><styleUrl>#minor</styleUrl><ExtendedData><Data name="elevation"><value>640</value></Data></ExtendedData><LineString><tessellate>1</tessellate><altitudeMode>clampToGround</altitudeMode><coordinates>81.1505483,22.0277564,640 81.1508468,22.0277331,640 81.1511390,22.0281721,640 81.1517089,22.0304630,640 81.1514794,22.0320869,640 81.1518873,22.0331695,640 81.1520496,22.0347935,640 81.1520156,22.0353840,640 81.1517234,22.0354467,640 81.1511390,22.0350231,640 81.1505096,22.0337108,640 81.1506075,22.0299217,640 81.1504901,22.0285684,640 81.1505483,22.0277564,640</coordinates></LineString></Placemark><Placemark><name>640 m</name><styleUrl>#minor</styleUrl><ExtendedData><Data name="elevation"><value>640</value></Data></ExtendedData><LineString><tessellate>1</tessellate><altitudeMode>clampToGround</altitudeMode><coordinates>81.1404947,22.0427370,640 81.1406196,22.0429592,640 81.1407091,22.0437250,640 81.1404947,22.0441332,640</coordinates></LineString></Placemark><Placemark><name>640 m</name><styleUrl>#minor</styleUrl><ExtendedData><Data name="elevation"><value>640</value></Data></ExtendedData><LineString><tessellate>1</tessellate><altitudeMode>clampToGround</altitudeMode><coordinates>81.1404947,22.0451676,640 81.1410982,22.0464316,640 81.1410154,22.0472436,640 81.1410868,22.0480555,640 81.1409631,22.0488675,640 81.1415801,22.0507621,640 81.1414194,22.0513034,640 81.1418143,22.0518447,640 81.1419710,22.0523860,640 81.1419794,22.0537393,640 81.1416795,22.0561751,640 81.1418442,22.0572578,640 81.1417649,22.0592200,640</coordinates></LineString></Placemark><Placemark><name>640 m</name><styleUrl>#minor</styleUrl><ExtendedData><Data name="elevation"><value>640</value></Data></ExtendedData><LineString><tessellate>1</tessellate><altitudeMode>clampToGround</altitudeMode><coordinates>81.1522046,22.0426424,640 81.1526000,22.0424472,640 81.1528923,22.0424387,640 81.1531353,22.0429131,640 81.1531518,22.0442664,640 81.1527044,22.0461609,640 81.1533718,22.0483262,640 81.1534215,22.0491381,640 81.1532752,22.0496794,640 81.1529193,22.0502207,640 81.1526000,22.0504592,640 81.1520156,22.0505934,640 81.1517636,22.0510327,640 81.1517638,22.0513034,640 81.1521711,22.0523860,640 81.1529028,22.0526566,640 81.1532322,22.0529273,640 81.1533472,22.0531979,640 81.1530053,22.0548219,640 81.1536553,22.0556338,640 81.1537125,22.0561751,640 81.1528923,22.0573541,640 81.1526233,22.0575284,640 81.1525845,22.0577991,640 81.1528923,22.0580400,640 81.1532111,22.0588817,640 81.1532838,22.0591523,640 81.1532627,22.0592200,640</coordinates></LineString></Placemark><Placemark><name>640 m</name><styleUrl>#minor</styleUrl><ExtendedData><Data name="elevation"><value>640</value></Data></ExtendedData><LineString><tessellate>1</tessellate><altitudeMode>clampToGround</altitudeMode><coordinates>81.1503375,22.0592200,640 81.1503241,22.0588817,640 81.1507545,22.0559045,640 81.1509646,22.0537393,640 81.1509224,22.0531979,640 81.1512661,22.0515740,640 81.1509888,22.0499501,640 81.1509536,22.0480555,640 81.1511151,22.0472436,640 81.1510852,22.0456196,640 81.1514634,22.0437250,640 81.1517234,22.0431485,640 81.1522046,22.0426424,640</coordinates></LineString></Placemark><Placemark><name>660 m</name><styleUrl>#minor</styleUrl><ExtendedData><Data name="elevation"><value>660</value></Data></ExtendedData><LineString><tessellate>1</tessellate><altitudeMode>clampToGround</altitudeMode><coordinates>81.1494109,22.0204488,660 81.1496780,22.0201998,660 81.1499702,22.0211530,660 81.1501288,22.0223434,660 81.1499702,22.0232694,660 81.1496780,22.0227187,660 81.1493648,22.0209901,660 81.1494109,22.0204488,660</coordinates></LineString></Placemark><Placemark><name>660 m</name><styleUrl>#minor</styleUrl><ExtendedData><Data name="elevation"><value>660</value></Data></ExtendedData><LineString><tessellate>1</tessellate><altitudeMode>clampToGround</altitudeMode><coordinates>81.1511044,22.0296510,660 81.1511390,22.0295538,660 81.1514586,22.0304630,660 81.1511390,22.0313435,660 81.1508759,22.0304630,660 81.1511044,22.0296510,660</coordinates></LineString></Placemark><Placemark><name>660 m</name><styleUrl>#minor</styleUrl><ExtendedData><Data name="elevation"><value>660</value></Data></ExtendedData><LineString><tessellate>1</tessellate><altitudeMode>clampToGround</altitudeMode><coordinates>81.1509424,22.0326282,660 81.1511390,22.0324328,660 81.1517234,22.0334905,660 81.1517966,22.0342521,660 81.1517234,22.0349240,660 81.1514312,22.0348395,660 81.1508468,22.0338616,660 81.1508034,22.0331695,660 81.1509424,22.0326282,660</coordinates></LineString></Placemark><Placemark><name>660 m</name><styleUrl>#minor</styleUrl><ExtendedData><Data name="elevation"><value>660</value></Data></ExtendedData><LineString><tessellate>1</tessellate><altitudeMode>clampToGround</altitudeMode><coordinates>81.1404947,22.0456831,660 81.1407288,22.0461609,660 81.1406409,22.0472436,660 81.1407787,22.0477849,660 81.1406808,22.0488675,660 81.1411328,22.0504914,660 81.1409944,22.0513034,660 81.1416764,22.0523860,660 81.1415718,22.0550925,660 81.1414042,22.0559045,660 81.1415851,22.0575284,660 81.1414233,22.0588817,660 81.1414374,22.0592200,660</coordinates></LineString></Placemark><Placemark><name>660 m</name><styleUrl>#minor</styleUrl><ExtendedData><Data name="elevation"><value>660</value></Data></ExtendedData><LineString><tessellate>1</tessellate><altitudeMode>clampToGround</altitudeMode><coordinates>81.1524781,22.0429131,660 81.1526754,22.0429131,660 81.1528013,22.0431837,660 81.1528468,22.0442664,660 81.1523292,22.0461609,660 81.1529889,22.0480555,660 81.1530923,22.0491381,660 81.1529441,22.0496794,660 81.1526000,22.0500430,660 81.1520156,22.0500983,660 81.1514312,22.0503085,660 81.1512660,22.0480555,660 81.1513816,22.0475142,660 81.1514371,22.0453490,660 81.1517725,22.0437250,660 81.1520156,22.0432637,660 81.1524781,22.0429131,660</coordinates></LineString></Placemark><Placemark><name>660 m</name><styleUrl>#minor</styleUrl><ExtendedData><Data name="elevation"><value>660</value></Data></ExtendedData><LineString><tessellate>1</tessellate><altitudeMode>clampToGround</altitudeMode><coordinates>81.1514717,22.0526566,660 81.1517234,22.0524714,660 81.1520156,22.0528622,660 81.1526018,22.0529273,660 81.1530200,22.0531979,660 81.1530580,22.0534686,660 81.1526314,22.0548219,660 81.1526663,22.0550925,660 81.1532678,22.0556338,660 81.1533492,22.0561751,660 81.1528923,22.0567365,660 81.1522237,22.0572578,660 81.1520677,22.0577991,660 81.1523078,22.0582847,660 81.1526702,22.0586110,660 81.1527967,22.0591523,660 81.1527182,22.0592200,660</coordinates></LineString></Placemark><Placemark><name>660 m</name><styleUrl>#minor</styleUrl><ExtendedData><Data name="elevation"><value>660</value></Data></ExtendedData><LineString><tessellate>1</tessellate><altitudeMode>clampToGround</altitudeMode><coordinates>81.1506692,22.0592200,660 81.1513054,22.0531979,660 81.1514717,22.0526566,660</coordinates></LineString></Placemark><Placemark><name>680 m</name><styleUrl>#minor</styleUrl><ExtendedData><Data name="elevation"><value>680</value></Data></ExtendedData><LineString><tessellate>1</tessellate><altitudeMode>clampToGround</altitudeMode><coordinates>81.1513808,22.0337108,680 81.1514312,22.0340236,680</coordinates></LineString></Placemark><Placemark><name>680 m</name><styleUrl>#minor</styleUrl><ExtendedData><Data name="elevation"><value>680</value></Data></ExtendedData><LineString><tessellate>1</tessellate><altitudeMode>clampToGround</altitudeMode><coordinates>81.1404947,22.0492693,680 81.1407479,22.0502207,680 81.1404947,22.0510125,680</coordinates></LineString></Placemark><Placemark><name>680 m</name><styleUrl>#minor</styleUrl><ExtendedData><Data name="elevation"><value>680</value></Data></ExtendedData><LineString><tessellate>1</tessellate><altitudeMode>clampToGround</altitudeMode><coordinates>81.1404947,22.0510489,680 81.1407038,22.0515740,680 81.1413344,22.0523860,680 81.1413890,22.0526566,680 81.1411868,22.0542806,680 81.1412497,22.0550925,680 81.1411256,22.0564458,680 81.1412862,22.0575284,680 81.1410137,22.0586110,680 81.1410444,22.0592200,680</coordinates></LineString></Placemark><Placemark><name>680 m</name><styleUrl>#minor</styleUrl><ExtendedData><Data name="elevation"><value>680</value></Data></ExtendedData><LineString><tessellate>1</tessellate><altitudeMode>clampToGround</altitudeMode><coordinates>81.1522087,22.0437250,680 81.1523078,22.0435713,680 81.1524702,22.0442664,680 81.1520156,22.0455727,680 81.1519157,22.0448077,680 81.1520156,22.0441185,680 81.1522087,22.0437250,680</coordinates></LineString></Placemark><Placemark><name>680 m</name><styleUrl>#minor</styleUrl><ExtendedData><Data name="elevation"><value>680</value></Data></ExtendedData><LineString><tessellate>1</tessellate><altitudeMode>clampToGround</altitudeMode><coordinates>81.1517797,22.0467022,680 81.1520156,22.0465126,680 81.1525359,22.0475142,680 81.1527474,22.0483262,680 81.1528044,22.0488675,680 81.1527075,22.0494088,680 81.1523078,22.0497408,680 81.1520156,22.0496757,680 81.1517234,22.0494223,680 81.1516600,22.0491381,680 81.1515857,22.0480555,680 81.1517797,22.0467022,680</coordinates></LineString></Placemark><Placemark><name>680 m</name><styleUrl>#minor</styleUrl><ExtendedData><Data name="elevation"><value>680</value></Data></ExtendedData><LineString><tessellate>1</tessellate><altitudeMode>clampToGround</altitudeMode><coordinates>81.1518202,22.0537393,680 81.1523078,22.0535098,680 81.1524480,22.0537393,680 81.1519219,22.0545512,680 81.1519051,22.0550925,680 81.1521358,22.0553632,680 81.1527543,22.0556338,680 81.1529565,22.0559045,680 81.1528923,22.0561828,680 81.1526000,22.0564705,680 81.1520156,22.0566718,680 81.1518748,22.0569871,680 81.1518197,22.0591523,680 81.1517972,22.0592200,680</coordinates></LineString></Placemark><Placemark><name>680 m</name><styleUrl>#minor</styleUrl><ExtendedData><Data name="elevation"><value>680</value></Data></ExtendedData><LineString><tessellate>1</tessellate><altitudeMode>clampToGround</altitudeMode><coordinates>81.1510130,22.0592200,680 81.1510437,22.0586110,680 81.1516527,22.0540099,680 81.1518202,22.0537393,680</coordinates></LineString></Placemark><Placemark><name>700 m</name><styleUrl>#major</styleUrl><ExtendedData><Data name="elevation"><value>700</value></Data></ExtendedData><LineString><tessellate>1</tessellate><altitudeMode>clampToGround</altitudeMode><coordinates>81.1404947,22.0520249,700 81.1408728,22.0523860,700 81.1409974,22.0526566,700 81.1407979,22.0542806,700 81.1408009,22.0567164,700 81.1409037,22.0575284,700 81.1406012,22.0583404,700 81.1406248,22.0592200,700</coordinates></LineString></Placemark><Placemark><name>700 m</name><styleUrl>#major</styleUrl><ExtendedData><Data name="elevation"><value>700</value></Data></ExtendedData><LineString><tessellate>1</tessellate><altitudeMode>clampToGround</altitudeMode><coordinates>81.1520066,22.0477849,700 81.1523078,22.0478815,700 81.1524124,22.0488675,700 81.1523078,22.0491700,700 81.1520007,22.0488675,700 81.1520066,22.0477849,700</coordinates></LineString></Placemark></Folder></Document></kml>