<?xml version='1.0' encoding='utf-8'?>
<kml xmlns="http://www.opengis.net/kml/2.2"><Document><name>Contours near 22.8000°N, 83.3000°E</name><description>Contains modified Copernicus DEM GLO-30 data: © DLR e.V. 2010-2014 and © Airbus Defence and Space GmbH 2014-2018, provided under COPERNICUS by the European Union and ESA. Contour interval 5 m, generated 2026-09-27 by Village Pond Planner. DEM-derived lines, not a field survey.</description><Style id="minor"><LineStyle><color>ff4f7f93</color><width>1</width></LineStyle></Style><Style id="major"><LineStyle><color>ff1d4f63</color><width>2.2</width></LineStyle></Style><Folder><name>Contours 5 m</name><Placemark><name>1030 m</name><styleUrl>#minor</styleUrl><ExtendedData><Data name="elevation"><value>1030</value></Data></ExtendedData><LineString><tessellate>1</tessellate><altitudeMode>clampToGround</altitudeMode><coordinates>83.3134634,22.7964430,1030 83.3131707,22.7966862,1030 83.3131112,22.7968814,1030 83.3138781,22.7985085,1030 83.3139680,22.7990508,1030 83.3146341,22.7999929,1030 83.3149268,22.7999964,1030 83.3152195,22.8001546,1030 83.3152472,22.7998644,1030 83.3146460,22.7993220,1030 83.3142649,22.7987797,1030 83.3143450,22.7982373,1030 83.3141407,22.7979661,1030 83.3140789,22.7974237,1030 83.3137352,22.7971525,1030 83.3134634,22.7964430,1030</coordinates></LineString></Placemark><Placemark><name>1030 m</name><styleUrl>#minor</styleUrl><ExtendedData><Data name="elevation"><value>1030</value></Data></ExtendedData><LineString><tessellate>1</tessellate><altitudeMode>clampToGround</altitudeMode><coordinates>83.3182543,22.8029316,1030 83.3169261,22.8020339,1030 83.3155122,22.8003019,1030 83.3153576,22.8004068,1030 83.3153459,22.8006780,1030 83.3162749,22.8017627,1030 83.3167352,22.8028475,1030 83.3175610,22.8032919,1030 83.3181463,22.8033464,1030 83.3182543,22.8034257,1030</coordinates></LineString></Placemark><Placemark><name>1030 m</name><styleUrl>#minor</styleUrl><ExtendedData><Data name="elevation"><value>1030</value></Data></ExtendedData><LineString><tessellate>1</tessellate><altitudeMode>clampToGround</altitudeMode><coordinates>83.3182543,22.8047443,1030 83.3178537,22.8046499,1030 83.3171146,22.8050169,1030 83.3169756,22.8052037,1030 83.3165085,22.8052881,1030 83.3181463,22.8054791,1030 83.3182543,22.8055524,1030</coordinates></LineString></Placemark><Placemark><name>1035 m</name><styleUrl>#minor</styleUrl><ExtendedData><Data name="elevation"><value>1035</value></Data></ExtendedData><LineString><tessellate>1</tessellate><altitudeMode>clampToGround</altitudeMode><coordinates>83.3182543,22.8026546,1035 83.3172683,22.8017996,1035 83.3158896,22.8001356,1035 83.3155954,22.7995932,1035 83.3148447,22.7987797,1035 83.3147551,22.7985085,1035 83.3148084,22.7979661,1035 83.3145745,22.7976949,1035 83.3142940,22.7966102,1035 83.3137561,22.7962289,1035 83.3134486,22.7955254,1035 83.3129324,22.7949831,1035 83.3129046,22.7947119,1035 83.3123208,22.7941695,1035 83.3120000,22.7935467,1035 83.3115197,22.7930847,1035 83.3118902,22.7920000,1035 83.3113525,22.7911864,1035 83.3112512,22.7901017,1035 83.3106584,22.7879322,1035 83.3107062,22.7876610,1035 83.3110622,22.7871186,1035 83.3105298,22.7865763,1035 83.3104891,22.7857627,1035 83.3101909,22.7854915,1035 83.3101503,22.7852203,1035 83.3107346,22.7846780,1035 83.3106990,22.7841356,1035 83.3110398,22.7835932,1035 83.3104805,22.7830508,1035 83.3102439,22.7821926,1035 83.3101375,22.7822373,1035 83.3101855,22.7825085,1035 83.3100535,22.7827797,1035 83.3096585,22.7828699,1035 83.3087805,22.7826859,1035 83.3084613,22.7825085,1035 83.3080365,22.7820000,1035</coordinates></LineString></Placemark><Placemark><name>1035 m</name><styleUrl>#minor</styleUrl><ExtendedData><Data name="elevation"><value>1035</value></Data></ExtendedData><LineString><tessellate>1</tessellate><altitudeMode>clampToGround</altitudeMode><coordinates>83.3074303,22.7820000,1035 83.3082109,22.7827797,1035 83.3093659,22.7834467,1035 83.3099512,22.7836569,1035 83.3101131,22.7838644,1035 83.3100233,22.7844068,1035 83.3095795,22.7846780,1035 83.3093761,22.7849492,1035 83.3093100,22.7854915,1035 83.3096585,22.7858404,1035 83.3097430,22.7860339,1035 83.3096363,22.7863051,1035 83.3100529,22.7871186,1035 83.3099512,22.7872533,1035 83.3093460,22.7873898,1035 83.3093499,22.7876610,1035 83.3096422,22.7882034,1035 83.3100297,22.7884746,1035 83.3100928,22.7887458,1035 83.3099840,22.7890169,1035 83.3102451,22.7895593,1035 83.3098505,22.7898305,1035 83.3104912,22.7906441,1035 83.3103857,22.7909153,1035 83.3100871,22.7911864,1035 83.3099854,22.7922712,1035 83.3100591,22.7925424,1035 83.3105982,22.7930847,1035 83.3106973,22.7936271,1035 83.3116268,22.7947119,1035 83.3117401,22.7952542,1035 83.3122147,22.7955254,1035 83.3124608,22.7960678,1035 83.3124925,22.7968814,1035 83.3127771,22.7971525,1035 83.3131707,22.7978843,1035 83.3134743,22.7985085,1035 83.3135616,22.7990508,1035 83.3143102,22.8004068,1035 83.3146341,22.8005764,1035 83.3148520,22.8009492,1035 83.3158049,22.8019334,1035 83.3163694,22.8031186,1035 83.3166829,22.8035045,1035 83.3169756,22.8035142,1035 83.3172683,22.8040271,1035 83.3178537,22.8038487,1035 83.3181463,22.8039204,1035 83.3182148,22.8042034,1035 83.3178537,22.8042122,1035 83.3169756,22.8047546,1035 83.3143415,22.8052349,1035 83.3137561,22.8054345,1035 83.3120500,22.8055593,1035 83.3120000,22.8057621,1035 83.3102034,22.8058305,1035 83.3105366,22.8058659,1035 83.3108472,22.8061017,1035 83.3111220,22.8061558,1035 83.3117073,22.8058537,1035 83.3128780,22.8058617,1035 83.3131707,22.8056389,1035 83.3134906,22.8058305,1035 83.3136274,22.8063729,1035 83.3140488,22.8070750,1035 83.3143415,22.8068712,1035 83.3146216,22.8063729,1035 83.3146002,22.8058305,1035 83.3149268,22.8055906,1035 83.3155122,22.8056524,1035 83.3163902,22.8059275,1035 83.3182543,22.8062020,1035</coordinates></LineString></Placemark><Placemark><name>1040 m</name><styleUrl>#minor</styleUrl><ExtendedData><Data name="elevation"><value>1040</value></Data></ExtendedData><LineString><tessellate>1</tessellate><altitudeMode>clampToGround</altitudeMode><coordinates>83.3067721,22.7820000,1040 83.3074838,22.7830508,1040 83.3085140,22.7835932,1040 83.3086064,22.7854915,1040 83.3087805,22.7860397,1040 83.3088916,22.7871186,1040 83.3083759,22.7873898,1040 83.3080492,22.7879322,1040 83.3081895,22.7882034,1040 83.3085215,22.7882034,1040 83.3087544,22.7884746,1040 83.3087682,22.7887458,1040 83.3084751,22.7890169,1040 83.3083746,22.7895593,1040 83.3085171,22.7898305,1040 83.3090732,22.7900853,1040 83.3092715,22.7903729,1040 83.3091540,22.7909153,1040 83.3095074,22.7925424,1040 83.3099512,22.7932897,1040 83.3102439,22.7935222,1040 83.3111421,22.7947119,1040 83.3112648,22.7949831,1040 83.3111654,22.7955254,1040 83.3116438,22.7960678,1040 83.3121820,22.7974237,1040 83.3121771,22.7976949,1040 83.3128780,22.7982790,1040 83.3138454,22.8004068,1040 83.3153980,22.8023051,1040 83.3163235,22.8036610,1040 83.3164956,22.8042034,1040 83.3164524,22.8044746,1040 83.3162026,22.8047458,1040 83.3134634,22.8053190,1040 83.3102439,22.8054766,1040 83.3087805,22.8045826,1040 83.3084878,22.8045514,1040 83.3083421,22.8047458,1040 83.3083797,22.8050169,1040 83.3093364,22.8058305,1040 83.3099512,22.8061317,1040 83.3105366,22.8061659,1040 83.3108293,22.8063782,1040 83.3114146,22.8064424,1040 83.3122927,22.8060965,1040 83.3125854,22.8064410,1040 83.3128780,22.8065233,1040 83.3131707,22.8062589,1040 83.3133739,22.8071864,1040 83.3130703,22.8077288,1040 83.3129124,22.8085424,1040 83.3125774,22.8090847,1040 83.3128780,22.8093350,1040 83.3131707,22.8092159,1040 83.3137561,22.8080081,1040 83.3143415,22.8073742,1040 83.3155122,22.8065091,1040 83.3158049,22.8064792,1040 83.3182543,22.8067020,1040</coordinates></LineString></Placemark><Placemark><name>1040 m</name><styleUrl>#minor</styleUrl><ExtendedData><Data name="elevation"><value>1040</value></Data></ExtendedData><LineString><tessellate>1</tessellate><altitudeMode>clampToGround</altitudeMode><coordinates>83.3070244,22.8039222,1040 83.3073171,22.8040043,1040 83.3073984,22.8039322,1040 83.3070244,22.8039222,1040</coordinates></LineString></Placemark><Placemark><name>1040 m</name><styleUrl>#minor</styleUrl><ExtendedData><Data name="elevation"><value>1040</value></Data></ExtendedData><LineString><tessellate>1</tessellate><altitudeMode>clampToGround</altitudeMode><coordinates>83.3079024,22.8043517,1040 83.3076515,22.8044746,1040 83.3079024,22.8045542,1040 83.3081354,22.8044746,1040 83.3079024,22.8043517,1040</coordinates></LineString></Placemark><Placemark><name>1040 m</name><styleUrl>#minor</styleUrl><ExtendedData><Data name="elevation"><value>1040</value></Data></ExtendedData><LineString><tessellate>1</tessellate><altitudeMode>clampToGround</altitudeMode><coordinates>83.3182543,22.8022100,1040 83.3181615,22.8020339,1040 83.3181772,22.8014915,1040 83.3178537,22.8015081,1040 83.3175610,22.8013791,1040 83.3168436,22.8006780,1040 83.3155168,22.7987797,1040 83.3153940,22.7985085,1040 83.3154046,22.7979661,1040 83.3152643,22.7976949,1040 83.3149300,22.7974237,1040 83.3148095,22.7966102,1040 83.3149712,22.7957966,1040 83.3143415,22.7957494,1040 83.3138240,22.7952542,1040 83.3125440,22.7933559,1040 83.3123979,22.7928136,1040 83.3131426,22.7922712,1040 83.3131413,22.7920000,1040 83.3125854,22.7915863,1040 83.3122927,22.7915864,1040 83.3119757,22.7911864,1040 83.3115240,22.7895593,1040 83.3115552,22.7892881,1040 83.3118617,22.7887458,1040 83.3116719,22.7882034,1040 83.3118147,22.7868475,1040 83.3113850,22.7865763,1040 83.3112458,22.7863051,1040 83.3112648,22.7860339,1040 83.3115558,22.7854915,1040 83.3113640,22.7852203,1040 83.3121926,22.7846780,1040 83.3120000,22.7845065,1040 83.3116276,22.7844068,1040 83.3113996,22.7841356,1040 83.3125854,22.7838028,1040 83.3127735,22.7835932,1040 83.3125854,22.7830341,1040 83.3122927,22.7828564,1040 83.3114510,22.7827797,1040 83.3116615,22.7820000,1040</coordinates></LineString></Placemark><Placemark><name>1045 m</name><styleUrl>#minor</styleUrl><ExtendedData><Data name="elevation"><value>1045</value></Data></ExtendedData><LineString><tessellate>1</tessellate><altitudeMode>clampToGround</altitudeMode><coordinates>83.3039745,22.7820000,1045 83.3040219,22.7822373,1045 83.3046829,22.7822671,1045 83.3058537,22.7827287,1045 83.3073171,22.7843412,1045 83.3076098,22.7844780,1045 83.3077452,22.7846780,1045 83.3077943,22.7852203,1045 83.3076816,22.7868475,1045 83.3068832,22.7882034,1045 83.3069066,22.7884746,1045 83.3077289,22.7895593,1045 83.3079024,22.7904100,1045 83.3084878,22.7909764,1045 83.3090511,22.7925424,1045 83.3108680,22.7949831,1045 83.3108122,22.7955254,1045 83.3109600,22.7960678,1045 83.3117073,22.7980040,1045 83.3122927,22.7982630,1045 83.3125854,22.7985642,1045 83.3137561,22.8011340,1045 83.3159900,22.8036610,1045 83.3159569,22.8044746,1045 83.3155122,22.8047159,1045 83.3146143,22.8047458,1045 83.3125228,22.8052881,1045 83.3111220,22.8053453,1045 83.3099512,22.8051616,1045 83.3089941,22.8044746,1045 83.3081951,22.8041712,1045 83.3076098,22.8038076,1045 83.3052683,22.8028464,1045 83.3046829,22.8024760,1045 83.3044316,22.8025763,1045 83.3047845,22.8031186,1045 83.3047136,22.8033898,1045 83.3051869,22.8036610,1045 83.3055610,22.8037269,1045 83.3064390,22.8042864,1045 83.3067397,22.8042034,1045 83.3076098,22.8049659,1045 83.3078152,22.8052881,1045 83.3081951,22.8053783,1045 83.3087805,22.8059198,1045 83.3096585,22.8062876,1045 83.3099512,22.8065392,1045 83.3120000,22.8068600,1045 83.3128780,22.8073411,1045 83.3125474,22.8085424,1045 83.3122369,22.8090847,1045 83.3105615,22.8107119,1045 83.3098777,22.8115254,1045 83.3099512,22.8116716,1045 83.3103119,22.8115254,1045 83.3114146,22.8106389,1045 83.3128780,22.8097219,1045 83.3134634,22.8102610,1045 83.3136202,22.8098983,1045 83.3136733,22.8088136,1045 83.3140488,22.8082938,1045 83.3149268,22.8076679,1045 83.3160976,22.8073315,1045 83.3169756,22.8072812,1045 83.3181463,22.8073734,1045 83.3182543,22.8074031,1045</coordinates></LineString></Placemark><Placemark><name>1045 m</name><styleUrl>#minor</styleUrl><ExtendedData><Data name="elevation"><value>1045</value></Data></ExtendedData><LineString><tessellate>1</tessellate><altitudeMode>clampToGround</altitudeMode><coordinates>83.3040976,22.8020111,1045 83.3039780,22.8020339,1045 83.3039089,22.8023051,1045 83.3040976,22.8025647,1045 83.3043902,22.8024752,1045 83.3044312,22.8023051,1045 83.3040976,22.8020111,1045</coordinates></LineString></Placemark><Placemark><name>1045 m</name><styleUrl>#minor</styleUrl><ExtendedData><Data name="elevation"><value>1045</value></Data></ExtendedData><LineString><tessellate>1</tessellate><altitudeMode>clampToGround</altitudeMode><coordinates>83.3182543,22.8011178,1045 83.3178537,22.8011780,1045 83.3172683,22.8006409,1045 83.3165075,22.7995932,1045 83.3159083,22.7985085,1045 83.3158020,22.7982373,1045 83.3158049,22.7975948,1045 83.3152422,22.7971525,1045 83.3152025,22.7963390,1045 83.3153696,22.7960678,1045 83.3164287,22.7957966,1045 83.3160779,22.7955254,1045 83.3149268,22.7954127,1045 83.3143415,22.7951197,1045 83.3139268,22.7947119,1045 83.3135586,22.7936271,1045 83.3135784,22.7928136,1045 83.3139934,22.7922712,1045 83.3145133,22.7920000,1045 83.3145419,22.7917288,1045 83.3137561,22.7913594,1045 83.3131707,22.7908178,1045 83.3128780,22.7907992,1045 83.3125490,22.7901017,1045 83.3125414,22.7898305,1045 83.3128068,22.7895593,1045 83.3132087,22.7884746,1045 83.3128239,22.7873898,1045 83.3128777,22.7868475,1045 83.3145159,22.7854915,1045 83.3141212,22.7849492,1045 83.3140385,22.7844068,1045 83.3147697,22.7833220,1045 83.3145749,22.7830508,1045 83.3141382,22.7827797,1045 83.3136879,22.7820000,1045</coordinates></LineString></Placemark><Placemark><name>1045 m</name><styleUrl>#minor</styleUrl><ExtendedData><Data name="elevation"><value>1045</value></Data></ExtendedData><LineString><tessellate>1</tessellate><altitudeMode>clampToGround</altitudeMode><coordinates>83.3090732,22.8122618,1045 83.3089825,22.8126102,1045 83.3090732,22.8126392,1045 83.3093750,22.8123390,1045 83.3090732,22.8122618,1045</coordinates></LineString></Placemark><Placemark><name>1050 m</name><styleUrl>#major</styleUrl><ExtendedData><Data name="elevation"><value>1050</value></Data></ExtendedData><LineString><tessellate>1</tessellate><altitudeMode>clampToGround</altitudeMode><coordinates>83.3027496,22.7820000,1050 83.3028309,22.7822373,1050 83.3027675,22.7827797,1050 83.3029268,22.7830296,1050 83.3035122,22.7831940,1050 83.3040976,22.7835982,1050 83.3052683,22.7836612,1050 83.3063266,22.7849492,1050 83.3065073,22.7852203,1050 83.3066939,22.7860339,1050 83.3065927,22.7871186,1050 83.3059513,22.7884746,1050 83.3060411,22.7890169,1050 83.3072653,22.7901017,1050 83.3075032,22.7906441,1050 83.3081670,22.7914576,1050 83.3087805,22.7927909,1050 83.3097085,22.7938983,1050 83.3104319,22.7949831,1050 83.3105608,22.7952542,1050 83.3104761,22.7955254,1050 83.3105536,22.7960678,1050 83.3114146,22.7984015,1050 83.3120000,22.7985109,1050 83.3123309,22.7987797,1050 83.3130442,22.8001356,1050 83.3134634,22.8013143,1050 83.3149946,22.8031186,1050 83.3155796,22.8036610,1050 83.3156100,22.8039322,1050 83.3154534,22.8042034,1050 83.3149268,22.8045608,1050 83.3143415,22.8046089,1050 83.3128780,22.8050050,1050 83.3102439,22.8049996,1050 83.3099512,22.8049172,1050 83.3090732,22.8043243,1050 83.3052683,22.8025153,1050 83.3039572,22.8014915,1050 83.3026341,22.8000178,1050 83.3023399,22.7998644,1050 83.3020489,22.8001356,1050 83.3023415,22.8003630,1050 83.3026341,22.8009927,1050 83.3027992,22.8017627,1050 83.3026695,22.8020339,1050 83.3027176,22.8023051,1050 83.3034149,22.8031186,1050 83.3038049,22.8032473,1050 83.3049756,22.8041273,1050 83.3055610,22.8041870,1050 83.3055596,22.8044746,1050 83.3057094,22.8047458,1050 83.3073171,22.8057745,1050 83.3081951,22.8057210,1050 83.3083736,22.8063729,1050 83.3096585,22.8069335,1050 83.3108293,22.8070527,1050 83.3122927,22.8074659,1050 83.3123818,22.8077288,1050 83.3122927,22.8080346,1050 83.3120039,22.8088136,1050 83.3116599,22.8093559,1050 83.3099512,22.8110559,1050 83.3089350,22.8117966,1050 83.3085227,22.8123390,1050 83.3078696,22.8139661,1050 83.3078394,22.8145085,1050 83.3079024,22.8145681,1050 83.3081951,22.8144232,1050 83.3083642,22.8142373,1050 83.3086742,22.8136949,1050 83.3099512,22.8121095,1050 83.3114146,22.8108644,1050 83.3128780,22.8100713,1050 83.3133145,22.8107119,1050 83.3134634,22.8118979,1050 83.3137561,22.8114527,1050 83.3139247,22.8093559,1050 83.3141134,22.8088136,1050 83.3149268,22.8081756,1050 83.3163902,22.8079146,1050 83.3181463,22.8078909,1050 83.3182543,22.8079264,1050</coordinates></LineString></Placemark><Placemark><name>1050 m</name><styleUrl>#major</styleUrl><ExtendedData><Data name="elevation"><value>1050</value></Data></ExtendedData><LineString><tessellate>1</tessellate><altitudeMode>clampToGround</altitudeMode><coordinates>83.3182543,22.8009190,1050 83.3181069,22.8009492,1050 83.3174433,22.8004068,1050 83.3168766,22.7995932,1050 83.3161893,22.7982373,1050 83.3161305,22.7979661,1050 83.3162386,22.7974237,1050 83.3157203,22.7971525,1050 83.3155532,22.7968814,1050 83.3156055,22.7963390,1050 83.3163902,22.7962317,1050 83.3166829,22.7960707,1050 83.3169837,22.7957966,1050 83.3170798,22.7955254,1050 83.3154208,22.7952542,1050 83.3142730,22.7947119,1050 83.3141895,22.7936271,1050 83.3146643,22.7925424,1050 83.3148662,22.7922712,1050 83.3162100,22.7911864,1050 83.3149268,22.7913063,1050 83.3145664,22.7911864,1050 83.3141160,22.7901017,1050 83.3141400,22.7890169,1050 83.3138113,22.7873898,1050 83.3140488,22.7869605,1050 83.3158784,22.7857627,1050 83.3152637,22.7852203,1050 83.3151328,22.7846780,1050 83.3152761,22.7841356,1050 83.3158372,22.7833220,1050 83.3158354,22.7830508,1050 83.3153475,22.7827797,1050 83.3148772,22.7820000,1050</coordinates></LineString></Placemark><Placemark><name>1050 m</name><styleUrl>#major</styleUrl><ExtendedData><Data name="elevation"><value>1050</value></Data></ExtendedData><LineString><tessellate>1</tessellate><altitudeMode>clampToGround</altitudeMode><coordinates>83.2868293,22.8058279,1050 83.2868293,22.8061367,1050</coordinates></LineString></Placemark><Placemark><name>1050 m</name><styleUrl>#major</styleUrl><ExtendedData><Data name="elevation"><value>1050</value></Data></ExtendedData><LineString><tessellate>1</tessellate><altitudeMode>clampToGround</altitudeMode><coordinates>83.2888780,22.8093439,1050 83.2888541,22.8096271,1050 83.2890330,22.8096271,1050 83.2888780,22.8093439,1050</coordinates></LineString></Placemark><Placemark><name>1050 m</name><styleUrl>#major</styleUrl><ExtendedData><Data name="elevation"><value>1050</value></Data></ExtendedData><LineString><tessellate>1</tessellate><altitudeMode>clampToGround</altitudeMode><coordinates>83.2926829,22.8136895,1050 83.2928549,22.8136949,1050</coordinates></LineString></Placemark><Placemark><name>1050 m</name><styleUrl>#major</styleUrl><ExtendedData><Data name="elevation"><value>1050</value></Data></ExtendedData><LineString><tessellate>1</tessellate><altitudeMode>clampToGround</altitudeMode><coordinates>83.2932683,22.8136771,1050 83.2930156,22.8136949,1050 83.2930864,22.8139661,1050 83.2944390,22.8146881,1050 83.2945771,22.8145085,1050 83.2938537,22.8137443,1050 83.2932683,22.8136771,1050</coordinates></LineString></Placemark><Placemark><name>1050 m</name><styleUrl>#major</styleUrl><ExtendedData><Data name="elevation"><value>1050</value></Data></ExtendedData><LineString><tessellate>1</tessellate><altitudeMode>clampToGround</altitudeMode><coordinates>83.2947317,22.8147006,1050 83.2945926,22.8147797,1050 83.2947317,22.8148955,1050 83.2947317,22.8147006,1050</coordinates></LineString></Placemark><Placemark><name>1050 m</name><styleUrl>#major</styleUrl><ExtendedData><Data name="elevation"><value>1050</value></Data></ExtendedData><LineString><tessellate>1</tessellate><altitudeMode>clampToGround</altitudeMode><coordinates>83.2971807,22.8180000,1050 83.2971274,22.8177627,1050 83.2972006,22.8172203,1050 83.2970122,22.8169492,1050 83.2964878,22.8166288,1050 83.2959817,22.8161356,1050 83.2950244,22.8150374,1050 83.2949463,22.8153220,1050 83.2959738,22.8166780,1050 83.2965116,22.8177627,1050 83.2964914,22.8180000,1050</coordinates></LineString></Placemark><Placemark><name>1050 m</name><styleUrl>#major</styleUrl><ExtendedData><Data name="elevation"><value>1050</value></Data></ExtendedData><LineString><tessellate>1</tessellate><altitudeMode>clampToGround</altitudeMode><coordinates>83.2962325,22.8180000,1050 83.2961951,22.8179938,1050 83.2961941,22.8180000,1050</coordinates></LineString></Placemark><Placemark><name>1055 m</name><styleUrl>#minor</styleUrl><ExtendedData><Data name="elevation"><value>1055</value></Data></ExtendedData><LineString><tessellate>1</tessellate><altitudeMode>clampToGround</altitudeMode><coordinates>83.2987897,22.7820000,1055 83.2991220,22.7821356,1055 83.2997073,22.7829044,1055 83.3005854,22.7825270,1055 83.3008780,22.7826236,1055 83.3011707,22.7829287,1055 83.3016011,22.7838644,1055 83.3020488,22.7839815,1055 83.3026341,22.7839601,1055 83.3032195,22.7842128,1055 83.3038049,22.7846598,1055 83.3046829,22.7849051,1055 83.3053029,22.7854915,1055 83.3057418,22.7871186,1055 83.3056895,22.7876610,1055 83.3052282,22.7884746,1055 83.3054365,22.7892881,1055 83.3056098,22.7895593,1055 83.3067647,22.7903729,1055 83.3070005,22.7909153,1055 83.3076186,22.7914576,1055 83.3082708,22.7928136,1055 83.3093659,22.7941109,1055 83.3100832,22.7952542,1055 83.3100765,22.7957966,1055 83.3103575,22.7968814,1055 83.3109053,22.7979661,1055 83.3114146,22.7987796,1055 83.3120000,22.7989926,1055 83.3122415,22.7993220,1055 83.3126504,22.8001356,1055 83.3131137,22.8014915,1055 83.3137561,22.8023852,1055 83.3141781,22.8028475,1055 83.3146341,22.8030822,1055 83.3152195,22.8036292,1055 83.3153598,22.8039322,1055 83.3149268,22.8043058,1055 83.3144746,22.8042034,1055 83.3131707,22.8046443,1055 83.3122927,22.8045649,1055 83.3108293,22.8047685,1055 83.3099512,22.8046003,1055 83.3081951,22.8035160,1055 83.3070244,22.8031186,1055 83.3055610,22.8023100,1055 83.3046829,22.8016894,1055 83.3035122,22.8005889,1055 83.3029268,22.7997514,1055 83.3020488,22.7991004,1055 83.3017561,22.7985834,1055 83.3014634,22.7984585,1055 83.3011707,22.7988697,1055 83.3005854,22.7993260,1055 83.3004306,22.7995932,1055 83.3004645,22.7998644,1055 83.3008780,22.8001086,1055 83.3011707,22.8004689,1055 83.3014831,22.8012203,1055 83.3010929,22.8020339,1055 83.3020488,22.8023902,1055 83.3029268,22.8032718,1055 83.3046468,22.8044746,1055 83.3049756,22.8049209,1055 83.3052683,22.8050384,1055 83.3057208,22.8055593,1055 83.3058537,22.8061824,1055 83.3061463,22.8059012,1055 83.3067317,22.8057823,1055 83.3074542,22.8063729,1055 83.3081951,22.8067280,1055 83.3096585,22.8072457,1055 83.3105366,22.8073517,1055 83.3118704,22.8077288,1055 83.3119190,22.8080000,1055 83.3116849,22.8088136,1055 83.3112153,22.8096271,1055 83.3093659,22.8111806,1055 83.3083394,22.8115254,1055 83.3084293,22.8120678,1055 83.3075938,22.8139661,1055 83.3068536,22.8153220,1055 83.3067828,22.8158644,1055 83.3068723,22.8164068,1055 83.3070244,22.8165241,1055 83.3076098,22.8161288,1055 83.3081951,22.8162542,1055 83.3087805,22.8166448,1055 83.3090732,22.8166901,1055 83.3088879,22.8158644,1055 83.3088550,22.8147797,1055 83.3095172,22.8131525,1055 83.3099512,22.8124435,1055 83.3115034,22.8109831,1055 83.3120000,22.8106664,1055 83.3128780,22.8103149,1055 83.3129789,22.8104407,1055 83.3131898,22.8109831,1055 83.3131738,22.8117966,1055 83.3134634,22.8130585,1055 83.3136993,22.8128814,1055 83.3139082,22.8120678,1055 83.3142435,22.8093559,1055 83.3146341,22.8088382,1055 83.3152195,22.8085309,1055 83.3163902,22.8084448,1055 83.3178419,22.8085424,1055 83.3180235,22.8088136,1055 83.3181471,22.8093559,1055 83.3182543,22.8095172,1055</coordinates></LineString></Placemark><Placemark><name>1055 m</name><styleUrl>#minor</styleUrl><ExtendedData><Data name="elevation"><value>1055</value></Data></ExtendedData><LineString><tessellate>1</tessellate><altitudeMode>clampToGround</altitudeMode><coordinates>83.2817457,22.8027402,1055 83.2821463,22.8028938,1055 83.2824390,22.8032362,1055 83.2827317,22.8039050,1055 83.2830244,22.8036803,1055 83.2833171,22.8038415,1055 83.2836098,22.8043896,1055 83.2841951,22.8044811,1055 83.2844878,22.8046426,1055 83.2849714,22.8052881,1055 83.2858455,22.8058305,1055 83.2857868,22.8069153,1055 83.2859686,22.8071864,1055 83.2858400,22.8074576,1055 83.2853659,22.8078346,1055 83.2841951,22.8078347,1055 83.2839024,22.8077145,1055 83.2831559,22.8069153,1055 83.2823448,22.8069153,1055 83.2827317,22.8070334,1055 83.2828135,22.8071864,1055 83.2832837,22.8074576,1055 83.2839024,22.8085331,1055 83.2841951,22.8085953,1055 83.2847805,22.8083015,1055 83.2856585,22.8084021,1055 83.2862439,22.8087817,1055 83.2868293,22.8086421,1055 83.2869012,22.8088136,1055 83.2863627,22.8101695,1055 83.2865402,22.8104407,1055 83.2865366,22.8110207,1055 83.2868293,22.8110508,1055 83.2874146,22.8101060,1055 83.2877073,22.8099691,1055 83.2880000,22.8100520,1055 83.2881757,22.8104407,1055 83.2887231,22.8107119,1055 83.2887180,22.8115254,1055 83.2894634,22.8122010,1055 83.2898415,22.8128814,1055 83.2910806,22.8136949,1055 83.2912195,22.8140265,1055 83.2929375,22.8145085,1055 83.2926829,22.8146023,1055 83.2922246,22.8150508,1055 83.2919950,22.8158644,1055 83.2912195,22.8165484,1055 83.2904598,22.8169492,1055 83.2901682,22.8172203,1055 83.2903415,22.8173956,1055 83.2910343,22.8172203,1055 83.2915122,22.8169779,1055 83.2918049,22.8166394,1055 83.2923902,22.8164001,1055 83.2929756,22.8156391,1055 83.2935610,22.8155168,1055 83.2941463,22.8151010,1055 83.2944651,22.8153220,1055 83.2945137,22.8169492,1055 83.2950624,22.8180000,1055</coordinates></LineString></Placemark><Placemark><name>1055 m</name><styleUrl>#minor</styleUrl><ExtendedData><Data name="elevation"><value>1055</value></Data></ExtendedData><LineString><tessellate>1</tessellate><altitudeMode>clampToGround</altitudeMode><coordinates>83.2865366,22.8009228,1055 83.2865366,22.8010504,1055</coordinates></LineString></Placemark><Placemark><name>1055 m</name><styleUrl>#minor</styleUrl><ExtendedData><Data name="elevation"><value>1055</value></Data></ExtendedData><LineString><tessellate>1</tessellate><altitudeMode>clampToGround</altitudeMode><coordinates>83.3182543,22.8006069,1055 83.3181463,22.8005973,1055 83.3178537,22.8003516,1055 83.3171237,22.7993220,1055 83.3166633,22.7982373,1055 83.3165606,22.7979661,1055 83.3166266,22.7974237,1055 83.3162261,22.7968814,1055 83.3176634,22.7955254,1055 83.3175610,22.7954245,1055 83.3162915,22.7952542,1055 83.3160976,22.7950740,1055 83.3159150,22.7941695,1055 83.3152144,22.7928136,1055 83.3156772,22.7920000,1055 83.3159529,22.7917288,1055 83.3163902,22.7914503,1055 83.3172683,22.7912140,1055 83.3177438,22.7909153,1055 83.3175610,22.7908029,1055 83.3158049,22.7907903,1055 83.3153589,22.7906441,1055 83.3150929,22.7901017,1055 83.3150344,22.7892881,1055 83.3145931,22.7884746,1055 83.3145886,22.7882034,1055 83.3147664,22.7876610,1055 83.3159202,22.7863051,1055 83.3163902,22.7859204,1055 83.3169379,22.7857627,1055 83.3160976,22.7853394,1055 83.3158058,22.7849492,1055 83.3158326,22.7844068,1055 83.3162904,22.7833220,1055 83.3165549,22.7830508,1055 83.3163963,22.7827797,1055 83.3160186,22.7825085,1055 83.3157637,22.7820000,1055</coordinates></LineString></Placemark><Placemark><name>1055 m</name><styleUrl>#minor</styleUrl><ExtendedData><Data name="elevation"><value>1055</value></Data></ExtendedData><LineString><tessellate>1</tessellate><altitudeMode>clampToGround</altitudeMode><coordinates>83.2977501,22.8180000,1055 83.2977030,22.8177627,1055 83.2979649,22.8169492,1055 83.2978656,22.8166780,1055 83.2976585,22.8164570,1055 83.2970732,22.8164359,1055 83.2967805,22.8162324,1055 83.2962865,22.8155932,1055 83.2956108,22.8150508,1055 83.2952162,22.8145085,1055 83.2945971,22.8139661,1055 83.2944390,22.8129751,1055 83.2938537,22.8131339,1055 83.2935610,22.8130215,1055 83.2932658,22.8128814,1055 83.2920976,22.8118045,1055 83.2914439,22.8117966,1055 83.2912243,22.8115254,1055 83.2912499,22.8112542,1055 83.2911061,22.8109831,1055 83.2904674,22.8104407,1055 83.2897401,22.8093559,1055 83.2887841,22.8085424,1055 83.2878495,22.8071864,1055 83.2873321,22.8066441,1055 83.2872063,22.8061017,1055 83.2872638,22.8058305,1055 83.2863615,22.8044746,1055 83.2861743,22.8033898,1055 83.2867841,22.8023051,1055 83.2868293,22.8016962,1055 83.2864697,22.8014915,1055 83.2864528,22.8012203,1055 83.2862439,22.8011629,1055 83.2856582,22.8017627,1055 83.2856618,22.8023051,1055 83.2850732,22.8032758,1055 83.2847805,22.8032831,1055 83.2845102,22.8028475,1055 83.2839024,22.8023497,1055 83.2821463,22.8018194,1055 83.2817457,22.8016525,1055</coordinates></LineString></Placemark><Placemark><name>1060 m</name><styleUrl>#minor</styleUrl><ExtendedData><Data name="elevation"><value>1060</value></Data></ExtendedData><LineString><tessellate>1</tessellate><altitudeMode>clampToGround</altitudeMode><coordinates>83.2967865,22.7820000,1060 83.2967088,22.7822373,1060 83.2970732,22.7820939,1060 83.2979512,22.7822749,1060 83.2984180,22.7825085,1060 83.2983939,22.7827797,1060 83.2980111,22.7830508,1060 83.2982113,22.7833220,1060 83.2987662,22.7835932,1060 83.2989348,22.7838644,1060 83.2994617,22.7841356,1060 83.3001074,22.7852203,1060 83.3004933,22.7852203,1060 83.3005301,22.7849492,1060 83.3007246,22.7846780,1060 83.3011707,22.7845131,1060 83.3018129,22.7846780,1060 83.3023415,22.7849768,1060 83.3029268,22.7855259,1060 83.3042470,22.7860339,1060 83.3044165,22.7863051,1060 83.3044239,22.7868475,1060 83.3044020,22.7873898,1060 83.3041879,22.7879322,1060 83.3044439,22.7882034,1060 83.3051123,22.7898305,1060 83.3056910,22.7903729,1060 83.3057893,22.7906441,1060 83.3056510,22.7909153,1060 83.3058117,22.7911864,1060 83.3064390,22.7914929,1060 83.3070244,22.7920069,1060 83.3077825,22.7930847,1060 83.3083016,22.7936271,1060 83.3093659,22.7952156,1060 83.3095834,22.7963390,1060 83.3107162,22.7990508,1060 83.3114146,22.7994430,1060 83.3115092,22.7995932,1060 83.3119707,22.8004068,1060 83.3125854,22.8019748,1060 83.3132386,22.8031186,1060 83.3132528,22.8033898,1060 83.3127536,22.8036610,1060 83.3127191,22.8042034,1060 83.3125854,22.8042613,1060 83.3120000,22.8041014,1060 83.3117073,22.8042833,1060 83.3111220,22.8043955,1060 83.3102439,22.8044162,1060 83.3096585,22.8041809,1060 83.3081951,22.8031551,1060 83.3068443,22.8025763,1060 83.3051566,22.8012203,1060 83.3043902,22.8007424,1060 83.3033034,22.7995932,1060 83.3022220,22.7987797,1060 83.3020704,22.7985085,1060 83.3020149,22.7979661,1060 83.3017561,22.7975500,1060 83.3011707,22.7981799,1060 83.3008780,22.7982981,1060 83.3005854,22.7983217,1060 83.3000000,22.7979378,1060 83.2998926,22.7979661,1060 83.2998376,22.7993220,1060 83.2996766,22.7995932,1060 83.2997313,22.7998644,1060 83.3000136,22.8001356,1060 83.3001657,22.8006780,1060 83.3006675,22.8012203,1060 83.3007404,22.8014915,1060 83.3006297,22.8020339,1060 83.3002915,22.8025763,1060 83.3002664,22.8028475,1060 83.3011707,22.8024647,1060 83.3014634,22.8025403,1060 83.3018978,22.8028475,1060 83.3020488,22.8031707,1060 83.3035122,22.8040541,1060 83.3040141,22.8044746,1060 83.3046829,22.8053495,1060 83.3049756,22.8053153,1060 83.3055046,22.8058305,1060 83.3054470,22.8066441,1060 83.3055610,22.8068602,1060 83.3067317,22.8061847,1060 83.3070244,22.8063086,1060 83.3073171,22.8067313,1060 83.3096585,22.8075576,1060 83.3108293,22.8078407,1060 83.3111842,22.8080000,1060 83.3113650,22.8082712,1060 83.3112763,22.8090847,1060 83.3109867,22.8096271,1060 83.3102439,22.8103079,1060 83.3090732,22.8111049,1060 83.3081951,22.8113036,1060 83.3079603,22.8115254,1060 83.3082083,22.8117966,1060 83.3082317,22.8120678,1060 83.3077805,22.8131525,1060 83.3069296,22.8147797,1060 83.3064390,22.8152635,1060 83.3062507,22.8153220,1060 83.3061463,22.8155360,1060 83.3061061,22.8166780,1060 83.3065261,22.8174915,1060 83.3066761,22.8180000,1060</coordinates></LineString></Placemark><Placemark><name>1060 m</name><styleUrl>#minor</styleUrl><ExtendedData><Data name="elevation"><value>1060</value></Data></ExtendedData><LineString><tessellate>1</tessellate><altitudeMode>clampToGround</altitudeMode><coordinates>83.3069178,22.8180000,1060 83.3070244,22.8178920,1060 83.3073171,22.8173393,1060 83.3076098,22.8171439,1060 83.3087805,22.8173816,1060 83.3102439,22.8178461,1060 83.3103052,22.8177627,1060 83.3101605,22.8174915,1060 83.3094556,22.8166780,1060 83.3091632,22.8155932,1060 83.3092390,22.8147797,1060 83.3099102,22.8128814,1060 83.3117073,22.8110086,1060 83.3128780,22.8105583,1060 83.3130377,22.8109831,1060 83.3131707,22.8127683,1060 83.3134634,22.8135217,1060 83.3136860,22.8134237,1060 83.3141014,22.8123390,1060 83.3141178,22.8115254,1060 83.3145075,22.8096271,1060 83.3149268,22.8090916,1060 83.3155122,22.8089127,1060 83.3163902,22.8089347,1060 83.3172683,22.8092969,1060 83.3175610,22.8096692,1060 83.3178721,22.8107119,1060 83.3181463,22.8108250,1060 83.3182543,22.8108114,1060</coordinates></LineString></Placemark><Placemark><name>1060 m</name><styleUrl>#minor</styleUrl><ExtendedData><Data name="elevation"><value>1060</value></Data></ExtendedData><LineString><tessellate>1</tessellate><altitudeMode>clampToGround</altitudeMode><coordinates>83.2817457,22.8044133,1060 83.2819420,22.8047458,1060 83.2819971,22.8058305,1060 83.2817457,22.8061079,1060</coordinates></LineString></Placemark><Placemark><name>1060 m</name><styleUrl>#minor</styleUrl><ExtendedData><Data name="elevation"><value>1060</value></Data></ExtendedData><LineString><tessellate>1</tessellate><altitudeMode>clampToGround</altitudeMode><coordinates>83.2817457,22.8075212,1060 83.2818537,22.8074949,1060 83.2821463,22.8074910,1060 83.2828063,22.8077288,1060 83.2834078,22.8085424,1060 83.2837554,22.8093559,1060 83.2839024,22.8094715,1060 83.2841951,22.8093585,1060 83.2844878,22.8094748,1060 83.2853943,22.8107119,1060 83.2856845,22.8112542,1060 83.2855723,22.8120678,1060 83.2856878,22.8126102,1060 83.2862439,22.8129610,1060 83.2877073,22.8130348,1060 83.2886449,22.8134237,1060 83.2894011,22.8139661,1060 83.2906054,22.8153220,1060 83.2907479,22.8158644,1060 83.2906279,22.8164068,1060 83.2894634,22.8172514,1060 83.2887406,22.8180000,1060</coordinates></LineString></Placemark><Placemark><name>1060 m</name><styleUrl>#minor</styleUrl><ExtendedData><Data name="elevation"><value>1060</value></Data></ExtendedData><LineString><tessellate>1</tessellate><altitudeMode>clampToGround</altitudeMode><coordinates>83.2903821,22.8180000,1060 83.2915122,22.8176529,1060 83.2923902,22.8175845,1060 83.2929756,22.8172957,1060 83.2937191,22.8180000,1060</coordinates></LineString></Placemark><Placemark><name>1060 m</name><styleUrl>#minor</styleUrl><ExtendedData><Data name="elevation"><value>1060</value></Data></ExtendedData><LineString><tessellate>1</tessellate><altitudeMode>clampToGround</altitudeMode><coordinates>83.3146236,22.8036610,1060 83.3149268,22.8037387,1060 83.3150853,22.8039322,1060 83.3149268,22.8040332,1060 83.3145596,22.8039322,1060 83.3146236,22.8036610,1060</coordinates></LineString></Placemark><Placemark><name>1060 m</name><styleUrl>#minor</styleUrl><ExtendedData><Data name="elevation"><value>1060</value></Data></ExtendedData><LineString><tessellate>1</tessellate><altitudeMode>clampToGround</altitudeMode><coordinates>83.3139341,22.8039322,1060 83.3140488,22.8038007,1060 83.3141576,22.8039322,1060 83.3139341,22.8039322,1060</coordinates></LineString></Placemark><Placemark><name>1060 m</name><styleUrl>#minor</styleUrl><ExtendedData><Data name="elevation"><value>1060</value></Data></ExtendedData><LineString><tessellate>1</tessellate><altitudeMode>clampToGround</altitudeMode><coordinates>83.3182543,22.7999075,1060 83.3181983,22.7998644,1060 83.3175061,22.7990508,1060 83.3174553,22.7987797,1060 83.3176667,22.7982373,1060 83.3177050,22.7974237,1060 83.3172750,22.7968814,1060 83.3172512,22.7963390,1060 83.3173682,22.7960678,1060 83.3182514,22.7952542,1060 83.3178537,22.7951309,1060 83.3172683,22.7951276,1060 83.3166313,22.7947119,1060 83.3163911,22.7933559,1060 83.3162155,22.7930847,1060 83.3161203,22.7922712,1060 83.3164499,22.7917288,1060 83.3172683,22.7914979,1060 83.3181463,22.7910241,1060 83.3182543,22.7909994,1060</coordinates></LineString></Placemark><Placemark><name>1060 m</name><styleUrl>#minor</styleUrl><ExtendedData><Data name="elevation"><value>1060</value></Data></ExtendedData><LineString><tessellate>1</tessellate><altitudeMode>clampToGround</altitudeMode><coordinates>83.3182543,22.7905360,1060 83.3178537,22.7904685,1060 83.3169756,22.7905598,1060 83.3163415,22.7903729,1060 83.3159689,22.7898305,1060 83.3154222,22.7884746,1060 83.3154962,22.7879322,1060 83.3160652,22.7871186,1060 83.3164294,22.7863051,1060 83.3166829,22.7861354,1060 83.3172683,22.7859879,1060 83.3180524,22.7860339,1060 83.3178192,22.7857627,1060 83.3166035,22.7852203,1060 83.3163345,22.7849492,1060 83.3163446,22.7844068,1060 83.3168205,22.7833220,1060 83.3173570,22.7827797,1060 83.3166829,22.7822929,1060 83.3164841,22.7820000,1060</coordinates></LineString></Placemark><Placemark><name>1060 m</name><styleUrl>#minor</styleUrl><ExtendedData><Data name="elevation"><value>1060</value></Data></ExtendedData><LineString><tessellate>1</tessellate><altitudeMode>clampToGround</altitudeMode><coordinates>83.2986305,22.8180000,1060 83.2986131,22.8177627,1060 83.2989260,22.8166780,1060 83.2983001,22.8161356,1060 83.2984028,22.8155932,1060 83.2982439,22.8152514,1060 83.2973043,22.8155932,1060 83.2963531,22.8150508,1060 83.2960320,22.8147797,1060 83.2956098,22.8141533,1060 83.2951912,22.8139661,1060 83.2952623,22.8136949,1060 83.2950244,22.8135336,1060 83.2949365,22.8131525,1060 83.2950757,22.8128814,1060 83.2950095,22.8123390,1060 83.2947317,22.8121289,1060 83.2941227,22.8123390,1060 83.2932683,22.8114889,1060 83.2926829,22.8106394,1060 83.2915122,22.8102308,1060 83.2902046,22.8090847,1060 83.2891707,22.8084762,1060 83.2881649,22.8071864,1060 83.2876574,22.8063729,1060 83.2876395,22.8061017,1060 83.2878033,22.8058305,1060 83.2872753,22.8044746,1060 83.2874146,22.8039912,1060 83.2878096,22.8036610,1060 83.2873649,22.8031186,1060 83.2873599,22.8028475,1060 83.2875659,22.8020339,1060 83.2879560,22.8017627,1060 83.2879967,22.8014915,1060 83.2877140,22.8012203,1060 83.2880513,22.8001356,1060 83.2880000,22.8000318,1060 83.2877073,22.8002952,1060 83.2875967,22.8001356,1060 83.2874739,22.7995932,1060 83.2875292,22.7993220,1060 83.2874146,22.7992327,1060 83.2871220,22.7994028,1060 83.2859512,22.8008645,1060 83.2856585,22.8010478,1060 83.2850732,22.8009068,1060 83.2844878,22.8013963,1060 83.2836098,22.8015065,1060 83.2827317,22.8014162,1060 83.2817457,22.8012270,1060</coordinates></LineString></Placemark><Placemark><name>1065 m</name><styleUrl>#minor</styleUrl><ExtendedData><Data name="elevation"><value>1065</value></Data></ExtendedData><LineString><tessellate>1</tessellate><altitudeMode>clampToGround</altitudeMode><coordinates>83.2960655,22.7820000,1065 83.2957814,22.7825085,1065 83.2959024,22.7827196,1065 83.2968743,22.7827797,1065 83.2970732,22.7833248,1065 83.2979512,22.7836104,1065 83.2988231,22.7844068,1065 83.2990437,22.7846780,1065 83.2988449,22.7849492,1065 83.2989209,22.7852203,1065 83.2987817,22.7854915,1065 83.2984299,22.7857627,1065 83.2988293,22.7858747,1065 83.3008780,22.7854611,1065 83.3015393,22.7857627,1065 83.3023415,22.7864532,1065 83.3027804,22.7865763,1065 83.3029906,22.7871186,1065 83.3029487,22.7879322,1065 83.3039684,22.7887458,1065 83.3046710,22.7901017,1065 83.3047530,22.7906441,1065 83.3046344,22.7911864,1065 83.3047260,22.7914576,1065 83.3063159,22.7925424,1065 83.3070244,22.7933509,1065 83.3074514,22.7941695,1065 83.3079024,22.7946179,1065 83.3084178,22.7955254,1065 83.3085656,22.7963390,1065 83.3085150,22.7966102,1065 83.3093659,22.7972250,1065 83.3096848,22.7976949,1065 83.3098439,22.7993220,1065 83.3107647,22.8004068,1065 83.3111220,22.8010970,1065 83.3117723,22.8017627,1065 83.3117311,22.8020339,1065 83.3119406,22.8031186,1065 83.3115152,22.8033898,1065 83.3115391,22.8036610,1065 83.3111220,22.8040260,1065 83.3099512,22.8040023,1065 83.3098131,22.8039322,1065 83.3097865,22.8036610,1065 83.3092737,22.8033898,1065 83.3090732,22.8030881,1065 83.3071267,22.8017627,1065 83.3067317,22.8010768,1065 83.3052683,22.8003748,1065 83.3038049,22.7992842,1065 83.3035122,22.7991251,1065 83.3029268,22.7990321,1065 83.3026341,22.7988230,1065 83.3024396,22.7985085,1065 83.3025754,22.7979661,1065 83.3017561,22.7971253,1065 83.3014634,22.7970001,1065 83.3011707,22.7975051,1065 83.3005854,22.7978254,1065 83.2994146,22.7974572,1065 83.2992561,22.7976949,1065 83.2994604,22.7982373,1065 83.2994440,22.7990508,1065 83.2989535,22.7995932,1065 83.2995417,22.8001356,1065 83.2996885,22.8004068,1065 83.2996801,22.8009492,1065 83.3000349,22.8012203,1065 83.3003290,22.8017627,1065 83.3002903,22.8020339,1065 83.2998045,22.8028475,1065 83.2999512,22.8031186,1065 83.3002927,22.8031629,1065 83.3008780,22.8029121,1065 83.3011707,22.8029138,1065 83.3014634,22.8034612,1065 83.3020488,22.8037158,1065 83.3038049,22.8049771,1065 83.3043902,22.8056517,1065 83.3051294,22.8061017,1065 83.3053791,22.8069153,1065 83.3052037,22.8071864,1065 83.3052683,22.8073473,1065 83.3055610,22.8072924,1065 83.3058537,22.8070128,1065 83.3067317,22.8068186,1065 83.3085568,22.8074576,1065 83.3103755,22.8082712,1065 83.3106940,22.8085424,1065 83.3107912,22.8088136,1065 83.3107833,22.8093559,1065 83.3102439,22.8100625,1065 83.3087805,22.8110319,1065 83.3076910,22.8112542,1065 83.3076728,22.8115254,1065 83.3079696,22.8117966,1065 83.3080176,22.8120678,1065 83.3076202,22.8131525,1065 83.3067225,22.8147797,1065 83.3060478,22.8150508,1065 83.3059014,22.8153220,1065 83.3056324,22.8166780,1065 83.3063600,22.8177627,1065 83.3064142,22.8180000,1065</coordinates></LineString></Placemark><Placemark><name>1065 m</name><styleUrl>#minor</styleUrl><ExtendedData><Data name="elevation"><value>1065</value></Data></ExtendedData><LineString><tessellate>1</tessellate><altitudeMode>clampToGround</altitudeMode><coordinates>83.3073143,22.8180000,1065 83.3073171,22.8179933,1065 83.3076098,22.8177601,1065 83.3082629,22.8180000,1065</coordinates></LineString></Placemark><Placemark><name>1065 m</name><styleUrl>#minor</styleUrl><ExtendedData><Data name="elevation"><value>1065</value></Data></ExtendedData><LineString><tessellate>1</tessellate><altitudeMode>clampToGround</altitudeMode><coordinates>83.3086514,22.8180000,1065 83.3090732,22.8177870,1065 83.3093659,22.8178381,1065 83.3097408,22.8180000,1065</coordinates></LineString></Placemark><Placemark><name>1065 m</name><styleUrl>#minor</styleUrl><ExtendedData><Data name="elevation"><value>1065</value></Data></ExtendedData><LineString><tessellate>1</tessellate><altitudeMode>clampToGround</altitudeMode><coordinates>83.3109118,22.8180000,1065 83.3098897,22.8169492,1065 83.3095989,22.8164068,1065 83.3094394,22.8155932,1065 83.3095884,22.8147797,1065 83.3102082,22.8128814,1065 83.3108293,22.8123172,1065 83.3117073,22.8112513,1065 83.3121618,22.8109831,1065 83.3128780,22.8109536,1065 83.3130406,22.8128814,1065 83.3134016,22.8136949,1065 83.3137561,22.8139674,1065 83.3143149,22.8123390,1065 83.3143204,22.8115254,1065 83.3148190,22.8098983,1065 83.3152195,22.8094784,1065 83.3158049,22.8093646,1065 83.3163902,22.8095513,1065 83.3167886,22.8098983,1065 83.3172683,22.8110927,1065 83.3175610,22.8113778,1065 83.3178537,22.8114842,1065 83.3182543,22.8115044,1065</coordinates></LineString></Placemark><Placemark><name>1065 m</name><styleUrl>#minor</styleUrl><ExtendedData><Data name="elevation"><value>1065</value></Data></ExtendedData><LineString><tessellate>1</tessellate><altitudeMode>clampToGround</altitudeMode><coordinates>83.2817457,22.8083434,1065 83.2821884,22.8085424,1065 83.2825499,22.8088136,1065 83.2832491,22.8098983,1065 83.2841876,22.8104407,1065 83.2847805,22.8110816,1065 83.2850090,22.8115254,1065 83.2847578,22.8117966,1065 83.2846498,22.8126102,1065 83.2833729,22.8136949,1065 83.2832462,22.8139661,1065 83.2833171,22.8148772,1065 83.2833975,22.8145085,1065 83.2839024,22.8141896,1065 83.2856585,22.8139956,1065 83.2865366,22.8135598,1065 83.2868293,22.8135872,1065 83.2880000,22.8140698,1065 83.2885854,22.8141277,1065 83.2888725,22.8147797,1065 83.2896129,22.8155932,1065 83.2898348,22.8161356,1065 83.2897822,22.8164068,1065 83.2885854,22.8176767,1065 83.2884282,22.8180000,1065</coordinates></LineString></Placemark><Placemark><name>1065 m</name><styleUrl>#minor</styleUrl><ExtendedData><Data name="elevation"><value>1065</value></Data></ExtendedData><LineString><tessellate>1</tessellate><altitudeMode>clampToGround</altitudeMode><coordinates>83.3182543,22.7971724,1065 83.3180977,22.7968814,1065 83.3179933,22.7960678,1065 83.3182543,22.7956891,1065</coordinates></LineString></Placemark><Placemark><name>1065 m</name><styleUrl>#minor</styleUrl><ExtendedData><Data name="elevation"><value>1065</value></Data></ExtendedData><LineString><tessellate>1</tessellate><altitudeMode>clampToGround</altitudeMode><coordinates>83.3182543,22.7951206,1065 83.3179458,22.7949831,1065 83.3177347,22.7947119,1065 83.3172737,22.7930847,1065 83.3170580,22.7928136,1065 83.3170847,22.7922712,1065 83.3171714,22.7920000,1065 83.3181463,22.7912763,1065 83.3182543,22.7912540,1065</coordinates></LineString></Placemark><Placemark><name>1065 m</name><styleUrl>#minor</styleUrl><ExtendedData><Data name="elevation"><value>1065</value></Data></ExtendedData><LineString><tessellate>1</tessellate><altitudeMode>clampToGround</altitudeMode><coordinates>83.3182543,22.7902936,1065 83.3172736,22.7901017,1065 83.3169756,22.7898017,1065 83.3163942,22.7887458,1065 83.3163439,22.7882034,1065 83.3167438,22.7865763,1065 83.3172683,22.7862891,1065 83.3181463,22.7862705,1065 83.3182543,22.7862377,1065</coordinates></LineString></Placemark><Placemark><name>1065 m</name><styleUrl>#minor</styleUrl><ExtendedData><Data name="elevation"><value>1065</value></Data></ExtendedData><LineString><tessellate>1</tessellate><altitudeMode>clampToGround</altitudeMode><coordinates>83.3182543,22.7857084,1065 83.3172489,22.7852203,1065 83.3169665,22.7849492,1065 83.3169435,22.7844068,1065 83.3172874,22.7835932,1065 83.3174555,22.7833220,1065 83.3181409,22.7827797,1065 83.3180147,22.7825085,1065 83.3173988,22.7820000,1065</coordinates></LineString></Placemark><Placemark><name>1065 m</name><styleUrl>#minor</styleUrl><ExtendedData><Data name="elevation"><value>1065</value></Data></ExtendedData><LineString><tessellate>1</tessellate><altitudeMode>clampToGround</altitudeMode><coordinates>83.2995872,22.8180000,1065 83.2995966,22.8174915,1065 83.3000588,22.8166780,1065 83.3001309,22.8161356,1065 83.2992435,22.8155932,1065 83.2989169,22.8147797,1065 83.2985366,22.8143215,1065 83.2970732,22.8144281,1065 83.2964689,22.8142373,1065 83.2957651,22.8128814,1065 83.2954697,22.8117966,1065 83.2953171,22.8116252,1065 83.2944390,22.8113369,1065 83.2938537,22.8106563,1065 83.2929756,22.8101356,1065 83.2918049,22.8096963,1065 83.2909268,22.8090465,1065 83.2894634,22.8082026,1065 83.2886665,22.8074576,1065 83.2883508,22.8069153,1065 83.2881596,22.8063729,1065 83.2884824,22.8055593,1065 83.2882509,22.8052881,1065 83.2880576,22.8047458,1065 83.2881644,22.8044746,1065 83.2885865,22.8042034,1065 83.2882000,22.8031186,1065 83.2883402,22.8023051,1065 83.2886704,22.8017627,1065 83.2887214,22.8001356,1065 83.2891582,22.7993220,1065 83.2889532,22.7990508,1065 83.2889323,22.7987797,1065 83.2891707,22.7981582,1065 83.2891707,22.7978348,1065 83.2882927,22.7983654,1065 83.2880000,22.7984318,1065 83.2877073,22.7983326,1065 83.2871220,22.7988648,1065 83.2865366,22.7990726,1065 83.2863214,22.7993220,1065 83.2861350,22.7998644,1065 83.2856585,22.8004241,1065 83.2853659,22.8004634,1065 83.2847805,22.8002912,1065 83.2844878,22.8007571,1065 83.2839024,22.8008879,1065 83.2824390,22.8008555,1065 83.2817457,22.8007576,1065</coordinates></LineString></Placemark><Placemark><name>1065 m</name><styleUrl>#minor</styleUrl><ExtendedData><Data name="elevation"><value>1065</value></Data></ExtendedData><LineString><tessellate>1</tessellate><altitudeMode>clampToGround</altitudeMode><coordinates>83.2817457,22.7844681,1065 83.2821523,22.7838644,1065 83.2818534,22.7838644,1065 83.2818537,22.7831553,1065 83.2817457,22.7830305,1065</coordinates></LineString></Placemark><Placemark><name>1070 m</name><styleUrl>#minor</styleUrl><ExtendedData><Data name="elevation"><value>1070</value></Data></ExtendedData><LineString><tessellate>1</tessellate><altitudeMode>clampToGround</altitudeMode><coordinates>83.2954077,22.7820000,1070 83.2954478,22.7822373,1070 83.2953306,22.7825085,1070 83.2947317,22.7830250,1070 83.2938537,22.7834488,1070 83.2932683,22.7834988,1070 83.2931575,22.7835932,1070 83.2944390,22.7837369,1070 83.2956098,22.7831850,1070 83.2961951,22.7830750,1070 83.2965293,22.7833220,1070 83.2963219,22.7835932,1070 83.2964878,22.7840326,1070 83.2973659,22.7840266,1070 83.2979119,22.7844068,1070 83.2981269,22.7852203,1070 83.2968993,22.7865763,1070 83.2968994,22.7868475,1070 83.2976585,22.7868791,1070 83.2982439,22.7864975,1070 83.2988293,22.7863217,1070 83.3008780,22.7866634,1070 83.3012101,22.7871186,1070 83.3015709,22.7873898,1070 83.3019192,22.7882034,1070 83.3018588,22.7884746,1070 83.3033763,22.7892881,1070 83.3038365,22.7898305,1070 83.3039712,22.7903729,1070 83.3038513,22.7911864,1070 83.3038894,22.7920000,1070 83.3049122,22.7925424,1070 83.3052111,22.7928136,1070 83.3058734,22.7936271,1070 83.3063234,22.7947119,1070 83.3070002,22.7952542,1070 83.3072435,22.7960678,1070 83.3070602,22.7966102,1070 83.3070993,22.7974237,1070 83.3073171,22.7979052,1070 83.3079024,22.7981022,1070 83.3087805,22.7981979,1070 83.3091045,22.7998644,1070 83.3095680,22.8004068,1070 83.3093659,22.8008187,1070 83.3090477,22.8009492,1070 83.3092131,22.8014915,1070 83.3090984,22.8017627,1070 83.3087805,22.8016868,1070 83.3084878,22.8013634,1070 83.3079024,22.8011659,1070 83.3070244,22.8000694,1070 83.3060961,22.7995932,1070 83.3046829,22.7985577,1070 83.3038049,22.7980737,1070 83.3037927,22.7974237,1070 83.3036227,22.7971525,1070 83.3026341,22.7969079,1070 83.3020488,22.7965616,1070 83.3011707,22.7957571,1070 83.3008908,22.7960678,1070 83.3004507,22.7971525,1070 83.3000000,22.7972774,1070 83.2991220,22.7970510,1070 83.2989322,22.7971525,1070 83.2988987,22.7976949,1070 83.2990917,22.7982373,1070 83.2989587,22.7990508,1070 83.2983132,22.7995932,1070 83.2982436,22.7998644,1070 83.2990207,22.8001356,1070 83.2991666,22.8004068,1070 83.2990833,22.8012203,1070 83.2996399,22.8017627,1070 83.2997387,22.8020339,1070 83.2997621,22.8023051,1070 83.2994711,22.8031186,1070 83.2997073,22.8032927,1070 83.3002927,22.8034493,1070 83.3008780,22.8034326,1070 83.3008958,22.8036610,1070 83.3020488,22.8042431,1070 83.3035122,22.8053687,1070 83.3042717,22.8061017,1070 83.3049756,22.8065123,1070 83.3051635,22.8069153,1070 83.3049746,22.8071864,1070 83.3044104,22.8074576,1070 83.3042311,22.8077288,1070 83.3043902,22.8078396,1070 83.3046829,22.8077941,1070 83.3049756,22.8076388,1070 83.3055610,22.8075604,1070 83.3058537,22.8073265,1070 83.3067317,22.8073343,1070 83.3082130,22.8077288,1070 83.3095156,22.8085424,1070 83.3099512,22.8089793,1070 83.3100598,22.8096271,1070 83.3095644,22.8101695,1070 83.3087805,22.8107881,1070 83.3072392,22.8112542,1070 83.3076403,22.8117966,1070 83.3076966,22.8120678,1070 83.3073396,22.8134237,1070 83.3064390,22.8147298,1070 83.3058537,22.8148869,1070 83.3055448,22.8153220,1070 83.3053606,22.8164068,1070 83.3054065,22.8169492,1070 83.3056453,22.8174915,1070 83.3061656,22.8177627,1070 83.3061982,22.8180000,1070</coordinates></LineString></Placemark><Placemark><name>1070 m</name><styleUrl>#minor</styleUrl><ExtendedData><Data name="elevation"><value>1070</value></Data></ExtendedData><LineString><tessellate>1</tessellate><altitudeMode>clampToGround</altitudeMode><coordinates>83.3111207,22.8180000,1070 83.3098999,22.8166780,1070 83.3097902,22.8155932,1070 83.3101484,22.8142373,1070 83.3106217,22.8131525,1070 83.3106047,22.8128814,1070 83.3116552,22.8120678,1070 83.3115088,22.8117966,1070 83.3117073,22.8116138,1070 83.3125854,22.8114155,1070 83.3127670,22.8117966,1070 83.3128828,22.8128814,1070 83.3132523,22.8136949,1070 83.3137561,22.8143478,1070 83.3139397,22.8142373,1070 83.3140488,22.8136282,1070 83.3145848,22.8123390,1070 83.3146341,22.8114830,1070 83.3150941,22.8104407,1070 83.3155122,22.8100746,1070 83.3158049,22.8100404,1070 83.3161303,22.8101695,1070 83.3171342,22.8117966,1070 83.3178537,22.8121635,1070 83.3182543,22.8122423,1070</coordinates></LineString></Placemark><Placemark><name>1070 m</name><styleUrl>#minor</styleUrl><ExtendedData><Data name="elevation"><value>1070</value></Data></ExtendedData><LineString><tessellate>1</tessellate><altitudeMode>clampToGround</altitudeMode><coordinates>83.3182543,22.7894986,1070 83.3178537,22.7891355,1070 83.3175193,22.7884746,1070 83.3179414,22.7873898,1070 83.3177834,22.7871186,1070 83.3178537,22.7870541,1070 83.3181463,22.7869083,1070 83.3182543,22.7869698,1070</coordinates></LineString></Placemark><Placemark><name>1070 m</name><styleUrl>#minor</styleUrl><ExtendedData><Data name="elevation"><value>1070</value></Data></ExtendedData><LineString><tessellate>1</tessellate><altitudeMode>clampToGround</altitudeMode><coordinates>83.3182543,22.7846814,1070 83.3182500,22.7846780,1070 83.3182097,22.7838644,1070 83.3182543,22.7837521,1070</coordinates></LineString></Placemark><Placemark><name>1070 m</name><styleUrl>#minor</styleUrl><ExtendedData><Data name="elevation"><value>1070</value></Data></ExtendedData><LineString><tessellate>1</tessellate><altitudeMode>clampToGround</altitudeMode><coordinates>83.2817457,22.8095731,1070 83.2822818,22.8101695,1070 83.2827317,22.8104608,1070 83.2833171,22.8112621,1070 83.2836098,22.8113675,1070 83.2839024,22.8111721,1070 83.2844878,22.8111942,1070 83.2847347,22.8115254,1070 83.2844878,22.8116932,1070 83.2838392,22.8117966,1070 83.2840268,22.8126102,1070 83.2839504,22.8128814,1070 83.2837078,22.8131525,1070 83.2829694,22.8134237,1070 83.2825396,22.8139661,1070 83.2827464,22.8147797,1070 83.2824646,22.8164068,1070 83.2827317,22.8166905,1070 83.2833391,22.8161356,1070 83.2839181,22.8145085,1070 83.2844878,22.8143884,1070 83.2856585,22.8145903,1070 83.2868293,22.8142476,1070 83.2877523,22.8150508,1070 83.2880000,22.8151396,1070 83.2885878,22.8150508,1070 83.2888728,22.8153220,1070 83.2892455,22.8164068,1070 83.2890511,22.8169492,1070 83.2884775,22.8174915,1070 83.2882132,22.8180000,1070</coordinates></LineString></Placemark><Placemark><name>1070 m</name><styleUrl>#minor</styleUrl><ExtendedData><Data name="elevation"><value>1070</value></Data></ExtendedData><LineString><tessellate>1</tessellate><altitudeMode>clampToGround</altitudeMode><coordinates>83.3005360,22.8180000,1070 83.3005003,22.8174915,1070 83.3007652,22.8161356,1070 83.3006765,22.8158644,1070 83.2997073,22.8152720,1070 83.2991220,22.8132722,1070 83.2988293,22.8133197,1070 83.2982439,22.8137319,1070 83.2973659,22.8135663,1070 83.2966220,22.8128814,1070 83.2965788,22.8123390,1070 83.2963081,22.8120678,1070 83.2961862,22.8115254,1070 83.2956098,22.8109332,1070 83.2947317,22.8104637,1070 83.2941463,22.8098883,1070 83.2929756,22.8093358,1070 83.2918049,22.8091757,1070 83.2905799,22.8085424,1070 83.2891122,22.8074576,1070 83.2887130,22.8069153,1070 83.2887237,22.8063729,1070 83.2892069,22.8055593,1070 83.2888690,22.8050169,1070 83.2888710,22.8047458,1070 83.2892875,22.8044746,1070 83.2888649,22.8039322,1070 83.2888298,22.8036610,1070 83.2889904,22.8031186,1070 83.2890748,22.8020339,1070 83.2892744,22.8014915,1070 83.2892221,22.8009492,1070 83.2893552,22.8001356,1070 83.2896835,22.7993220,1070 83.2894804,22.7987797,1070 83.2897721,22.7971525,1070 83.2897561,22.7968391,1070 83.2895783,22.7966102,1070 83.2894268,22.7966102,1070 83.2885854,22.7976726,1070 83.2880000,22.7978928,1070 83.2877073,22.7978208,1070 83.2874146,22.7979311,1070 83.2868293,22.7984206,1070 83.2859512,22.7986974,1070 83.2855888,22.7993220,1070 83.2850732,22.7997500,1070 83.2847805,22.7997372,1070 83.2841951,22.7994530,1070 83.2841136,22.7995932,1070 83.2841927,22.7998644,1070 83.2840336,22.8001356,1070 83.2827317,22.8003063,1070 83.2817457,22.8002016,1070</coordinates></LineString></Placemark><Placemark><name>1070 m</name><styleUrl>#minor</styleUrl><ExtendedData><Data name="elevation"><value>1070</value></Data></ExtendedData><LineString><tessellate>1</tessellate><altitudeMode>clampToGround</altitudeMode><coordinates>83.2817457,22.7896988,1070 83.2820111,22.7892881,1070 83.2821503,22.7887458,1070 83.2820092,22.7884746,1070 83.2821422,22.7879322,1070 83.2821198,22.7873898,1070 83.2824781,22.7871186,1070 83.2825047,22.7860339,1070 83.2826290,22.7854915,1070 83.2831847,22.7844068,1070 83.2831224,22.7833220,1070 83.2821999,22.7820000,1070</coordinates></LineString></Placemark><Placemark><name>1075 m</name><styleUrl>#major</styleUrl><ExtendedData><Data name="elevation"><value>1075</value></Data></ExtendedData><LineString><tessellate>1</tessellate><altitudeMode>clampToGround</altitudeMode><coordinates>83.2947476,22.7820000,1075 83.2949382,22.7822373,1075 83.2948069,22.7825085,1075 83.2944390,22.7827491,1075 83.2941463,22.7827381,1075 83.2938537,22.7828760,1075 83.2932683,22.7826675,1075 83.2926829,22.7829569,1075 83.2923902,22.7834050,1075 83.2918049,22.7837460,1075 83.2912195,22.7837050,1075 83.2906341,22.7835144,1075 83.2903415,22.7838199,1075 83.2903415,22.7839903,1075 83.2905151,22.7841356,1075 83.2915122,22.7842674,1075 83.2917606,22.7844068,1075 83.2920976,22.7849130,1075 83.2923902,22.7849325,1075 83.2935610,22.7845100,1075 83.2938537,22.7842612,1075 83.2941463,22.7842159,1075 83.2945226,22.7844068,1075 83.2941463,22.7846998,1075 83.2941463,22.7850208,1075 83.2944390,22.7847400,1075 83.2953171,22.7847737,1075 83.2956027,22.7849492,1075 83.2956931,22.7854915,1075 83.2959024,22.7855942,1075 83.2961951,22.7855557,1075 83.2964878,22.7851789,1075 83.2970732,22.7851838,1075 83.2971999,22.7854915,1075 83.2969012,22.7857627,1075 83.2970747,22.7860339,1075 83.2961548,22.7868475,1075 83.2961635,22.7871186,1075 83.2982439,22.7875580,1075 83.2988293,22.7874495,1075 83.3000000,22.7880656,1075 83.3007132,22.7892881,1075 83.3008134,22.7901017,1075 83.3011707,22.7901689,1075 83.3014634,22.7900761,1075 83.3020488,22.7902391,1075 83.3028924,22.7909153,1075 83.3029703,22.7911864,1075 83.3025742,22.7920000,1075 83.3026252,22.7928136,1075 83.3035122,22.7930997,1075 83.3046829,22.7940546,1075 83.3051589,22.7949831,1075 83.3055050,22.7952542,1075 83.3057079,22.7957966,1075 83.3060266,22.7960678,1075 83.3058537,22.7963575,1075 83.3055610,22.7959395,1075 83.3052683,22.7960111,1075 83.3049756,22.7962492,1075 83.3040976,22.7959497,1075 83.3029268,22.7957814,1075 83.3018615,22.7949831,1075 83.3014634,22.7943772,1075 83.3011707,22.7942371,1075 83.3002927,22.7941155,1075 83.3000031,22.7944407,1075 83.3000321,22.7952542,1075 83.2997073,22.7963348,1075 83.2985366,22.7962939,1075 83.2979267,22.7966102,1075 83.2978901,22.7968814,1075 83.2980589,22.7971525,1075 83.2982439,22.7980479,1075 83.2983119,22.7990508,1075 83.2981022,22.7993220,1075 83.2975483,22.7995932,1075 83.2976663,22.7998644,1075 83.2983376,22.8004068,1075 83.2983670,22.8014915,1075 83.2985610,22.8023051,1075 83.2982742,22.8028475,1075 83.2988293,22.8035937,1075 83.3000000,22.8043551,1075 83.3011707,22.8047301,1075 83.3014634,22.8049818,1075 83.3026341,22.8055690,1075 83.3030025,22.8058305,1075 83.3038049,22.8068341,1075 83.3043902,22.8065745,1075 83.3047564,22.8066441,1075 83.3049176,22.8069153,1075 83.3038952,22.8074576,1075 83.3037748,22.8077288,1075 83.3039335,22.8080000,1075 83.3043902,22.8082570,1075 83.3046829,22.8082323,1075 83.3049756,22.8079209,1075 83.3052683,22.8078775,1075 83.3054206,22.8080000,1075 83.3053172,22.8082712,1075 83.3055610,22.8083089,1075 83.3058537,22.8080544,1075 83.3061463,22.8080256,1075 83.3076098,22.8082210,1075 83.3084878,22.8085914,1075 83.3093131,22.8096271,1075 83.3092992,22.8098983,1075 83.3084878,22.8106234,1075 83.3066493,22.8109831,1075 83.3062030,22.8112542,1075 83.3068159,22.8115254,1075 83.3069348,22.8117966,1075 83.3068932,22.8123390,1075 83.3067167,22.8126102,1075 83.3068081,22.8134237,1075 83.3061463,22.8144829,1075 83.3055610,22.8145913,1075 83.3050096,22.8158644,1075 83.3049778,22.8166780,1075 83.3051388,22.8174915,1075 83.3053854,22.8177627,1075 83.3059104,22.8180000,1075</coordinates></LineString></Placemark><Placemark><name>1075 m</name><styleUrl>#major</styleUrl><ExtendedData><Data name="elevation"><value>1075</value></Data></ExtendedData><LineString><tessellate>1</tessellate><altitudeMode>clampToGround</altitudeMode><coordinates>83.3113888,22.8180000,1075 83.3102342,22.8166780,1075 83.3102208,22.8155932,1075 83.3107794,22.8142373,1075 83.3111220,22.8134779,1075 83.3120000,22.8131129,1075 83.3122927,22.8124377,1075 83.3128848,22.8131525,1075 83.3133155,22.8142373,1075 83.3137561,22.8146361,1075 83.3140488,22.8146771,1075 83.3142212,22.8145085,1075 83.3143415,22.8135210,1075 83.3152737,22.8123390,1075 83.3155122,22.8118674,1075 83.3160976,22.8120171,1075 83.3172683,22.8127913,1075 83.3178537,22.8129868,1075 83.3182543,22.8130390,1075</coordinates></LineString></Placemark><Placemark><name>1075 m</name><styleUrl>#major</styleUrl><ExtendedData><Data name="elevation"><value>1075</value></Data></ExtendedData><LineString><tessellate>1</tessellate><altitudeMode>clampToGround</altitudeMode><coordinates>83.2955401,22.7844068,1075 83.2956098,22.7843342,1075 83.2958083,22.7844068,1075 83.2955401,22.7844068,1075</coordinates></LineString></Placemark><Placemark><name>1075 m</name><styleUrl>#major</styleUrl><ExtendedData><Data name="elevation"><value>1075</value></Data></ExtendedData><LineString><tessellate>1</tessellate><altitudeMode>clampToGround</altitudeMode><coordinates>83.2897561,22.7850882,1075 83.2894979,22.7852203,1075 83.2897561,22.7853105,1075 83.2898472,22.7852203,1075 83.2897561,22.7850882,1075</coordinates></LineString></Placemark><Placemark><name>1075 m</name><styleUrl>#major</styleUrl><ExtendedData><Data name="elevation"><value>1075</value></Data></ExtendedData><LineString><tessellate>1</tessellate><altitudeMode>clampToGround</altitudeMode><coordinates>83.2817457,22.8112594,1075 83.2822470,22.8115254,1075 83.2827776,22.8126102,1075 83.2830255,22.8128814,1075 83.2827317,22.8128884,1075 83.2823274,22.8134237,1075 83.2821237,22.8139661,1075 83.2822741,22.8147797,1075 83.2821463,22.8154016,1075 83.2819389,22.8155932,1075 83.2817457,22.8156580,1075</coordinates></LineString></Placemark><Placemark><name>1075 m</name><styleUrl>#major</styleUrl><ExtendedData><Data name="elevation"><value>1075</value></Data></ExtendedData><LineString><tessellate>1</tessellate><altitudeMode>clampToGround</altitudeMode><coordinates>83.2817457,22.8162676,1075 83.2818316,22.8164068,1075 83.2819024,22.8177627,1075 83.2821463,22.8178414,1075 83.2824390,22.8177529,1075 83.2835791,22.8172203,1075 83.2836518,22.8169492,1075 83.2834461,22.8166780,1075 83.2834040,22.8164068,1075 83.2836477,22.8161356,1075 83.2841951,22.8147273,1075 83.2845444,22.8147797,1075 83.2850732,22.8155836,1075 83.2856585,22.8151968,1075 83.2865366,22.8152196,1075 83.2868293,22.8153181,1075 83.2878073,22.8161356,1075 83.2879359,22.8164068,1075 83.2878676,22.8169492,1075 83.2882927,22.8169116,1075 83.2885854,22.8165830,1075 83.2888780,22.8166239,1075 83.2887369,22.8169492,1075 83.2881161,22.8174915,1075 83.2880616,22.8180000,1075</coordinates></LineString></Placemark><Placemark><name>1075 m</name><styleUrl>#major</styleUrl><ExtendedData><Data name="elevation"><value>1075</value></Data></ExtendedData><LineString><tessellate>1</tessellate><altitudeMode>clampToGround</altitudeMode><coordinates>83.3013146,22.8180000,1075 83.3012448,22.8177627,1075 83.3013974,22.8166780,1075 83.3020764,22.8153220,1075 83.3019575,22.8150508,1075 83.3014634,22.8149170,1075 83.3008780,22.8144684,1075 83.3005658,22.8147797,1075 83.3004358,22.8145085,1075 83.3006646,22.8142373,1075 83.3003139,22.8134237,1075 83.2998711,22.8128814,1075 83.2997717,22.8115254,1075 83.2994146,22.8114112,1075 83.2988580,22.8117966,1075 83.2986841,22.8123390,1075 83.2979512,22.8123975,1075 83.2978579,22.8123390,1075 83.2979052,22.8117966,1075 83.2974603,22.8115254,1075 83.2975816,22.8112542,1075 83.2979051,22.8109831,1075 83.2979512,22.8107366,1075 83.2978763,22.8104407,1075 83.2976585,22.8102270,1075 83.2964878,22.8103648,1075 83.2950244,22.8097162,1075 83.2944390,22.8091647,1075 83.2926829,22.8083953,1075 83.2918049,22.8085959,1075 83.2906341,22.8083283,1075 83.2893535,22.8071864,1075 83.2891783,22.8069153,1075 83.2892942,22.8063729,1075 83.2898968,22.8055593,1075 83.2896994,22.8047458,1075 83.2900432,22.8044746,1075 83.2901428,22.8042034,1075 83.2897886,22.8036610,1075 83.2899118,22.8017627,1075 83.2902374,22.8012203,1075 83.2900640,22.8004068,1075 83.2904621,22.7993220,1075 83.2900966,22.7987797,1075 83.2899876,22.7979661,1075 83.2901463,22.7966102,1075 83.2900914,22.7955254,1075 83.2897561,22.7956504,1075 83.2894634,22.7960543,1075 83.2885854,22.7968416,1075 83.2880000,22.7969492,1075 83.2877073,22.7968837,1075 83.2874146,22.7966216,1075 83.2871220,22.7966599,1075 83.2864037,22.7974237,1075 83.2856585,22.7979551,1075 83.2847805,22.7978741,1075 83.2839024,22.7971452,1075 83.2836098,22.7969634,1075 83.2833171,22.7969413,1075 83.2831592,22.7971525,1075 83.2826699,22.7987797,1075 83.2824390,22.7991247,1075 83.2821463,22.7992186,1075 83.2817457,22.7990317,1075</coordinates></LineString></Placemark><Placemark><name>1075 m</name><styleUrl>#major</styleUrl><ExtendedData><Data name="elevation"><value>1075</value></Data></ExtendedData><LineString><tessellate>1</tessellate><altitudeMode>clampToGround</altitudeMode><coordinates>83.2817457,22.7947124,1075 83.2817613,22.7947119,1075 83.2819283,22.7936271,1075 83.2817457,22.7930311,1075</coordinates></LineString></Placemark><Placemark><name>1075 m</name><styleUrl>#major</styleUrl><ExtendedData><Data name="elevation"><value>1075</value></Data></ExtendedData><LineString><tessellate>1</tessellate><altitudeMode>clampToGround</altitudeMode><coordinates>83.2817457,22.7912978,1075 83.2821463,22.7907541,1075 83.2824390,22.7909750,1075 83.2826387,22.7909153,1075 83.2825720,22.7903729,1075 83.2827317,22.7902784,1075 83.2830244,22.7903297,1075 83.2842630,22.7887458,1075 83.2838411,22.7882034,1075 83.2833651,22.7871186,1075 83.2833846,22.7857627,1075 83.2838821,22.7841356,1075 83.2837530,22.7835932,1075 83.2838142,22.7833220,1075 83.2830609,22.7820000,1075</coordinates></LineString></Placemark><Placemark><name>1080 m</name><styleUrl>#minor</styleUrl><ExtendedData><Data name="elevation"><value>1080</value></Data></ExtendedData><LineString><tessellate>1</tessellate><altitudeMode>clampToGround</altitudeMode><coordinates>83.2919543,22.7820000,1080 83.2915122,22.7823450,1080 83.2906341,22.7825105,1080 83.2897561,22.7823679,1080 83.2895494,22.7825085,1080 83.2894634,22.7828964,1080 83.2887152,22.7841356,1080 83.2886709,22.7846780,1080 83.2883474,22.7852203,1080 83.2883589,22.7854915,1080 83.2885854,22.7857472,1080 83.2891707,22.7857509,1080 83.2897561,22.7860249,1080 83.2906805,22.7857627,1080 83.2909268,22.7855517,1080 83.2912195,22.7855521,1080 83.2915122,22.7868478,1080 83.2918049,22.7868193,1080 83.2923902,22.7862179,1080 83.2935610,22.7859661,1080 83.2938537,22.7859605,1080 83.2941463,22.7862234,1080 83.2947317,22.7863953,1080 83.2950445,22.7860339,1080 83.2950872,22.7857627,1080 83.2948491,22.7854915,1080 83.2950244,22.7851177,1080 83.2951786,22.7852203,1080 83.2951446,22.7854915,1080 83.2953171,22.7855864,1080 83.2959024,22.7858440,1080 83.2964878,22.7858427,1080 83.2967805,22.7859715,1080 83.2968419,22.7860339,1080 83.2964878,22.7863004,1080 83.2959024,22.7865151,1080 83.2954105,22.7868475,1080 83.2952073,22.7871186,1080 83.2953005,22.7873898,1080 83.2964878,22.7879063,1080 83.2970732,22.7884161,1080 83.2986910,22.7892881,1080 83.2990216,22.7901017,1080 83.2987510,22.7909153,1080 83.2988293,22.7910112,1080 83.2994146,22.7911066,1080 83.3005854,22.7916032,1080 83.3008153,22.7917288,1080 83.3009814,22.7920000,1080 83.3010031,22.7922712,1080 83.3005854,22.7933273,1080 83.3000000,22.7930276,1080 83.2997073,22.7932832,1080 83.2991220,22.7934701,1080 83.2989804,22.7936271,1080 83.2989774,22.7941695,1080 83.2988293,22.7942622,1080 83.2985251,22.7949831,1080 83.2981956,22.7952542,1080 83.2963363,22.7960678,1080 83.2963371,22.7963390,1080 83.2966509,22.7968814,1080 83.2967156,22.7974237,1080 83.2969748,22.7979661,1080 83.2963782,22.7987797,1080 83.2963700,22.7990508,1080 83.2967921,22.7998644,1080 83.2972395,22.8004068,1080 83.2974584,22.8009492,1080 83.2971500,22.8023051,1080 83.2971205,22.8031186,1080 83.2973659,22.8035660,1080 83.2986165,22.8050169,1080 83.2988293,22.8055981,1080 83.3001910,22.8058305,1080 83.3020481,22.8069153,1080 83.3026451,22.8082712,1080 83.3035122,22.8087794,1080 83.3046829,22.8091313,1080 83.3070244,22.8087015,1080 83.3079024,22.8088874,1080 83.3081023,22.8090847,1080 83.3084199,22.8098983,1080 83.3084257,22.8101695,1080 83.3081951,22.8103992,1080 83.3073171,22.8105045,1080 83.3064390,22.8103933,1080 83.3058537,22.8101259,1080 83.3043902,22.8103839,1080 83.3041520,22.8107119,1080 83.3041341,22.8109831,1080 83.3043629,22.8115254,1080 83.3047767,22.8120678,1080 83.3048390,22.8128814,1080 83.3046829,22.8129046,1080 83.3045440,22.8131525,1080 83.3044743,22.8136949,1080 83.3038049,22.8141071,1080 83.3035122,22.8140498,1080 83.3029268,22.8134126,1080 83.3020488,22.8130155,1080 83.3014634,22.8124579,1080 83.3014010,22.8109831,1080 83.3011707,22.8104943,1080 83.3008780,22.8102944,1080 83.2994146,22.8100470,1080 83.2982439,22.8093119,1080 83.2961951,22.8092436,1080 83.2953171,22.8090652,1080 83.2947317,22.8086788,1080 83.2944390,22.8085726,1080 83.2941463,22.8086358,1080 83.2932683,22.8083078,1080 83.2926829,22.8078364,1080 83.2923902,22.8078180,1080 83.2918049,22.8081421,1080 83.2906341,22.8079712,1080 83.2896062,22.8069153,1080 83.2895847,22.8066441,1080 83.2897561,22.8063360,1080 83.2907972,22.8058305,1080 83.2910581,22.8050169,1080 83.2916832,22.8042034,1080 83.2915687,22.8039322,1080 83.2909268,22.8034496,1080 83.2908019,22.8031186,1080 83.2911236,22.8020339,1080 83.2919530,22.8009492,1080 83.2919489,22.8006780,1080 83.2916339,22.8001356,1080 83.2918854,22.7995932,1080 83.2915122,22.7989978,1080 83.2908525,22.7985085,1080 83.2906902,22.7982373,1080 83.2905334,22.7974237,1080 83.2908872,22.7968814,1080 83.2911086,22.7960678,1080 83.2915306,22.7955254,1080 83.2915122,22.7946339,1080 83.2909268,22.7946619,1080 83.2906341,22.7945385,1080 83.2900488,22.7939988,1080 83.2885854,22.7954085,1080 83.2877073,22.7956192,1080 83.2873292,22.7952542,1080 83.2873269,22.7949831,1080 83.2871220,22.7946630,1080 83.2862612,22.7957966,1080 83.2858960,22.7960678,1080 83.2857729,22.7963390,1080 83.2853659,22.7965396,1080 83.2845919,22.7963390,1080 83.2845042,22.7957966,1080 83.2840242,22.7952542,1080 83.2839937,22.7947119,1080 83.2836820,22.7936271,1080 83.2833171,22.7930449,1080 83.2831753,22.7925424,1080 83.2831669,22.7922712,1080 83.2835008,22.7914576,1080 83.2836723,22.7911864,1080 83.2841951,22.7908127,1080 83.2844878,22.7909364,1080 83.2847805,22.7909025,1080 83.2853300,22.7906441,1080 83.2860324,22.7892881,1080 83.2877073,22.7886830,1080 83.2880000,22.7879405,1080 83.2885440,22.7876610,1080 83.2885864,22.7873898,1080 83.2884275,22.7871186,1080 83.2884174,22.7865763,1080 83.2882927,22.7864154,1080 83.2880000,22.7863913,1080 83.2877073,22.7861688,1080 83.2865366,22.7861727,1080 83.2863783,22.7863051,1080 83.2862940,22.7871186,1080 83.2860455,22.7876610,1080 83.2862635,22.7882034,1080 83.2859413,22.7884746,1080 83.2853659,22.7885587,1080 83.2849559,22.7879322,1080 83.2847447,22.7871186,1080 83.2841097,22.7863051,1080 83.2842034,22.7860339,1080 83.2841630,22.7849492,1080 83.2848402,22.7844068,1080 83.2850732,22.7840305,1080 83.2853659,22.7838347,1080 83.2854243,22.7835932,1080 83.2852116,22.7830508,1080 83.2852024,22.7825085,1080 83.2849790,22.7820000,1080</coordinates></LineString></Placemark><Placemark><name>1080 m</name><styleUrl>#minor</styleUrl><ExtendedData><Data name="elevation"><value>1080</value></Data></ExtendedData><LineString><tessellate>1</tessellate><altitudeMode>clampToGround</altitudeMode><coordinates>83.2853659,22.7851936,1080 83.2852682,22.7852203,1080 83.2853659,22.7853691,1080 83.2853659,22.7851936,1080</coordinates></LineString></Placemark><Placemark><name>1080 m</name><styleUrl>#minor</styleUrl><ExtendedData><Data name="elevation"><value>1080</value></Data></ExtendedData><LineString><tessellate>1</tessellate><altitudeMode>clampToGround</altitudeMode><coordinates>83.2876948,22.7865763,1080 83.2880871,22.7868475,1080 83.2879226,22.7871186,1080 83.2874146,22.7872348,1080 83.2871220,22.7871265,1080 83.2876948,22.7865763,1080</coordinates></LineString></Placemark><Placemark><name>1080 m</name><styleUrl>#minor</styleUrl><ExtendedData><Data name="elevation"><value>1080</value></Data></ExtendedData><LineString><tessellate>1</tessellate><altitudeMode>clampToGround</altitudeMode><coordinates>83.2870963,22.7879322,1080 83.2875681,22.7879322,1080 83.2875776,22.7882034,1080 83.2871220,22.7883566,1080 83.2868293,22.7882210,1080 83.2870963,22.7879322,1080</coordinates></LineString></Placemark><Placemark><name>1080 m</name><styleUrl>#minor</styleUrl><ExtendedData><Data name="elevation"><value>1080</value></Data></ExtendedData><LineString><tessellate>1</tessellate><altitudeMode>clampToGround</altitudeMode><coordinates>83.2843714,22.7882034,1080 83.2844878,22.7880432,1080 83.2849666,22.7882034,1080 83.2844878,22.7884427,1080 83.2843714,22.7882034,1080</coordinates></LineString></Placemark><Placemark><name>1080 m</name><styleUrl>#minor</styleUrl><ExtendedData><Data name="elevation"><value>1080</value></Data></ExtendedData><LineString><tessellate>1</tessellate><altitudeMode>clampToGround</altitudeMode><coordinates>83.3011007,22.7928136,1080 83.3012170,22.7928136,1080</coordinates></LineString></Placemark><Placemark><name>1080 m</name><styleUrl>#minor</styleUrl><ExtendedData><Data name="elevation"><value>1080</value></Data></ExtendedData><LineString><tessellate>1</tessellate><altitudeMode>clampToGround</altitudeMode><coordinates>83.3050916,22.8126102,1080 83.3052683,22.8125279,1080 83.3053690,22.8126102,1080 83.3056346,22.8131525,1080 83.3051793,22.8131525,1080 83.3049803,22.8128814,1080 83.3050916,22.8126102,1080</coordinates></LineString></Placemark><Placemark><name>1080 m</name><styleUrl>#minor</styleUrl><ExtendedData><Data name="elevation"><value>1080</value></Data></ExtendedData><LineString><tessellate>1</tessellate><altitudeMode>clampToGround</altitudeMode><coordinates>83.2833731,22.8180000,1080 83.2836098,22.8176905,1080 83.2839024,22.8178861,1080 83.2841951,22.8177807,1080 83.2843815,22.8172203,1080 83.2846221,22.8169492,1080 83.2845645,22.8166780,1080 83.2839024,22.8167260,1080 83.2838810,22.8164068,1080 83.2841951,22.8155404,1080 83.2844878,22.8154827,1080 83.2848988,22.8161356,1080 83.2850732,22.8162858,1080 83.2853659,22.8163316,1080 83.2856661,22.8158644,1080 83.2859512,22.8156707,1080 83.2865366,22.8157001,1080 83.2867423,22.8158644,1080 83.2868752,22.8169492,1080 83.2870590,22.8174915,1080 83.2866837,22.8177627,1080 83.2868293,22.8178949,1080 83.2871220,22.8178901,1080 83.2874146,22.8176667,1080 83.2877073,22.8178587,1080 83.2877073,22.8180000,1080</coordinates></LineString></Placemark><Placemark><name>1080 m</name><styleUrl>#minor</styleUrl><ExtendedData><Data name="elevation"><value>1080</value></Data></ExtendedData><LineString><tessellate>1</tessellate><altitudeMode>clampToGround</altitudeMode><coordinates>83.3023472,22.8180000,1080 83.3021269,22.8172203,1080 83.3021745,22.8166780,1080 83.3023227,22.8164068,1080 83.3032486,22.8155932,1080 83.3031712,22.8145085,1080 83.3035122,22.8142753,1080 83.3038049,22.8142815,1080 83.3040629,22.8145085,1080 83.3040976,22.8148045,1080 83.3046829,22.8148602,1080 83.3048526,22.8150508,1080 83.3043979,22.8161356,1080 83.3047066,22.8177627,1080 83.3048498,22.8180000,1080</coordinates></LineString></Placemark><Placemark><name>1080 m</name><styleUrl>#minor</styleUrl><ExtendedData><Data name="elevation"><value>1080</value></Data></ExtendedData><LineString><tessellate>1</tessellate><altitudeMode>clampToGround</altitudeMode><coordinates>83.3118851,22.8180000,1080 83.3114146,22.8173591,1080 83.3111007,22.8166780,1080 83.3111220,22.8157608,1080 83.3120000,22.8148276,1080 83.3122927,22.8149023,1080 83.3133343,22.8161356,1080 83.3137561,22.8163493,1080 83.3140488,22.8160379,1080 83.3146341,22.8159836,1080 83.3153215,22.8155932,1080 83.3153954,22.8153220,1080 83.3153078,22.8142373,1080 83.3157485,22.8136949,1080 83.3163902,22.8135827,1080 83.3169756,22.8136932,1080 83.3172683,22.8136003,1080 83.3175610,22.8136631,1080 83.3178537,22.8140571,1080 83.3181463,22.8140287,1080 83.3182543,22.8140895,1080</coordinates></LineString></Placemark><Placemark><name>1085 m</name><styleUrl>#minor</styleUrl><ExtendedData><Data name="elevation"><value>1085</value></Data></ExtendedData><LineString><tessellate>1</tessellate><altitudeMode>clampToGround</altitudeMode><coordinates>83.2879529,22.7820000,1085 83.2879697,22.7822373,1085 83.2881431,22.7825085,1085 83.2880000,22.7826078,1085 83.2873545,22.7820000,1085</coordinates></LineString></Placemark><Placemark><name>1085 m</name><styleUrl>#minor</styleUrl><ExtendedData><Data name="elevation"><value>1085</value></Data></ExtendedData><LineString><tessellate>1</tessellate><altitudeMode>clampToGround</altitudeMode><coordinates>83.2870288,22.7820000,1085 83.2868293,22.7824692,1085 83.2866125,22.7820000,1085</coordinates></LineString></Placemark><Placemark><name>1085 m</name><styleUrl>#minor</styleUrl><ExtendedData><Data name="elevation"><value>1085</value></Data></ExtendedData><LineString><tessellate>1</tessellate><altitudeMode>clampToGround</altitudeMode><coordinates>83.2864363,22.7827797,1085 83.2865366,22.7826316,1085 83.2868293,22.7825443,1085 83.2869122,22.7827797,1085 83.2865366,22.7834754,1085 83.2863152,22.7830508,1085 83.2864363,22.7827797,1085</coordinates></LineString></Placemark><Placemark><name>1085 m</name><styleUrl>#minor</styleUrl><ExtendedData><Data name="elevation"><value>1085</value></Data></ExtendedData><LineString><tessellate>1</tessellate><altitudeMode>clampToGround</altitudeMode><coordinates>83.2955456,22.7860339,1085 83.2965819,22.7860339,1085 83.2959024,22.7861759,1085 83.2955456,22.7860339,1085</coordinates></LineString></Placemark><Placemark><name>1085 m</name><styleUrl>#minor</styleUrl><ExtendedData><Data name="elevation"><value>1085</value></Data></ExtendedData><LineString><tessellate>1</tessellate><altitudeMode>clampToGround</altitudeMode><coordinates>83.2893413,22.7882034,1085 83.2900488,22.7879367,1085 83.2906341,22.7887781,1085 83.2912195,22.7889447,1085 83.2917666,22.7887458,1085 83.2923902,22.7883144,1085 83.2929756,22.7881181,1085 83.2932683,22.7881760,1085 83.2937065,22.7884746,1085 83.2937734,22.7887458,1085 83.2940764,22.7890169,1085 83.2947317,22.7893641,1085 83.2959024,22.7896733,1085 83.2964878,22.7899480,1085 83.2970732,22.7900212,1085 83.2973921,22.7903729,1085 83.2973121,22.7917288,1085 83.2977409,22.7922712,1085 83.2978496,22.7928136,1085 83.2981532,22.7933559,1085 83.2978781,22.7938983,1085 83.2976585,22.7940982,1085 83.2962677,22.7947119,1085 83.2953171,22.7948529,1085 83.2949334,22.7952542,1085 83.2949239,22.7963390,1085 83.2950534,22.7971525,1085 83.2948907,22.7979661,1085 83.2949405,22.7990508,1085 83.2960621,22.8014915,1085 83.2961208,22.8017627,1085 83.2958374,22.8028475,1085 83.2960585,22.8036610,1085 83.2963412,22.8039322,1085 83.2964178,22.8042034,1085 83.2970842,22.8047458,1085 83.2976585,22.8066786,1085 83.2982439,22.8072360,1085 83.2997563,22.8077288,1085 83.3000000,22.8079625,1085 83.3000954,22.8082712,1085 83.3000000,22.8086781,1085 83.2997073,22.8087908,1085 83.2985366,22.8088858,1085 83.2976585,22.8086105,1085 83.2961951,22.8085572,1085 83.2947317,22.8080394,1085 83.2938537,22.8079652,1085 83.2932930,22.8077288,1085 83.2934035,22.8069153,1085 83.2920976,22.8062947,1085 83.2919693,22.8061017,1085 83.2921847,22.8058305,1085 83.2925644,22.8047458,1085 83.2930352,22.8039322,1085 83.2929934,22.8031186,1085 83.2930977,22.8028475,1085 83.2938481,22.8014915,1085 83.2935887,22.8004068,1085 83.2937076,22.7995932,1085 83.2935281,22.7987797,1085 83.2932683,22.7984243,1085 83.2923701,22.7979661,1085 83.2919516,22.7974237,1085 83.2920775,22.7968814,1085 83.2923902,22.7963314,1085 83.2930861,22.7955254,1085 83.2929631,22.7949831,1085 83.2932683,22.7949422,1085 83.2935811,22.7947119,1085 83.2932683,22.7931847,1085 83.2923902,22.7930547,1085 83.2914570,22.7930847,1085 83.2903415,22.7923725,1085 83.2900488,22.7924065,1085 83.2891707,22.7928864,1085 83.2882965,22.7936271,1085 83.2880000,22.7936427,1085 83.2874480,22.7930847,1085 83.2868293,22.7929972,1085 83.2866224,22.7928136,1085 83.2865333,22.7920000,1085 83.2868102,22.7914576,1085 83.2888199,22.7890169,1085 83.2889869,22.7884746,1085 83.2893413,22.7882034,1085</coordinates></LineString></Placemark><Placemark><name>1085 m</name><styleUrl>#minor</styleUrl><ExtendedData><Data name="elevation"><value>1085</value></Data></ExtendedData><LineString><tessellate>1</tessellate><altitudeMode>clampToGround</altitudeMode><coordinates>83.2984505,22.7925424,1085 83.2987003,22.7925424,1085 83.2985366,22.7926439,1085 83.2984505,22.7925424,1085</coordinates></LineString></Placemark><Placemark><name>1085 m</name><styleUrl>#minor</styleUrl><ExtendedData><Data name="elevation"><value>1085</value></Data></ExtendedData><LineString><tessellate>1</tessellate><altitudeMode>clampToGround</altitudeMode><coordinates>83.2902128,22.8063729,1085 83.2904323,22.8063729,1085 83.2908533,22.8066441,1085 83.2911206,22.8074576,1085 83.2909268,22.8077015,1085 83.2900090,22.8069153,1085 83.2899312,22.8066441,1085 83.2902128,22.8063729,1085</coordinates></LineString></Placemark><Placemark><name>1085 m</name><styleUrl>#minor</styleUrl><ExtendedData><Data name="elevation"><value>1085</value></Data></ExtendedData><LineString><tessellate>1</tessellate><altitudeMode>clampToGround</altitudeMode><coordinates>83.3058321,22.8093559,1085 83.3064390,22.8094475,1085 83.3065507,22.8098983,1085 83.3064390,22.8100256,1085 83.3060818,22.8098983,1085 83.3058321,22.8093559,1085</coordinates></LineString></Placemark><Placemark><name>1085 m</name><styleUrl>#minor</styleUrl><ExtendedData><Data name="elevation"><value>1085</value></Data></ExtendedData><LineString><tessellate>1</tessellate><altitudeMode>clampToGround</altitudeMode><coordinates>83.3075287,22.8096271,1085 83.3076098,22.8094039,1085 83.3077305,22.8098983,1085 83.3076802,22.8101695,1085 83.3073171,22.8101785,1085 83.3072202,22.8098983,1085 83.3075287,22.8096271,1085</coordinates></LineString></Placemark><Placemark><name>1085 m</name><styleUrl>#minor</styleUrl><ExtendedData><Data name="elevation"><value>1085</value></Data></ExtendedData><LineString><tessellate>1</tessellate><altitudeMode>clampToGround</altitudeMode><coordinates>83.2847455,22.8180000,1085 83.2847805,22.8174494,1085 83.2853659,22.8172228,1085 83.2859512,22.8171845,1085 83.2861827,22.8174915,1085 83.2857453,22.8180000,1085</coordinates></LineString></Placemark><Placemark><name>1085 m</name><styleUrl>#minor</styleUrl><ExtendedData><Data name="elevation"><value>1085</value></Data></ExtendedData><LineString><tessellate>1</tessellate><altitudeMode>clampToGround</altitudeMode><coordinates>83.3180233,22.8153220,1085 83.3181463,22.8152337,1085 83.3182116,22.8153220,1085 83.3181463,22.8154243,1085 83.3180233,22.8153220,1085</coordinates></LineString></Placemark><Placemark><name>1085 m</name><styleUrl>#minor</styleUrl><ExtendedData><Data name="elevation"><value>1085</value></Data></ExtendedData><LineString><tessellate>1</tessellate><altitudeMode>clampToGround</altitudeMode><coordinates>83.2861320,22.8161356,1085 83.2862439,22.8158778,1085 83.2865366,22.8161539,1085 83.2866634,22.8166780,1085 83.2865366,22.8170760,1085 83.2861320,22.8161356,1085</coordinates></LineString></Placemark><Placemark><name>1085 m</name><styleUrl>#minor</styleUrl><ExtendedData><Data name="elevation"><value>1085</value></Data></ExtendedData><LineString><tessellate>1</tessellate><altitudeMode>clampToGround</altitudeMode><coordinates>83.3034706,22.8177627,1085 83.3035681,22.8177627,1085</coordinates></LineString></Placemark><Placemark><name>1085 m</name><styleUrl>#minor</styleUrl><ExtendedData><Data name="elevation"><value>1085</value></Data></ExtendedData><LineString><tessellate>1</tessellate><altitudeMode>clampToGround</altitudeMode><coordinates>83.3161147,22.8180000,1085 83.3163902,22.8178663,1085 83.3166573,22.8180000,1085</coordinates></LineString></Placemark><Placemark><name>1090 m</name><styleUrl>#minor</styleUrl><ExtendedData><Data name="elevation"><value>1090</value></Data></ExtendedData><LineString><tessellate>1</tessellate><altitudeMode>clampToGround</altitudeMode><coordinates>83.2970237,22.7936271,1090 83.2970732,22.7935331,1090 83.2971127,22.7936271,1090 83.2970237,22.7936271,1090</coordinates></LineString></Placemark><Placemark><name>1090 m</name><styleUrl>#minor</styleUrl><ExtendedData><Data name="elevation"><value>1090</value></Data></ExtendedData><LineString><tessellate>1</tessellate><altitudeMode>clampToGround</altitudeMode><coordinates>83.2943961,22.8050169,1090 83.2949592,22.8050169,1090 83.2956098,22.8055200,1090 83.2957340,22.8058305,1090 83.2956098,22.8064221,1090 83.2953171,22.8065184,1090 83.2947317,22.8062008,1090 83.2945061,22.8058305,1090 83.2943961,22.8050169,1090</coordinates></LineString></Placemark></Folder></Document></kml>