<?xml version='1.0' encoding='utf-8'?>
<kml xmlns="http://www.opengis.net/kml/2.2"><Document><name>Contours near 18.9130°N, 74.4100°E</name><description>Contains modified Copernicus DEM GLO-30 data: © DLR e.V. 2010-2014 and © Airbus Defence and Space GmbH 2014-2018, provided under COPERNICUS by the European Union and ESA. Contour interval 10 m, generated 2026-09-27 by Village Pond Planner. DEM-derived lines, not a field survey.</description><Style id="minor"><LineStyle><color>ff4f7f93</color><width>1</width></LineStyle></Style><Style id="major"><LineStyle><color>ff1d4f63</color><width>2.2</width></LineStyle></Style><Folder><name>Contours 10 m</name><Placemark><name>620 m</name><styleUrl>#minor</styleUrl><ExtendedData><Data name="elevation"><value>620</value></Data></ExtendedData><LineString><tessellate>1</tessellate><altitudeMode>clampToGround</altitudeMode><coordinates>74.4184839,18.8950000,620 74.4188571,18.8954888,620 74.4194286,18.8955046,620 74.4205714,18.8958340,620 74.4206452,18.8952373,620 74.4205205,18.8950000,620</coordinates></LineString></Placemark><Placemark><name>630 m</name><styleUrl>#minor</styleUrl><ExtendedData><Data name="elevation"><value>630</value></Data></ExtendedData><LineString><tessellate>1</tessellate><altitudeMode>clampToGround</altitudeMode><coordinates>74.4171756,18.8950000,630 74.4175009,18.8952373,630 74.4177075,18.8960508,630 74.4175514,18.8968644,630 74.4174286,18.8969854,630 74.4165714,18.8969902,630 74.4163487,18.8971356,630 74.4168016,18.8979492,630 74.4171634,18.8982203,630 74.4172981,18.8987627,630 74.4174286,18.8989223,630 74.4177708,18.8990339,630 74.4179425,18.8998475,630 74.4175656,18.9003898,630 74.4175581,18.9006610,630 74.4177143,18.9008398,630 74.4185714,18.9007498,630 74.4188571,18.9005762,630 74.4191583,18.9001186,630 74.4194157,18.8982203,630 74.4198560,18.8971356,630 74.4202857,18.8969470,630 74.4204711,18.8971356,630 74.4208343,18.8982203,630 74.4211429,18.8986942,630 74.4214286,18.8988342,630 74.4217143,18.8988153,630 74.4220000,18.8990155,630 74.4223440,18.8995763,630 74.4234286,18.9008521,630 74.4237143,18.9007120,630 74.4240000,18.9003395,630 74.4245411,18.8993051,630 74.4245790,18.8984915,630 74.4240935,18.8974068,630 74.4244315,18.8965932,630 74.4237143,18.8964750,630 74.4229014,18.8960508,630 74.4227941,18.8957797,630 74.4228571,18.8954548,630 74.4222857,18.8951925,630 74.4217143,18.8952670,630 74.4215470,18.8950000,630</coordinates></LineString></Placemark><Placemark><name>640 m</name><styleUrl>#minor</styleUrl><ExtendedData><Data name="elevation"><value>640</value></Data></ExtendedData><LineString><tessellate>1</tessellate><altitudeMode>clampToGround</altitudeMode><coordinates>74.4075843,18.8950000,640 74.4075351,18.8952373,640 74.4075207,18.8957797,640 74.4077143,18.8961486,640 74.4080037,18.8960508,640 74.4085118,18.8950000,640</coordinates></LineString></Placemark><Placemark><name>640 m</name><styleUrl>#minor</styleUrl><ExtendedData><Data name="elevation"><value>640</value></Data></ExtendedData><LineString><tessellate>1</tessellate><altitudeMode>clampToGround</altitudeMode><coordinates>74.4128509,18.8950000,640 74.4128571,18.8950751,640 74.4130522,18.8950000,640</coordinates></LineString></Placemark><Placemark><name>640 m</name><styleUrl>#minor</styleUrl><ExtendedData><Data name="elevation"><value>640</value></Data></ExtendedData><LineString><tessellate>1</tessellate><altitudeMode>clampToGround</altitudeMode><coordinates>74.4155191,18.8950000,640 74.4155802,18.8952373,640 74.4155377,18.8960508,640 74.4152596,18.8968644,640 74.4155745,18.8984915,640 74.4153503,18.8990339,640 74.4149310,18.8995763,640 74.4148571,18.9001547,640 74.4131429,18.9003058,640 74.4128425,18.9006610,640 74.4134286,18.9011021,640 74.4137086,18.9014746,640 74.4139603,18.9022881,640 74.4138939,18.9028305,640 74.4131429,18.9042214,640 74.4134644,18.9041864,640 74.4142857,18.9036098,640 74.4154286,18.9023328,640 74.4157143,18.9021530,640 74.4160000,18.9021327,640 74.4165714,18.9026354,640 74.4168571,18.9026890,640 74.4174286,18.9022442,640 74.4177143,18.9022141,640 74.4182857,18.9023267,640 74.4185714,18.9025511,640 74.4188571,18.9026187,640 74.4197143,18.9019960,640 74.4198062,18.9017458,640 74.4196152,18.9012034,640 74.4196333,18.9006610,640 74.4200000,18.8995549,640 74.4204060,18.8998475,640 74.4212425,18.9001186,640 74.4217860,18.9006610,640 74.4218365,18.9009322,640 74.4216495,18.9014746,640 74.4217507,18.9017458,640 74.4222857,18.9022864,640 74.4231429,18.9034631,640 74.4240000,18.9041181,640 74.4245714,18.9047409,640 74.4248571,18.9046636,640 74.4254858,18.9047288,640 74.4256866,18.9044576,640 74.4257455,18.9039153,640 74.4260649,18.9033729,640 74.4257780,18.9022881,640 74.4264535,18.9006610,640 74.4264195,18.8993051,640 74.4265356,18.8984915,640 74.4262857,18.8979114,640 74.4260000,18.8976650,640 74.4254026,18.8974068,640 74.4257143,18.8970974,640 74.4257873,18.8968644,640 74.4256050,18.8955085,640 74.4251429,18.8954234,640 74.4242857,18.8958178,640 74.4239312,18.8957797,640 74.4237719,18.8955085,640 74.4237935,18.8952373,640 74.4239863,18.8950000,640</coordinates></LineString></Placemark><Placemark><name>640 m</name><styleUrl>#minor</styleUrl><ExtendedData><Data name="elevation"><value>640</value></Data></ExtendedData><LineString><tessellate>1</tessellate><altitudeMode>clampToGround</altitudeMode><coordinates>74.4170499,18.8960508,640 74.4171429,18.8959884,640 74.4171429,18.8961847,640 74.4170499,18.8960508,640</coordinates></LineString></Placemark><Placemark><name>640 m</name><styleUrl>#minor</styleUrl><ExtendedData><Data name="elevation"><value>640</value></Data></ExtendedData><LineString><tessellate>1</tessellate><altitudeMode>clampToGround</altitudeMode><coordinates>74.4005714,18.9141352,640 74.4003322,18.9142203,640 74.4005714,18.9145384,640 74.4011819,18.9144915,640 74.4008571,18.9144283,640 74.4005714,18.9141352,640</coordinates></LineString></Placemark><Placemark><name>640 m</name><styleUrl>#minor</styleUrl><ExtendedData><Data name="elevation"><value>640</value></Data></ExtendedData><LineString><tessellate>1</tessellate><altitudeMode>clampToGround</altitudeMode><coordinates>74.3982519,18.9144915,640 74.3984574,18.9144915,640 74.3982857,18.9145976,640 74.3982519,18.9144915,640</coordinates></LineString></Placemark><Placemark><name>640 m</name><styleUrl>#minor</styleUrl><ExtendedData><Data name="elevation"><value>640</value></Data></ExtendedData><LineString><tessellate>1</tessellate><altitudeMode>clampToGround</altitudeMode><coordinates>74.3918288,18.9207285,640 74.3918292,18.9207288,640 74.3924911,18.9212712,640 74.3931000,18.9223559,640 74.3941090,18.9231695,640 74.3944704,18.9237119,640 74.3954286,18.9239750,640 74.3957143,18.9239735,640 74.3960000,18.9238309,640 74.3962857,18.9238992,640 74.3968571,18.9243049,640 74.3971429,18.9246839,640 74.3980000,18.9246839,640 74.3982857,18.9248585,640 74.3985714,18.9248883,640 74.3988571,18.9249023,640 74.3989956,18.9247966,640 74.3980000,18.9243672,640 74.3975685,18.9239831,640 74.3974286,18.9232607,640 74.3971409,18.9231695,640 74.3971390,18.9226271,640 74.3967763,18.9223559,640 74.3965714,18.9218554,640 74.3960000,18.9215337,640 74.3955756,18.9210000,640 74.3954286,18.9202320,640 74.3951832,18.9196441,640 74.3934850,18.9174746,640 74.3920610,18.9161186,640 74.3918288,18.9157462,640</coordinates></LineString></Placemark><Placemark><name>640 m</name><styleUrl>#minor</styleUrl><ExtendedData><Data name="elevation"><value>640</value></Data></ExtendedData><LineString><tessellate>1</tessellate><altitudeMode>clampToGround</altitudeMode><coordinates>74.3918288,18.9154447,640 74.3920000,18.9152320,640 74.3922857,18.9151593,640 74.3928571,18.9153125,640 74.3931429,18.9150693,640 74.3934286,18.9150091,640 74.3954286,18.9155277,640 74.3974286,18.9155422,640 74.3982857,18.9153751,640 74.3992173,18.9147627,640 74.3990035,18.9144915,640 74.3995794,18.9142203,640 74.3997143,18.9140198,640 74.4000024,18.9139492,640 74.3995022,18.9136780,640 74.3991429,18.9136215,640 74.3965714,18.9143748,640 74.3961349,18.9142203,640 74.3945714,18.9132814,640 74.3939964,18.9131356,640 74.3935446,18.9128644,640 74.3936141,18.9120508,640 74.3937415,18.9115085,640 74.3945083,18.9106949,640 74.3942857,18.9106021,640 74.3931429,18.9107605,640 74.3926002,18.9112373,640 74.3922857,18.9117177,640 74.3918288,18.9119362,640</coordinates></LineString></Placemark><Placemark><name>640 m</name><styleUrl>#minor</styleUrl><ExtendedData><Data name="elevation"><value>640</value></Data></ExtendedData><LineString><tessellate>1</tessellate><altitudeMode>clampToGround</altitudeMode><coordinates>74.3991429,18.9249918,640 74.3991429,18.9251094,640 74.3994555,18.9250678,640 74.3991429,18.9249918,640</coordinates></LineString></Placemark><Placemark><name>650 m</name><styleUrl>#major</styleUrl><ExtendedData><Data name="elevation"><value>650</value></Data></ExtendedData><LineString><tessellate>1</tessellate><altitudeMode>clampToGround</altitudeMode><coordinates>74.4062025,18.8950000,650 74.4060879,18.8952373,650 74.4054286,18.8960864,650 74.4049092,18.8971356,650 74.4054286,18.8974781,650 74.4068571,18.8970987,650 74.4071429,18.8972843,650 74.4074737,18.8982203,650 74.4077143,18.8983891,650 74.4080951,18.8982203,650 74.4082481,18.8976780,650 74.4092791,18.8960508,650 74.4096698,18.8950000,650</coordinates></LineString></Placemark><Placemark><name>650 m</name><styleUrl>#major</styleUrl><ExtendedData><Data name="elevation"><value>650</value></Data></ExtendedData><LineString><tessellate>1</tessellate><altitudeMode>clampToGround</altitudeMode><coordinates>74.4116218,18.8950000,650 74.4111229,18.8965932,650 74.4110828,18.8971356,650 74.4112093,18.8974068,650 74.4114286,18.8976225,650 74.4122857,18.8974683,650 74.4124143,18.8971356,650 74.4134286,18.8959724,650 74.4137143,18.8958366,650 74.4140000,18.8958809,650 74.4142131,18.8960508,650 74.4139879,18.8965932,650 74.4140192,18.8971356,650 74.4138619,18.8976780,650 74.4126421,18.8979492,650 74.4121551,18.8984915,650 74.4114468,18.8987627,650 74.4113460,18.8990339,650 74.4114633,18.8998475,650 74.4111792,18.9003898,650 74.4108571,18.9006887,650 74.4102857,18.9009556,650 74.4100000,18.9009321,650 74.4098678,18.9012034,650 74.4100000,18.9020349,650 74.4105714,18.9021071,650 74.4114286,18.9016534,650 74.4120000,18.9015499,650 74.4130919,18.9022881,650 74.4130978,18.9028305,650 74.4125681,18.9036441,650 74.4120764,18.9039153,650 74.4111429,18.9041556,650 74.4100000,18.9040149,650 74.4097675,18.9044576,650 74.4100000,18.9046126,650 74.4105714,18.9046479,650 74.4108571,18.9048778,650 74.4114286,18.9048901,650 74.4116284,18.9050000,650 74.4120700,18.9060847,650 74.4115022,18.9068983,650 74.4115374,18.9071695,650 74.4117143,18.9072718,650 74.4125714,18.9069802,650 74.4134286,18.9072214,650 74.4143774,18.9071695,650 74.4143165,18.9068983,650 74.4140000,18.9067432,650 74.4133866,18.9058136,650 74.4134180,18.9055424,650 74.4138886,18.9047288,650 74.4148571,18.9044698,650 74.4150051,18.9036441,650 74.4154286,18.9032965,650 74.4160000,18.9035721,650 74.4168571,18.9037530,650 74.4172361,18.9036441,650 74.4177143,18.9029828,650 74.4180000,18.9029265,650 74.4182857,18.9030930,650 74.4188571,18.9037266,650 74.4190139,18.9036441,650 74.4191883,18.9031017,650 74.4194001,18.9028305,650 74.4205714,18.9020674,650 74.4211429,18.9022177,650 74.4214286,18.9024263,650 74.4221653,18.9036441,650 74.4222004,18.9041864,650 74.4228571,18.9044665,650 74.4230930,18.9047288,650 74.4231633,18.9050000,650 74.4230400,18.9055424,650 74.4231429,18.9066305,650 74.4234286,18.9066389,650 74.4236490,18.9063559,650 74.4242857,18.9060856,650 74.4245714,18.9061492,650 74.4248284,18.9063559,650 74.4251429,18.9067905,650 74.4260000,18.9070098,650 74.4265714,18.9069228,650 74.4271704,18.9060847,650 74.4272783,18.9055424,650 74.4269828,18.9050000,650 74.4267355,18.9033729,650 74.4263731,18.9025593,650 74.4263959,18.9022881,650 74.4265714,18.9020111,650 74.4273281,18.9014746,650 74.4272719,18.9003898,650 74.4269483,18.8993051,650 74.4274119,18.8987627,650 74.4270418,18.8982203,650 74.4268449,18.8976780,650 74.4262786,18.8971356,650 74.4260107,18.8952373,650 74.4256199,18.8950000,650</coordinates></LineString></Placemark><Placemark><name>650 m</name><styleUrl>#major</styleUrl><ExtendedData><Data name="elevation"><value>650</value></Data></ExtendedData><LineString><tessellate>1</tessellate><altitudeMode>clampToGround</altitudeMode><coordinates>74.4205704,18.9003898,650 74.4208571,18.9004477,650 74.4210688,18.9006610,650 74.4211206,18.9009322,650 74.4210519,18.9012034,650 74.4205714,18.9017010,650 74.4202284,18.9014746,650 74.4200392,18.9009322,650 74.4202857,18.9004922,650 74.4205704,18.9003898,650</coordinates></LineString></Placemark><Placemark><name>650 m</name><styleUrl>#major</styleUrl><ExtendedData><Data name="elevation"><value>650</value></Data></ExtendedData><LineString><tessellate>1</tessellate><altitudeMode>clampToGround</altitudeMode><coordinates>74.4094286,18.9043839,650 74.4094286,18.9046399,650 74.4095599,18.9044576,650 74.4094286,18.9043839,650</coordinates></LineString></Placemark><Placemark><name>650 m</name><styleUrl>#major</styleUrl><ExtendedData><Data name="elevation"><value>650</value></Data></ExtendedData><LineString><tessellate>1</tessellate><altitudeMode>clampToGround</altitudeMode><coordinates>74.4085714,18.9170932,650 74.4085190,18.9172034,650 74.4087791,18.9174746,650 74.4088016,18.9177458,650 74.4091267,18.9177458,650 74.4091913,18.9172034,650 74.4085714,18.9170932,650</coordinates></LineString></Placemark><Placemark><name>650 m</name><styleUrl>#major</styleUrl><ExtendedData><Data name="elevation"><value>650</value></Data></ExtendedData><LineString><tessellate>1</tessellate><altitudeMode>clampToGround</altitudeMode><coordinates>74.3918288,18.9227029,650 74.3920000,18.9227758,650 74.3923471,18.9234407,650 74.3930164,18.9239831,650 74.3934072,18.9247966,650 74.3940000,18.9251934,650 74.3945714,18.9253799,650 74.3948571,18.9257340,650 74.3948710,18.9261525,650 74.3943509,18.9277797,650 74.3943243,18.9280508,650 74.3944774,18.9283220,650 74.3948571,18.9283577,650 74.3960000,18.9271003,650 74.3962748,18.9272373,650 74.3964142,18.9277797,650 74.3966398,18.9280508,650 74.3988131,18.9296780,650 74.3995843,18.9304915,650 74.3998857,18.9310000,650</coordinates></LineString></Placemark><Placemark><name>650 m</name><styleUrl>#major</styleUrl><ExtendedData><Data name="elevation"><value>650</value></Data></ExtendedData><LineString><tessellate>1</tessellate><altitudeMode>clampToGround</altitudeMode><coordinates>74.4028466,18.9310000,650 74.4023939,18.9296780,650 74.4020000,18.9288906,650 74.4011911,18.9280508,650 74.4007138,18.9272373,650 74.4005365,18.9264237,650 74.4005163,18.9256102,650 74.3998812,18.9247966,650 74.4000000,18.9246323,650 74.4005714,18.9245714,650 74.4017143,18.9249181,650 74.4022857,18.9247277,650 74.4028571,18.9247376,650 74.4040000,18.9245132,650 74.4042922,18.9242542,650 74.4040000,18.9239637,650 74.4037143,18.9238867,650 74.4026303,18.9231695,650 74.4021601,18.9220847,650 74.4014070,18.9212712,650 74.4011429,18.9211511,650 74.4008571,18.9211883,650 74.4000000,18.9215186,650 74.3994286,18.9219301,650 74.3991429,18.9219574,650 74.3980000,18.9213879,650 74.3977143,18.9211088,650 74.3974286,18.9204418,650 74.3968571,18.9203125,650 74.3965714,18.9204831,650 74.3964371,18.9201864,650 74.3967274,18.9196441,650 74.3966662,18.9193729,650 74.3965714,18.9192237,650 74.3957143,18.9189452,650 74.3952758,18.9185593,650 74.3950451,18.9180169,650 74.3950299,18.9174746,650 74.3954286,18.9170732,650 74.3960000,18.9168859,650 74.3968571,18.9168669,650 74.3974286,18.9163532,650 74.3978782,18.9163898,650 74.3982857,18.9166276,650 74.3985714,18.9171325,650 74.3988571,18.9170897,650 74.3993887,18.9163898,650 74.4000000,18.9160752,650 74.4005714,18.9162101,650 74.4011429,18.9165545,650 74.4022857,18.9159934,650 74.4031429,18.9161199,650 74.4037143,18.9164690,650 74.4057143,18.9166721,650 74.4071429,18.9174451,650 74.4077143,18.9172445,650 74.4078493,18.9169322,650 74.4074206,18.9163898,650 74.4076479,18.9161186,650 74.4075209,18.9158475,650 74.4076990,18.9153051,650 74.4068571,18.9148652,650 74.4065714,18.9144622,650 74.4062857,18.9143918,650 74.4060000,18.9141631,650 74.4048571,18.9140854,650 74.4045714,18.9138840,650 74.4042857,18.9133990,650 74.4040000,18.9132831,650 74.4037143,18.9136603,650 74.4034286,18.9138028,650 74.4025714,18.9138347,650 74.4007150,18.9131356,650 74.4002857,18.9126581,650 74.3994286,18.9127124,650 74.3988571,18.9130120,650 74.3985714,18.9130046,650 74.3974286,18.9125720,650 74.3968571,18.9125343,650 74.3965682,18.9123220,650 74.3963782,18.9120508,650 74.3964006,18.9117797,650 74.3969066,18.9106949,650 74.3971426,18.9098814,650 74.3983572,18.9079831,650 74.3981154,18.9077119,650 74.3979691,18.9077119,650 74.3977143,18.9079564,650 74.3971429,18.9080477,650 74.3968560,18.9079831,650 74.3962678,18.9074407,650 74.3942857,18.9086183,650 74.3934286,18.9088982,650 74.3920000,18.9098823,650 74.3918288,18.9099425,650</coordinates></LineString></Placemark><Placemark><name>660 m</name><styleUrl>#minor</styleUrl><ExtendedData><Data name="elevation"><value>660</value></Data></ExtendedData><LineString><tessellate>1</tessellate><altitudeMode>clampToGround</altitudeMode><coordinates>74.3918288,18.8950931,660 74.3920000,18.8952771,660 74.3928571,18.8950810,660 74.3930354,18.8950000,660</coordinates></LineString></Placemark><Placemark><name>660 m</name><styleUrl>#minor</styleUrl><ExtendedData><Data name="elevation"><value>660</value></Data></ExtendedData><LineString><tessellate>1</tessellate><altitudeMode>clampToGround</altitudeMode><coordinates>74.3941355,18.8950000,660 74.3942759,18.8952373,660 74.3941310,18.8960508,660 74.3942857,18.8965062,660 74.3951429,18.8971088,660 74.3954286,18.8971859,660 74.3962857,18.8968298,660 74.3966147,18.8963220,660 74.3971429,18.8958428,660 74.3980000,18.8961140,660 74.3988571,18.8954654,660 74.3994958,18.8957797,660 74.3997143,18.8967259,660 74.4002857,18.8968409,660 74.4008571,18.8965652,660 74.4017143,18.8965776,660 74.4025714,18.8969665,660 74.4030847,18.8976780,660 74.4028579,18.8987627,660 74.4029525,18.8995763,660 74.4040000,18.9000428,660 74.4051429,18.8994497,660 74.4054286,18.8993996,660 74.4054627,18.8995763,660 74.4051976,18.9003898,660 74.4057143,18.9008713,660 74.4068571,18.9005322,660 74.4074286,18.9006542,660 74.4077143,18.9008380,660 74.4078620,18.9012034,660 74.4077755,18.9020169,660 74.4067963,18.9033729,660 74.4062353,18.9039153,660 74.4058178,18.9047288,660 74.4057659,18.9052712,660 74.4059784,18.9055424,660 74.4061341,18.9060847,660 74.4066344,18.9066271,660 74.4070238,18.9074407,660 74.4080000,18.9080217,660 74.4082857,18.9080458,660 74.4085714,18.9078314,660 74.4088571,18.9077840,660 74.4094002,18.9087966,660 74.4094286,18.9096327,660 74.4100000,18.9097317,660 74.4102857,18.9099441,660 74.4105038,18.9093390,660 74.4108571,18.9088700,660 74.4111429,18.9086825,660 74.4121022,18.9085254,660 74.4128571,18.9077872,660 74.4134286,18.9077736,660 74.4142857,18.9082155,660 74.4145714,18.9079141,660 74.4151429,18.9077340,660 74.4162857,18.9081141,660 74.4165714,18.9083223,660 74.4165714,18.9078490,660 74.4160880,18.9074407,660 74.4158864,18.9068983,660 74.4157143,18.9067297,660 74.4152988,18.9066271,660 74.4150385,18.9063559,660 74.4150471,18.9058136,660 74.4153946,18.9052712,660 74.4160000,18.9044812,660 74.4174286,18.9039494,660 74.4180000,18.9033459,660 74.4185714,18.9039859,660 74.4191429,18.9040272,660 74.4193593,18.9039153,660 74.4194147,18.9033729,660 74.4196077,18.9031017,660 74.4202596,18.9025593,660 74.4205714,18.9024812,660 74.4211429,18.9026308,660 74.4213264,18.9028305,660 74.4218014,18.9036441,660 74.4217253,18.9041864,660 74.4220000,18.9044673,660 74.4226548,18.9047288,660 74.4228446,18.9050000,660 74.4225154,18.9058136,660 74.4226710,18.9063559,660 74.4226635,18.9074407,660 74.4228571,18.9081726,660 74.4239292,18.9066271,660 74.4242857,18.9063871,660 74.4245461,18.9066271,660 74.4245070,18.9071695,660 74.4248571,18.9076606,660 74.4254286,18.9074860,660 74.4257143,18.9075512,660 74.4262857,18.9079924,660 74.4265714,18.9079983,660 74.4272643,18.9077119,660 74.4274595,18.9074407,660 74.4272866,18.9071695,660 74.4272715,18.9068983,660 74.4278444,18.9058136,660 74.4277822,18.9052712,660 74.4274142,18.9050000,660 74.4273103,18.9047288,660 74.4273206,18.9041864,660 74.4271429,18.9038975,660 74.4270245,18.9031017,660 74.4267229,18.9025593,660 74.4268571,18.9021726,660 74.4271429,18.9020388,660 74.4277143,18.9020560,660 74.4280385,18.9017458,660 74.4277143,18.9011142,660 74.4278049,18.9003898,660 74.4273580,18.8995763,660 74.4274349,18.8993051,660 74.4279685,18.8990339,660 74.4280000,18.8989055,660 74.4281090,18.8998475,660 74.4281712,18.9000491,660</coordinates></LineString></Placemark><Placemark><name>660 m</name><styleUrl>#minor</styleUrl><ExtendedData><Data name="elevation"><value>660</value></Data></ExtendedData><LineString><tessellate>1</tessellate><altitudeMode>clampToGround</altitudeMode><coordinates>74.4281712,18.8982704,660 74.4280000,18.8987221,660 74.4274286,18.8981993,660 74.4270654,18.8974068,660 74.4267353,18.8971356,660 74.4266059,18.8968644,660 74.4266907,18.8965932,660 74.4265176,18.8960508,660 74.4264398,18.8952373,660 74.4265293,18.8950000,660</coordinates></LineString></Placemark><Placemark><name>660 m</name><styleUrl>#minor</styleUrl><ExtendedData><Data name="elevation"><value>660</value></Data></ExtendedData><LineString><tessellate>1</tessellate><altitudeMode>clampToGround</altitudeMode><coordinates>74.4204273,18.9009322,660 74.4205714,18.9007698,660 74.4207474,18.9009322,660 74.4205714,18.9012107,660 74.4204273,18.9009322,660</coordinates></LineString></Placemark><Placemark><name>660 m</name><styleUrl>#minor</styleUrl><ExtendedData><Data name="elevation"><value>660</value></Data></ExtendedData><LineString><tessellate>1</tessellate><altitudeMode>clampToGround</altitudeMode><coordinates>74.4116683,18.9022881,660 74.4120000,18.9021834,660 74.4121973,18.9025593,660 74.4120000,18.9029298,660 74.4114286,18.9033772,660 74.4114349,18.9028305,660 74.4116683,18.9022881,660</coordinates></LineString></Placemark><Placemark><name>660 m</name><styleUrl>#minor</styleUrl><ExtendedData><Data name="elevation"><value>660</value></Data></ExtendedData><LineString><tessellate>1</tessellate><altitudeMode>clampToGround</altitudeMode><coordinates>74.4106582,18.9055424,660 74.4111429,18.9055272,660 74.4112267,18.9058136,660 74.4108477,18.9066271,660 74.4100000,18.9073658,660 74.4094286,18.9076495,660 74.4092743,18.9074407,660 74.4092549,18.9066271,660 74.4093979,18.9060847,660 74.4097143,18.9058518,660 74.4102857,18.9059074,660 74.4106582,18.9055424,660</coordinates></LineString></Placemark><Placemark><name>660 m</name><styleUrl>#minor</styleUrl><ExtendedData><Data name="elevation"><value>660</value></Data></ExtendedData><LineString><tessellate>1</tessellate><altitudeMode>clampToGround</altitudeMode><coordinates>74.4079460,18.9174746,660 74.4081629,18.9174746,660 74.4080000,18.9176147,660 74.4079460,18.9174746,660</coordinates></LineString></Placemark><Placemark><name>660 m</name><styleUrl>#minor</styleUrl><ExtendedData><Data name="elevation"><value>660</value></Data></ExtendedData><LineString><tessellate>1</tessellate><altitudeMode>clampToGround</altitudeMode><coordinates>74.4130575,18.9185593,660 74.4134286,18.9183308,660 74.4137143,18.9184932,660 74.4138094,18.9188305,660 74.4137143,18.9189826,660 74.4134286,18.9190282,660 74.4130575,18.9185593,660</coordinates></LineString></Placemark><Placemark><name>660 m</name><styleUrl>#minor</styleUrl><ExtendedData><Data name="elevation"><value>660</value></Data></ExtendedData><LineString><tessellate>1</tessellate><altitudeMode>clampToGround</altitudeMode><coordinates>74.3918288,18.9266278,660 74.3920000,18.9268753,660 74.3925344,18.9272373,660 74.3926355,18.9275085,660 74.3927082,18.9280508,660 74.3926160,18.9288644,660 74.3922008,18.9294068,660 74.3922742,18.9299492,660 74.3919985,18.9307627,660 74.3919892,18.9310000,660</coordinates></LineString></Placemark><Placemark><name>660 m</name><styleUrl>#minor</styleUrl><ExtendedData><Data name="elevation"><value>660</value></Data></ExtendedData><LineString><tessellate>1</tessellate><altitudeMode>clampToGround</altitudeMode><coordinates>74.3935398,18.9310000,660 74.3945714,18.9302645,660 74.3948571,18.9298377,660 74.3954286,18.9297970,660 74.3957143,18.9299406,660 74.3962857,18.9299745,660 74.3965714,18.9302268,660 74.3982857,18.9300221,660 74.3988571,18.9306384,660 74.3989941,18.9310000,660</coordinates></LineString></Placemark><Placemark><name>660 m</name><styleUrl>#minor</styleUrl><ExtendedData><Data name="elevation"><value>660</value></Data></ExtendedData><LineString><tessellate>1</tessellate><altitudeMode>clampToGround</altitudeMode><coordinates>74.4047362,18.9310000,660 74.4051698,18.9304915,660 74.4040867,18.9296780,660 74.4039054,18.9291356,660 74.4030496,18.9283220,660 74.4028092,18.9275085,660 74.4029110,18.9269661,660 74.4034286,18.9265541,660 74.4042857,18.9263138,660 74.4048571,18.9264451,660 74.4068571,18.9274311,660 74.4077143,18.9274481,660 74.4094286,18.9271436,660 74.4100000,18.9273393,660 74.4105005,18.9272373,660 74.4103355,18.9266949,660 74.4097143,18.9260609,660 74.4081272,18.9247966,660 74.4077040,18.9239831,660 74.4068571,18.9236229,660 74.4062786,18.9231695,660 74.4056368,18.9228983,660 74.4053611,18.9226271,660 74.4051429,18.9220741,660 74.4048571,18.9218581,660 74.4042857,18.9219697,660 74.4040000,18.9219176,660 74.4033418,18.9215424,660 74.4031287,18.9212712,660 74.4030288,18.9207288,660 74.4033671,18.9199153,660 74.4028571,18.9191490,660 74.4017143,18.9197647,660 74.4004632,18.9196441,660 74.4003243,18.9193729,660 74.4007361,18.9182881,660 74.4017004,18.9180169,660 74.4022857,18.9175466,660 74.4025714,18.9174809,660 74.4028571,18.9175424,660 74.4029459,18.9180169,660 74.4031429,18.9183402,660 74.4040000,18.9180060,660 74.4048571,18.9178813,660 74.4051429,18.9179538,660 74.4054286,18.9181582,660 74.4060000,18.9189276,660 74.4062857,18.9191048,660 74.4074286,18.9192469,660 74.4077143,18.9186602,660 74.4080000,18.9186296,660 74.4088571,18.9192379,660 74.4092541,18.9193729,660 74.4097072,18.9199153,660 74.4105714,18.9205470,660 74.4111429,18.9207794,660 74.4114286,18.9207714,660 74.4117143,18.9205576,660 74.4120000,18.9208469,660 74.4125714,18.9211486,660 74.4128571,18.9209706,660 74.4131429,18.9209459,660 74.4134286,18.9214928,660 74.4137143,18.9217291,660 74.4140000,18.9217493,660 74.4142857,18.9216810,660 74.4147316,18.9212712,660 74.4152971,18.9201864,660 74.4151840,18.9199153,660 74.4148092,18.9196441,660 74.4147614,18.9188305,660 74.4148571,18.9187648,660 74.4160521,18.9193729,660 74.4161932,18.9199153,660 74.4165714,18.9200904,660 74.4177143,18.9201465,660 74.4178856,18.9199153,660 74.4177143,18.9194616,660 74.4174286,18.9193609,660 74.4173013,18.9188305,660 74.4159829,18.9180169,660 74.4154950,18.9172034,660 74.4154626,18.9153051,660 74.4157694,18.9150339,660 74.4151429,18.9147291,660 74.4150092,18.9147627,660 74.4150640,18.9150339,660 74.4148571,18.9151776,660 74.4144009,18.9150339,660 74.4142857,18.9147466,660 74.4125714,18.9147005,660 74.4122857,18.9146046,660 74.4117143,18.9142464,660 74.4111429,18.9141224,660 74.4102857,18.9133840,660 74.4100000,18.9133220,660 74.4097143,18.9135339,660 74.4092009,18.9128644,660 74.4091429,18.9124670,660 74.4088571,18.9121922,660 74.4080000,18.9120332,660 74.4071429,18.9125293,660 74.4068571,18.9125625,660 74.4060000,18.9121307,660 74.4058069,18.9112373,660 74.4054586,18.9104237,660 74.4055702,18.9093390,660 74.4052524,18.9087966,660 74.4048571,18.9086263,660 74.4045739,18.9087966,660 74.4037143,18.9089931,660 74.4033568,18.9093390,660 74.4029191,18.9101525,660 74.4022857,18.9104854,660 74.4005714,18.9103060,660 74.3995790,18.9104237,660 74.3996230,18.9098814,660 74.4000000,18.9096410,660 74.4001925,18.9093390,660 74.4001608,18.9085254,660 74.4005714,18.9076333,660 74.4008344,18.9074407,660 74.4011429,18.9074211,660 74.4013522,18.9071695,660 74.4016316,18.9063559,660 74.4023242,18.9055424,660 74.4024473,18.9052712,660 74.4022857,18.9047105,660 74.4014286,18.9045408,660 74.3997143,18.9049089,660 74.3991429,18.9048941,660 74.3988571,18.9049794,660 74.3980000,18.9058618,660 74.3974286,18.9060376,660 74.3971429,18.9059548,660 74.3967182,18.9055424,660 74.3966230,18.9050000,660 74.3962857,18.9045811,660 74.3960000,18.9046956,660 74.3954286,18.9046072,660 74.3951429,18.9050981,660 74.3948571,18.9053277,660 74.3943016,18.9063559,660 74.3941401,18.9068983,660 74.3935622,18.9074407,660 74.3931429,18.9076257,660 74.3920354,18.9085254,660 74.3918288,18.9088007,660</coordinates></LineString></Placemark><Placemark><name>670 m</name><styleUrl>#minor</styleUrl><ExtendedData><Data name="elevation"><value>670</value></Data></ExtendedData><LineString><tessellate>1</tessellate><altitudeMode>clampToGround</altitudeMode><coordinates>74.3918288,18.8966629,670 74.3926241,18.8968644,670 74.3928607,18.8971356,670 74.3929078,18.8979492,670 74.3931175,18.8982203,670 74.3928571,18.8984377,670 74.3920000,18.8979108,670 74.3918288,18.8979483,670</coordinates></LineString></Placemark><Placemark><name>670 m</name><styleUrl>#minor</styleUrl><ExtendedData><Data name="elevation"><value>670</value></Data></ExtendedData><LineString><tessellate>1</tessellate><altitudeMode>clampToGround</altitudeMode><coordinates>74.3937081,18.8982203,670 74.3937143,18.8985031,670</coordinates></LineString></Placemark><Placemark><name>670 m</name><styleUrl>#minor</styleUrl><ExtendedData><Data name="elevation"><value>670</value></Data></ExtendedData><LineString><tessellate>1</tessellate><altitudeMode>clampToGround</altitudeMode><coordinates>74.3966142,18.8982203,670 74.3969062,18.8982203,670 74.3974338,18.8984915,670 74.3971429,18.8986606,670 74.3968571,18.8985913,670 74.3966142,18.8982203,670</coordinates></LineString></Placemark><Placemark><name>670 m</name><styleUrl>#minor</styleUrl><ExtendedData><Data name="elevation"><value>670</value></Data></ExtendedData><LineString><tessellate>1</tessellate><altitudeMode>clampToGround</altitudeMode><coordinates>74.3942080,18.8990339,670 74.3948413,18.8990339,670 74.3945714,18.8995078,670 74.3942857,18.8996756,670 74.3940315,18.8995763,670 74.3939457,18.8993051,670 74.3942080,18.8990339,670</coordinates></LineString></Placemark><Placemark><name>670 m</name><styleUrl>#minor</styleUrl><ExtendedData><Data name="elevation"><value>670</value></Data></ExtendedData><LineString><tessellate>1</tessellate><altitudeMode>clampToGround</altitudeMode><coordinates>74.4197143,18.9125159,670 74.4194597,18.9128644,670 74.4197143,18.9130023,670 74.4200000,18.9129146,670 74.4201053,18.9125932,670 74.4197143,18.9125159,670</coordinates></LineString></Placemark><Placemark><name>670 m</name><styleUrl>#minor</styleUrl><ExtendedData><Data name="elevation"><value>670</value></Data></ExtendedData><LineString><tessellate>1</tessellate><altitudeMode>clampToGround</altitudeMode><coordinates>74.4257143,18.9160815,670 74.4254487,18.9163898,670 74.4257143,18.9167596,670 74.4263926,18.9163898,670 74.4264728,18.9161186,670 74.4257143,18.9160815,670</coordinates></LineString></Placemark><Placemark><name>670 m</name><styleUrl>#minor</styleUrl><ExtendedData><Data name="elevation"><value>670</value></Data></ExtendedData><LineString><tessellate>1</tessellate><altitudeMode>clampToGround</altitudeMode><coordinates>74.4156972,18.9231695,670 74.4161049,18.9231695,670 74.4160000,18.9233201,670 74.4156972,18.9231695,670</coordinates></LineString></Placemark><Placemark><name>670 m</name><styleUrl>#minor</styleUrl><ExtendedData><Data name="elevation"><value>670</value></Data></ExtendedData><LineString><tessellate>1</tessellate><altitudeMode>clampToGround</altitudeMode><coordinates>74.4224556,18.9250678,670 74.4226646,18.9250678,670 74.4225714,18.9251526,670 74.4224556,18.9250678,670</coordinates></LineString></Placemark><Placemark><name>670 m</name><styleUrl>#minor</styleUrl><ExtendedData><Data name="elevation"><value>670</value></Data></ExtendedData><LineString><tessellate>1</tessellate><altitudeMode>clampToGround</altitudeMode><coordinates>74.4063675,18.9310000,670 74.4064214,18.9299492,670 74.4060000,18.9292131,670 74.4057143,18.9288876,670 74.4051429,18.9289165,670 74.4045714,18.9281950,670 74.4039505,18.9280508,670 74.4036690,18.9277797,670 74.4037086,18.9275085,670 74.4040000,18.9273382,670 74.4042857,18.9273842,670 74.4045714,18.9279230,670 74.4051429,18.9280813,670 74.4057143,18.9285876,670 74.4060000,18.9286951,670 74.4062857,18.9286593,670 74.4071429,18.9289801,670 74.4080000,18.9290715,670 74.4085714,18.9288781,670 74.4088571,18.9294591,670 74.4094286,18.9295634,670 74.4105714,18.9295470,670 74.4111429,18.9299477,670 74.4114286,18.9300057,670 74.4125714,18.9300622,670 74.4134286,18.9296372,670 74.4145714,18.9296788,670 74.4154286,18.9294679,670 74.4158347,18.9288644,670 74.4139917,18.9269661,670 74.4128571,18.9255529,670 74.4114286,18.9253923,670 74.4111591,18.9256102,670 74.4108571,18.9256361,670 74.4105714,18.9251089,670 74.4100000,18.9249823,670 74.4098016,18.9247966,670 74.4097749,18.9245254,670 74.4094970,18.9242542,670 74.4094334,18.9234407,670 74.4092452,18.9231695,670 74.4085714,18.9230425,670 74.4074286,18.9224870,670 74.4065714,18.9224566,670 74.4062857,18.9223423,670 74.4059039,18.9218136,670 74.4058555,18.9215424,670 74.4055972,18.9212712,670 74.4051429,18.9212205,670 74.4042857,18.9213395,670 74.4037143,18.9211656,670 74.4035544,18.9210000,670 74.4035070,18.9207288,670 74.4036501,18.9204576,670 74.4042563,18.9201864,670 74.4044034,18.9199153,670 74.4039010,18.9193729,670 74.4038076,18.9191017,670 74.4039405,18.9185593,670 74.4042857,18.9184001,670 74.4048571,18.9183512,670 74.4051429,18.9185327,670 74.4055010,18.9191017,670 74.4060000,18.9195374,670 74.4065714,18.9195418,670 74.4068571,18.9196374,670 74.4071429,18.9199188,670 74.4074286,18.9198908,670 74.4080000,18.9195252,670 74.4082857,18.9194623,670 74.4086511,18.9199153,670 74.4090233,18.9207288,670 74.4094286,18.9208661,670 74.4097143,18.9208439,670 74.4102857,18.9213896,670 74.4108571,18.9216857,670 74.4117143,18.9224172,670 74.4122458,18.9226271,670 74.4124524,18.9231695,670 74.4128571,18.9236623,670 74.4134286,18.9236622,670 74.4142857,18.9233423,670 74.4148571,18.9235782,670 74.4162143,18.9234407,670 74.4174286,18.9228258,670 74.4180000,18.9228580,670 74.4188571,18.9230949,670 74.4192993,18.9234407,670 74.4197143,18.9241991,670 74.4205714,18.9252279,670 74.4211429,18.9254592,670 74.4218291,18.9261525,670 74.4225714,18.9262824,670 74.4231215,18.9258814,670 74.4231523,18.9256102,670 74.4227710,18.9253390,670 74.4228571,18.9252537,670 74.4235401,18.9253390,670 74.4235406,18.9250678,670 74.4237143,18.9249018,670 74.4240000,18.9246715,670 74.4243084,18.9247966,670 74.4247210,18.9245254,670 74.4247756,18.9242542,670 74.4240000,18.9241454,670 74.4238585,18.9239831,670 74.4241911,18.9237119,670 74.4241501,18.9228983,670 74.4237208,18.9226271,670 74.4231429,18.9225049,670 74.4225714,18.9222300,670 74.4217991,18.9215424,670 74.4214710,18.9210000,670 74.4214337,18.9207288,670 74.4215293,18.9204576,670 74.4220000,18.9199100,670 74.4228571,18.9193027,670 74.4234909,18.9191017,670 74.4245213,18.9174746,670 74.4245439,18.9172034,670 74.4251429,18.9170265,670 74.4253963,18.9163898,670 74.4251429,18.9161654,670 74.4248571,18.9161388,670 74.4240000,18.9162803,670 74.4231429,18.9167201,670 74.4225714,18.9167402,670 74.4220000,18.9172159,670 74.4208571,18.9177263,670 74.4194286,18.9180285,670 74.4188571,18.9179395,670 74.4180000,18.9180147,670 74.4165714,18.9176426,670 74.4164064,18.9174746,670 74.4163678,18.9172034,670 74.4165381,18.9166610,670 74.4168571,18.9160563,670 74.4174287,18.9155763,670 74.4175159,18.9147627,670 74.4180000,18.9142310,670 74.4185714,18.9139690,670 74.4191521,18.9134068,670 74.4193724,18.9128644,670 74.4185714,18.9126837,670 74.4180000,18.9129365,670 74.4171429,18.9126097,670 74.4168571,18.9126295,670 74.4162857,18.9131583,670 74.4157143,18.9132254,670 74.4151429,18.9136797,670 74.4137143,18.9138233,670 74.4128571,18.9141287,670 74.4125714,18.9141096,670 74.4122857,18.9137559,670 74.4114286,18.9135904,670 74.4111954,18.9134068,670 74.4110704,18.9131356,670 74.4110521,18.9123220,670 74.4108571,18.9120646,670 74.4100460,18.9117797,670 74.4098880,18.9112373,670 74.4100000,18.9111370,670 74.4102857,18.9111408,670 74.4108571,18.9112911,670 74.4114286,18.9110832,670 74.4115302,18.9109661,670 74.4111726,18.9104237,670 74.4113634,18.9098814,670 74.4126495,18.9090678,670 74.4131429,18.9082591,670 74.4134286,18.9082322,670 74.4145714,18.9089244,670 74.4148571,18.9089417,670 74.4148753,18.9085254,670 74.4150201,18.9082542,670 74.4154286,18.9082293,670 74.4160000,18.9084212,670 74.4168571,18.9092949,670 74.4174286,18.9089132,670 74.4185714,18.9092224,670 74.4187854,18.9090678,670 74.4186953,18.9087966,670 74.4182857,18.9086629,670 74.4177143,18.9080904,670 74.4171429,18.9078662,670 74.4165714,18.9071978,670 74.4164828,18.9066271,670 74.4168283,18.9060847,670 74.4165714,18.9058623,670 74.4160000,18.9059843,670 74.4157155,18.9058136,670 74.4164743,18.9047288,670 74.4180000,18.9039803,670 74.4185714,18.9043080,670 74.4193489,18.9041864,670 74.4198420,18.9039153,670 74.4199166,18.9033729,670 74.4202857,18.9029829,670 74.4205714,18.9028814,670 74.4210269,18.9031017,670 74.4213626,18.9036441,670 74.4215645,18.9044576,670 74.4223885,18.9050000,670 74.4220596,18.9060847,670 74.4223063,18.9063559,670 74.4224668,18.9079831,670 74.4224051,18.9085254,670 74.4225714,18.9088441,670 74.4228571,18.9086752,670 74.4240000,18.9071448,670 74.4248571,18.9081378,670 74.4254286,18.9078359,670 74.4257143,18.9079237,670 74.4260054,18.9082542,670 74.4265714,18.9083515,670 74.4268571,18.9083043,670 74.4277143,18.9078122,670 74.4278211,18.9074407,670 74.4275923,18.9068983,670 74.4281604,18.9058136,670 74.4281060,18.9050000,670 74.4276618,18.9047288,670 74.4277472,18.9041864,670 74.4271376,18.9025593,670 74.4274286,18.9023992,670 74.4280000,18.9024200,670 74.4281712,18.9023117,670</coordinates></LineString></Placemark><Placemark><name>680 m</name><styleUrl>#minor</styleUrl><ExtendedData><Data name="elevation"><value>680</value></Data></ExtendedData><LineString><tessellate>1</tessellate><altitudeMode>clampToGround</altitudeMode><coordinates>74.4119733,18.9125932,680 74.4122020,18.9125932,680 74.4121369,18.9128644,680 74.4117143,18.9131916,680 74.4116165,18.9131356,680 74.4116260,18.9128644,680 74.4119733,18.9125932,680</coordinates></LineString></Placemark><Placemark><name>680 m</name><styleUrl>#minor</styleUrl><ExtendedData><Data name="elevation"><value>680</value></Data></ExtendedData><LineString><tessellate>1</tessellate><altitudeMode>clampToGround</altitudeMode><coordinates>74.4045426,18.9191017,680 74.4046411,18.9191017,680</coordinates></LineString></Placemark><Placemark><name>680 m</name><styleUrl>#minor</styleUrl><ExtendedData><Data name="elevation"><value>680</value></Data></ExtendedData><LineString><tessellate>1</tessellate><altitudeMode>clampToGround</altitudeMode><coordinates>74.4062214,18.9199153,680 74.4065714,18.9200321,680 74.4068571,18.9203483,680 74.4071429,18.9203743,680 74.4080000,18.9199916,680 74.4082585,18.9201864,680 74.4086250,18.9210000,680 74.4088571,18.9211431,680 74.4097143,18.9213306,680 74.4106777,18.9220847,680 74.4108571,18.9223821,680 74.4115963,18.9228983,680 74.4117994,18.9231695,680 74.4118047,18.9234407,680 74.4122857,18.9239754,680 74.4127173,18.9247966,680 74.4122857,18.9249009,680 74.4105837,18.9245254,680 74.4100991,18.9239831,680 74.4097143,18.9229914,680 74.4094286,18.9225943,680 74.4085714,18.9226180,680 74.4077143,18.9220321,680 74.4065714,18.9220541,680 74.4063226,18.9218136,680 74.4061769,18.9212712,680 74.4057143,18.9209087,680 74.4048571,18.9208472,680 74.4042857,18.9209679,680 74.4039849,18.9207288,680 74.4048571,18.9205138,680 74.4057143,18.9199799,680 74.4062214,18.9199153,680</coordinates></LineString></Placemark><Placemark><name>680 m</name><styleUrl>#minor</styleUrl><ExtendedData><Data name="elevation"><value>680</value></Data></ExtendedData><LineString><tessellate>1</tessellate><altitudeMode>clampToGround</altitudeMode><coordinates>74.4068119,18.9296780,680 74.4068571,18.9294948,680 74.4074286,18.9294745,680 74.4077143,18.9295139,680 74.4085714,18.9300586,680 74.4094286,18.9301152,680 74.4102857,18.9300281,680 74.4105528,18.9304915,680 74.4105494,18.9310000,680</coordinates></LineString></Placemark><Placemark><name>680 m</name><styleUrl>#minor</styleUrl><ExtendedData><Data name="elevation"><value>680</value></Data></ExtendedData><LineString><tessellate>1</tessellate><altitudeMode>clampToGround</altitudeMode><coordinates>74.4070457,18.9310000,680 74.4068570,18.9307627,680 74.4068119,18.9296780,680</coordinates></LineString></Placemark><Placemark><name>680 m</name><styleUrl>#minor</styleUrl><ExtendedData><Data name="elevation"><value>680</value></Data></ExtendedData><LineString><tessellate>1</tessellate><altitudeMode>clampToGround</altitudeMode><coordinates>74.4107824,18.9310000,680 74.4114286,18.9306809,680 74.4119184,18.9310000,680</coordinates></LineString></Placemark><Placemark><name>680 m</name><styleUrl>#minor</styleUrl><ExtendedData><Data name="elevation"><value>680</value></Data></ExtendedData><LineString><tessellate>1</tessellate><altitudeMode>clampToGround</altitudeMode><coordinates>74.4128445,18.9310000,680 74.4131429,18.9306545,680 74.4137143,18.9305169,680 74.4142857,18.9306091,680 74.4148571,18.9305517,680 74.4157143,18.9308687,680 74.4159335,18.9310000,680</coordinates></LineString></Placemark><Placemark><name>680 m</name><styleUrl>#minor</styleUrl><ExtendedData><Data name="elevation"><value>680</value></Data></ExtendedData><LineString><tessellate>1</tessellate><altitudeMode>clampToGround</altitudeMode><coordinates>74.4183180,18.9310000,680 74.4183880,18.9307627,680 74.4182712,18.9304915,680 74.4177143,18.9299074,680 74.4171429,18.9283144,680 74.4167241,18.9275085,680 74.4162857,18.9271728,680 74.4150396,18.9269661,680 74.4147577,18.9266949,680 74.4148589,18.9261525,680 74.4147882,18.9258814,680 74.4142857,18.9255400,680 74.4134286,18.9252758,680 74.4131798,18.9250678,680 74.4131780,18.9247966,680 74.4140000,18.9242199,680 74.4148571,18.9240570,680 74.4153291,18.9242542,680 74.4157143,18.9245725,680 74.4165714,18.9247381,680 74.4168571,18.9246918,680 74.4174286,18.9243702,680 74.4180000,18.9235367,680 74.4182857,18.9235786,680 74.4187041,18.9239831,680 74.4188699,18.9245254,680 74.4189029,18.9247966,680 74.4187147,18.9253390,680 74.4191741,18.9256102,680 74.4194089,18.9258814,680 74.4200000,18.9267904,680 74.4206644,18.9275085,680 74.4211429,18.9283871,680 74.4214286,18.9286133,680 74.4220000,18.9287192,680 74.4231429,18.9297606,680 74.4237143,18.9298777,680 74.4240000,18.9302562,680 74.4249001,18.9307627,680 74.4251101,18.9310000,680</coordinates></LineString></Placemark><Placemark><name>680 m</name><styleUrl>#minor</styleUrl><ExtendedData><Data name="elevation"><value>680</value></Data></ExtendedData><LineString><tessellate>1</tessellate><altitudeMode>clampToGround</altitudeMode><coordinates>74.4273003,18.9310000,680 74.4274907,18.9307627,680 74.4274343,18.9304915,680 74.4269497,18.9296780,680 74.4270682,18.9288644,680 74.4264454,18.9280508,680 74.4264939,18.9277797,680 74.4268402,18.9272373,680 74.4268754,18.9266949,680 74.4280000,18.9259038,680 74.4281712,18.9258744,680</coordinates></LineString></Placemark><Placemark><name>680 m</name><styleUrl>#minor</styleUrl><ExtendedData><Data name="elevation"><value>680</value></Data></ExtendedData><LineString><tessellate>1</tessellate><altitudeMode>clampToGround</altitudeMode><coordinates>74.4281712,18.9231056,680 74.4277143,18.9227681,680 74.4272936,18.9223559,680 74.4271429,18.9217912,680 74.4265714,18.9219674,680 74.4237143,18.9221921,680 74.4228571,18.9219429,680 74.4221358,18.9212712,680 74.4219349,18.9207288,680 74.4220354,18.9204576,680 74.4222857,18.9202454,680 74.4234286,18.9198408,680 74.4248571,18.9198534,680 74.4250317,18.9196441,680 74.4248053,18.9188305,680 74.4254286,18.9187234,680 74.4260000,18.9187567,680 74.4262857,18.9186317,680 74.4263510,18.9177458,680 74.4268571,18.9174060,680 74.4281712,18.9172066,680</coordinates></LineString></Placemark><Placemark><name>680 m</name><styleUrl>#minor</styleUrl><ExtendedData><Data name="elevation"><value>680</value></Data></ExtendedData><LineString><tessellate>1</tessellate><altitudeMode>clampToGround</altitudeMode><coordinates>74.4281712,18.9150747,680 74.4277143,18.9149640,680 74.4273543,18.9144915,680 74.4271429,18.9129902,680 74.4268571,18.9129069,680 74.4265714,18.9133619,680 74.4264013,18.9139492,680 74.4256975,18.9147627,680 74.4251429,18.9151744,680 74.4237143,18.9159433,680 74.4231429,18.9161916,680 74.4228571,18.9161874,680 74.4225714,18.9160301,680 74.4222857,18.9160627,680 74.4217143,18.9167639,680 74.4202857,18.9172359,680 74.4194286,18.9172692,680 74.4180000,18.9176305,680 74.4171429,18.9175239,680 74.4167847,18.9172034,680 74.4174286,18.9161816,680 74.4179872,18.9158475,680 74.4180000,18.9150278,680 74.4182857,18.9147097,680 74.4188958,18.9144915,680 74.4194286,18.9137929,680 74.4208571,18.9135330,680 74.4208531,18.9131356,680 74.4210798,18.9125932,680 74.4214286,18.9123655,680 74.4217344,18.9123220,680 74.4220220,18.9115085,680 74.4219921,18.9112373,680 74.4217143,18.9110788,680 74.4205714,18.9116754,680 74.4200000,18.9118407,680 74.4197143,18.9117957,680 74.4191429,18.9120672,680 74.4180000,18.9120393,680 74.4177143,18.9119251,680 74.4171429,18.9113927,680 74.4166165,18.9117797,680 74.4160000,18.9125555,680 74.4154192,18.9125932,680 74.4151429,18.9130169,680 74.4148571,18.9132148,680 74.4131429,18.9131802,680 74.4134762,18.9117797,680 74.4135397,18.9109661,680 74.4134139,18.9104237,680 74.4135176,18.9101525,680 74.4142857,18.9095947,680 74.4145714,18.9095771,680 74.4151429,18.9099526,680 74.4154286,18.9098958,680 74.4154604,18.9093390,680 74.4157143,18.9089538,680 74.4160000,18.9090409,680 74.4162480,18.9093390,680 74.4162857,18.9099182,680 74.4165714,18.9098980,680 74.4174286,18.9094020,680 74.4177143,18.9093581,680 74.4182857,18.9094729,680 74.4185714,18.9097012,680 74.4188571,18.9097166,680 74.4192407,18.9093390,680 74.4193503,18.9085254,680 74.4183563,18.9082542,680 74.4176679,18.9074407,680 74.4175094,18.9068983,680 74.4178003,18.9060847,680 74.4176472,18.9055424,680 74.4173345,18.9050000,680 74.4177143,18.9047154,680 74.4185714,18.9048116,680 74.4205714,18.9040100,680 74.4208571,18.9040898,680 74.4216674,18.9052712,680 74.4213937,18.9060847,680 74.4220266,18.9066271,680 74.4222421,18.9079831,680 74.4221617,18.9085254,680 74.4222857,18.9089751,680 74.4225714,18.9091261,680 74.4228571,18.9090058,680 74.4234873,18.9082542,680 74.4237143,18.9078131,680 74.4240000,18.9076246,680 74.4245714,18.9082802,680 74.4248571,18.9084195,680 74.4254286,18.9081335,680 74.4260000,18.9085610,680 74.4268571,18.9085977,680 74.4279091,18.9079831,680 74.4280417,18.9077119,680 74.4280957,18.9074407,680 74.4279008,18.9068983,680 74.4281712,18.9063702,680</coordinates></LineString></Placemark><Placemark><name>680 m</name><styleUrl>#minor</styleUrl><ExtendedData><Data name="elevation"><value>680</value></Data></ExtendedData><LineString><tessellate>1</tessellate><altitudeMode>clampToGround</altitudeMode><coordinates>74.4281712,18.9045822,680 74.4280777,18.9044576,680 74.4281712,18.9038996,680</coordinates></LineString></Placemark><Placemark><name>690 m</name><styleUrl>#minor</styleUrl><ExtendedData><Data name="elevation"><value>690</value></Data></ExtendedData><LineString><tessellate>1</tessellate><altitudeMode>clampToGround</altitudeMode><coordinates>74.4281712,18.9145464,690 74.4280000,18.9144954,690 74.4277963,18.9142203,690 74.4276259,18.9134068,690 74.4278022,18.9125932,690 74.4281712,18.9119914,690</coordinates></LineString></Placemark><Placemark><name>690 m</name><styleUrl>#minor</styleUrl><ExtendedData><Data name="elevation"><value>690</value></Data></ExtendedData><LineString><tessellate>1</tessellate><altitudeMode>clampToGround</altitudeMode><coordinates>74.4281712,18.9109289,690 74.4280000,18.9108059,690 74.4276645,18.9109661,690 74.4272528,18.9115085,690 74.4265436,18.9120508,690 74.4263769,18.9123220,690 74.4260000,18.9138103,690 74.4247652,18.9150339,690 74.4234286,18.9157822,690 74.4231429,18.9158472,690 74.4222857,18.9157559,690 74.4217586,18.9161186,690 74.4214286,18.9165680,690 74.4211429,18.9167028,690 74.4194286,18.9169365,690 74.4180000,18.9173463,690 74.4174286,18.9173323,690 74.4172148,18.9172034,690 74.4177143,18.9164202,690 74.4183904,18.9158475,690 74.4183259,18.9153051,690 74.4184988,18.9150339,690 74.4191429,18.9147327,690 74.4197143,18.9140954,690 74.4202857,18.9139183,690 74.4212159,18.9139492,690 74.4213486,18.9136780,690 74.4213141,18.9131356,690 74.4214286,18.9128840,690 74.4217143,18.9127484,690 74.4222857,18.9129086,690 74.4224474,18.9128644,690 74.4223600,18.9117797,690 74.4231503,18.9112373,690 74.4232824,18.9109661,690 74.4222857,18.9107513,690 74.4217143,18.9104341,690 74.4211429,18.9109194,690 74.4202857,18.9113330,690 74.4182857,18.9115195,690 74.4180000,18.9113854,690 74.4174286,18.9107395,690 74.4171429,18.9106071,690 74.4157143,18.9120981,690 74.4151429,18.9118440,690 74.4148571,18.9118409,690 74.4147447,18.9115085,690 74.4148908,18.9109661,690 74.4151429,18.9106658,690 74.4160000,18.9105135,690 74.4165714,18.9105306,690 74.4177143,18.9098311,690 74.4182802,18.9098814,690 74.4185714,18.9101467,690 74.4188571,18.9101895,690 74.4197143,18.9097046,690 74.4196786,18.9090678,690 74.4200000,18.9089825,690 74.4202623,18.9085254,690 74.4202856,18.9082542,690 74.4200000,18.9078973,690 74.4191429,18.9079818,690 74.4186686,18.9074407,690 74.4185854,18.9071695,690 74.4191429,18.9061126,690 74.4197143,18.9058463,690 74.4202857,18.9057550,690 74.4205987,18.9058136,690 74.4207223,18.9066271,690 74.4208571,18.9067550,690 74.4214286,18.9068333,690 74.4217143,18.9069591,690 74.4218336,18.9071695,690 74.4220103,18.9079831,690 74.4219601,18.9087966,690 74.4222857,18.9092921,690 74.4228571,18.9092837,690 74.4240000,18.9080210,690 74.4245714,18.9085742,690 74.4248571,18.9086611,690 74.4254286,18.9084209,690 74.4260000,18.9088063,690 74.4268571,18.9088387,690 74.4271429,18.9086992,690 74.4281712,18.9079909,690</coordinates></LineString></Placemark><Placemark><name>690 m</name><styleUrl>#minor</styleUrl><ExtendedData><Data name="elevation"><value>690</value></Data></ExtendedData><LineString><tessellate>1</tessellate><altitudeMode>clampToGround</altitudeMode><coordinates>74.4076360,18.9204576,690 74.4080000,18.9204170,690 74.4082289,18.9210000,690 74.4085714,18.9213595,690 74.4091429,18.9216287,690 74.4094286,18.9216052,690 74.4102857,18.9222006,690 74.4105714,18.9227965,690 74.4112889,18.9231695,690 74.4113127,18.9234407,690 74.4117149,18.9242542,690 74.4111429,18.9243615,690 74.4107125,18.9242542,690 74.4104679,18.9239831,690 74.4098400,18.9226271,690 74.4094286,18.9222277,690 74.4086908,18.9223559,690 74.4079981,18.9218136,690 74.4077143,18.9216980,690 74.4068571,18.9216490,690 74.4066923,18.9215424,690 74.4064914,18.9210000,690 74.4065478,18.9207288,690 74.4071429,18.9207096,690 74.4076360,18.9204576,690</coordinates></LineString></Placemark><Placemark><name>690 m</name><styleUrl>#minor</styleUrl><ExtendedData><Data name="elevation"><value>690</value></Data></ExtendedData><LineString><tessellate>1</tessellate><altitudeMode>clampToGround</altitudeMode><coordinates>74.4281712,18.9224020,690 74.4280000,18.9221916,690 74.4279730,18.9218136,690 74.4281646,18.9212712,690 74.4280000,18.9211554,690 74.4277143,18.9210809,690 74.4271429,18.9211462,690 74.4242857,18.9218402,690 74.4234286,18.9219069,690 74.4228571,18.9216511,690 74.4225714,18.9213935,690 74.4223077,18.9210000,690 74.4222752,18.9207288,690 74.4225714,18.9204246,690 74.4234286,18.9201303,690 74.4251429,18.9201761,690 74.4253619,18.9199153,690 74.4255196,18.9193729,690 74.4257143,18.9192044,690 74.4267091,18.9191017,690 74.4269003,18.9180169,690 74.4274286,18.9176896,690 74.4281712,18.9178037,690</coordinates></LineString></Placemark><Placemark><name>690 m</name><styleUrl>#minor</styleUrl><ExtendedData><Data name="elevation"><value>690</value></Data></ExtendedData><LineString><tessellate>1</tessellate><altitudeMode>clampToGround</altitudeMode><coordinates>74.4072451,18.9299492,690 74.4074286,18.9298455,690 74.4076845,18.9299492,690 74.4080042,18.9302203,690 74.4081002,18.9304915,690 74.4077143,18.9305899,690 74.4074286,18.9305342,690 74.4072022,18.9302203,690 74.4072451,18.9299492,690</coordinates></LineString></Placemark><Placemark><name>690 m</name><styleUrl>#minor</styleUrl><ExtendedData><Data name="elevation"><value>690</value></Data></ExtendedData><LineString><tessellate>1</tessellate><altitudeMode>clampToGround</altitudeMode><coordinates>74.4098921,18.9304915,690 74.4100490,18.9304915,690 74.4100000,18.9307717,690 74.4098921,18.9304915,690</coordinates></LineString></Placemark><Placemark><name>690 m</name><styleUrl>#minor</styleUrl><ExtendedData><Data name="elevation"><value>690</value></Data></ExtendedData><LineString><tessellate>1</tessellate><altitudeMode>clampToGround</altitudeMode><coordinates>74.4133589,18.9310000,690 74.4137143,18.9308539,690 74.4142857,18.9309770,690 74.4148571,18.9309018,690 74.4150313,18.9310000,690</coordinates></LineString></Placemark><Placemark><name>690 m</name><styleUrl>#minor</styleUrl><ExtendedData><Data name="elevation"><value>690</value></Data></ExtendedData><LineString><tessellate>1</tessellate><altitudeMode>clampToGround</altitudeMode><coordinates>74.4196832,18.9310000,690 74.4197304,18.9307627,690 74.4196401,18.9304915,690 74.4194286,18.9301830,690 74.4185714,18.9299073,690 74.4181905,18.9296780,690 74.4176349,18.9285932,690 74.4172594,18.9275085,690 74.4168708,18.9269661,690 74.4154286,18.9266939,690 74.4152453,18.9264237,690 74.4151673,18.9256102,690 74.4142857,18.9251065,690 74.4137143,18.9249337,690 74.4137143,18.9247653,690 74.4145714,18.9243778,690 74.4148571,18.9243675,690 74.4157143,18.9250825,690 74.4168571,18.9251863,690 74.4175920,18.9247966,690 74.4180000,18.9242976,690 74.4182857,18.9241978,690 74.4184189,18.9245254,690 74.4181794,18.9253390,690 74.4182375,18.9256102,690 74.4191429,18.9261508,690 74.4195301,18.9269661,690 74.4201743,18.9277797,690 74.4207693,18.9291356,690 74.4223644,18.9302203,690 74.4234286,18.9306745,690 74.4236222,18.9310000,690</coordinates></LineString></Placemark><Placemark><name>690 m</name><styleUrl>#minor</styleUrl><ExtendedData><Data name="elevation"><value>690</value></Data></ExtendedData><LineString><tessellate>1</tessellate><altitudeMode>clampToGround</altitudeMode><coordinates>74.4281712,18.9275830,690 74.4281056,18.9275085,690 74.4279175,18.9269661,690 74.4280000,18.9265904,690 74.4281712,18.9265336,690</coordinates></LineString></Placemark><Placemark><name>700 m</name><styleUrl>#major</styleUrl><ExtendedData><Data name="elevation"><value>700</value></Data></ExtendedData><LineString><tessellate>1</tessellate><altitudeMode>clampToGround</altitudeMode><coordinates>74.4214089,18.9090678,700 74.4217143,18.9092607,700 74.4218378,18.9096102,700 74.4214286,18.9097928,700 74.4212541,18.9096102,700 74.4214089,18.9090678,700</coordinates></LineString></Placemark><Placemark><name>700 m</name><styleUrl>#major</styleUrl><ExtendedData><Data name="elevation"><value>700</value></Data></ExtendedData><LineString><tessellate>1</tessellate><altitudeMode>clampToGround</altitudeMode><coordinates>74.4281712,18.9138647,700 74.4280801,18.9136780,700 74.4280506,18.9131356,700 74.4281712,18.9128442,700</coordinates></LineString></Placemark><Placemark><name>700 m</name><styleUrl>#major</styleUrl><ExtendedData><Data name="elevation"><value>700</value></Data></ExtendedData><LineString><tessellate>1</tessellate><altitudeMode>clampToGround</altitudeMode><coordinates>74.4281712,18.9102567,700 74.4280000,18.9102542,700 74.4272043,18.9106949,700 74.4268427,18.9112373,700 74.4260000,18.9119435,700 74.4257143,18.9134499,700 74.4244673,18.9147627,700 74.4234286,18.9153908,700 74.4222857,18.9154288,700 74.4217143,18.9157099,700 74.4214286,18.9161433,700 74.4210811,18.9163898,700 74.4194286,18.9166659,700 74.4186183,18.9169322,700 74.4179224,18.9169322,700 74.4180304,18.9166610,700 74.4185714,18.9161812,700 74.4187820,18.9158475,700 74.4188571,18.9152560,700 74.4194286,18.9149804,700 74.4198701,18.9144915,700 74.4202857,18.9143154,700 74.4214286,18.9142176,700 74.4216925,18.9139492,700 74.4217143,18.9133925,700 74.4220000,18.9132169,700 74.4225714,18.9133382,700 74.4228199,18.9131356,700 74.4228246,18.9120508,700 74.4230939,18.9117797,700 74.4237143,18.9114399,700 74.4242020,18.9109661,700 74.4241472,18.9106949,700 74.4240000,18.9106062,700 74.4234286,18.9105040,700 74.4225498,18.9101525,700 74.4224963,18.9098814,700 74.4231429,18.9095630,700 74.4240000,18.9087451,700 74.4245714,18.9089691,700 74.4254286,18.9088665,700 74.4260000,18.9091398,700 74.4268571,18.9091329,700 74.4271429,18.9090543,700 74.4281712,18.9083417,700</coordinates></LineString></Placemark><Placemark><name>700 m</name><styleUrl>#major</styleUrl><ExtendedData><Data name="elevation"><value>700</value></Data></ExtendedData><LineString><tessellate>1</tessellate><altitudeMode>clampToGround</altitudeMode><coordinates>74.4281712,18.9208668,700 74.4280000,18.9207806,700 74.4271429,18.9208033,700 74.4237143,18.9216727,700 74.4231015,18.9215424,700 74.4226307,18.9210000,700 74.4226832,18.9207288,700 74.4234286,18.9204045,700 74.4251429,18.9204580,700 74.4254286,18.9203190,700 74.4257815,18.9196441,700 74.4260000,18.9195058,700 74.4268984,18.9193729,700 74.4271111,18.9191017,700 74.4272057,18.9182881,700 74.4274286,18.9180550,700 74.4281712,18.9181199,700</coordinates></LineString></Placemark><Placemark><name>700 m</name><styleUrl>#major</styleUrl><ExtendedData><Data name="elevation"><value>700</value></Data></ExtendedData><LineString><tessellate>1</tessellate><altitudeMode>clampToGround</altitudeMode><coordinates>74.4108286,18.9237119,700 74.4108571,18.9236319,700</coordinates></LineString></Placemark><Placemark><name>700 m</name><styleUrl>#major</styleUrl><ExtendedData><Data name="elevation"><value>700</value></Data></ExtendedData><LineString><tessellate>1</tessellate><altitudeMode>clampToGround</altitudeMode><coordinates>74.4146750,18.9247966,700 74.4148571,18.9247759,700 74.4148571,18.9249673,700 74.4146750,18.9247966,700</coordinates></LineString></Placemark><Placemark><name>700 m</name><styleUrl>#major</styleUrl><ExtendedData><Data name="elevation"><value>700</value></Data></ExtendedData><LineString><tessellate>1</tessellate><altitudeMode>clampToGround</altitudeMode><coordinates>74.4200917,18.9310000,700 74.4200596,18.9304915,700 74.4196728,18.9299492,700 74.4185714,18.9295077,700 74.4182857,18.9292213,700 74.4179533,18.9285932,700 74.4176114,18.9275085,700 74.4171429,18.9268433,700 74.4165714,18.9265446,700 74.4157143,18.9264177,700 74.4155718,18.9258814,700 74.4155809,18.9256102,700 74.4157143,18.9254219,700 74.4160000,18.9253579,700 74.4168571,18.9254643,700 74.4177143,18.9251502,700 74.4181125,18.9258814,700 74.4189622,18.9264237,700 74.4193209,18.9272373,700 74.4199153,18.9280508,700 74.4205714,18.9294029,700 74.4214286,18.9299485,700 74.4217143,18.9302648,700 74.4232215,18.9310000,700</coordinates></LineString></Placemark><Placemark><name>710 m</name><styleUrl>#minor</styleUrl><ExtendedData><Data name="elevation"><value>710</value></Data></ExtendedData><LineString><tessellate>1</tessellate><altitudeMode>clampToGround</altitudeMode><coordinates>74.4281712,18.9205493,710 74.4280000,18.9204523,710 74.4271429,18.9203694,710 74.4263891,18.9204576,710 74.4261932,18.9201864,710 74.4263626,18.9199153,710 74.4268571,18.9198178,710 74.4274273,18.9193729,710 74.4274861,18.9188305,710 74.4277143,18.9184955,710 74.4281712,18.9184910,710</coordinates></LineString></Placemark><Placemark><name>710 m</name><styleUrl>#minor</styleUrl><ExtendedData><Data name="elevation"><value>710</value></Data></ExtendedData><LineString><tessellate>1</tessellate><altitudeMode>clampToGround</altitudeMode><coordinates>74.4203504,18.9310000,710 74.4203728,18.9307627,710 74.4202857,18.9303560,710 74.4197143,18.9295907,710 74.4188571,18.9292731,710 74.4185714,18.9290220,710 74.4182857,18.9285805,710 74.4178692,18.9272373,710 74.4171429,18.9264332,710 74.4166630,18.9261525,710 74.4167692,18.9258814,710 74.4174286,18.9256703,710 74.4180000,18.9262295,710 74.4185714,18.9264963,710 74.4195591,18.9280508,710 74.4202857,18.9294784,710 74.4211429,18.9300618,710 74.4215423,18.9304915,710 74.4222857,18.9307895,710 74.4225833,18.9310000,710</coordinates></LineString></Placemark><Placemark><name>720 m</name><styleUrl>#minor</styleUrl><ExtendedData><Data name="elevation"><value>720</value></Data></ExtendedData><LineString><tessellate>1</tessellate><altitudeMode>clampToGround</altitudeMode><coordinates>74.4206294,18.9310000,720 74.4207822,18.9302203,720 74.4214286,18.9307274,720 74.4219686,18.9310000,720</coordinates></LineString></Placemark></Folder></Document></kml>