<?xml version='1.0' encoding='utf-8'?>
<kml xmlns="http://www.opengis.net/kml/2.2"><Document><name>Copernicus GLO-30 derived contour demo</name><Placemark><name>270 m</name><LineString><coordinates>81.36594070,21.26054286 81.36623664,21.26044517 81.36681679,21.26027533 81.36695704,21.26000000 81.36672223,21.25972857 81.36681679,21.25921868 81.36710687,21.25896295 81.36739695,21.25878021 81.36778760,21.25864286 81.36811201,21.25837143 81.36841292,21.25810000 81.36873952,21.25782857 81.36826718,21.25770025 81.36768702,21.25780651 81.36738907,21.25755714 81.36710687,21.25717328 81.36681679,21.25692775 81.36642521,21.25674286 81.36632280,21.25620000 81.36594656,21.25599335 81.36565649,21.25589374 81.36507634,21.25581696 81.36449618,21.25568009 81.36420611,21.25563925 81.36362595,21.25558055 81.36304580,21.25562501 81.36275573,21.25571536 81.36217557,21.25591036 81.36188550,21.25606405 81.36159542,21.25620821 81.36129075,21.25647143 81.36105152,21.25701429 81.36130534,21.25737686 81.36183907,21.25755714 81.36188550,21.25795244 81.36217557,21.25815975 81.36257489,21.25837143 81.36304580,21.25846273 81.36341445,21.25837143 81.36391603,21.25814537 81.36420611,21.25840016 81.36458951,21.25864286 81.36473342,21.25918571 81.36496458,21.25945714 81.36498337,21.26000000 81.36500167,21.26054286 81.36536641,21.26066836 81.36594070,21.26054286</coordinates></LineString></Placemark><Placemark><name>270 m</name><LineString><coordinates>81.36246565,21.25728988 81.36214074,21.25728571 81.36242085,21.25701429 81.36275573,21.25691983 81.36275573,21.25706858 81.36246565,21.25728988</coordinates></LineString></Placemark><Placemark><name>270 m</name><LineString><coordinates>81.35847843,21.26108571 81.35869466,21.26078113 81.35882377,21.26027143 81.35898473,21.25974798 81.35911527,21.25945714 81.35927481,21.25909831 81.35930586,21.25864286 81.35898473,21.25844305 81.35840458,21.25846431 81.35782443,21.25843073 81.35724427,21.25856503 81.35695420,21.25868907 81.35666412,21.25903034 81.35656961,21.25945714 81.35660603,21.26000000 81.35664187,21.26054286 81.35673869,21.26081429 81.35699946,21.26108571 81.35753435,21.26123699 81.35811450,21.26121494 81.35847843,21.26108571</coordinates></LineString></Placemark><Placemark><name>275 m</name><LineString><coordinates>81.36639707,21.26054286 81.36681679,21.26036868 81.36710687,21.26000613 81.36710687,21.25999226 81.36681679,21.25952811 81.36681679,21.25941186 81.36710687,21.25910092 81.36746430,21.25891429 81.36797710,21.25864841 81.36826718,21.25840234 81.36855725,21.25814300 81.36884733,21.25792853 81.36884733,21.25767100 81.36855725,21.25751156 81.36826718,21.25755768 81.36768702,21.25764167 81.36739695,21.25734485 81.36715672,21.25701429 81.36681679,21.25678170 81.36661154,21.25647143 81.36652672,21.25618138 81.36622642,21.25592857 81.36565649,21.25571992 81.36535058,21.25565714 81.36478626,21.25558462 81.36420611,21.25550350 81.36362595,21.25542127 81.36304580,21.25547911 81.36246565,21.25564311 81.36217557,21.25578060 81.36182838,21.25592857 81.36135793,21.25620000 81.36102898,21.25647143 81.36082832,21.25674286 81.36069404,21.25701429 81.36072519,21.25730342 81.36111256,21.25755714 81.36143739,21.25782857 81.36178149,21.25810000 81.36217557,21.25832006 81.36246565,21.25848499 81.36304580,21.25862145 81.36362595,21.25840482 81.36391603,21.25826391 81.36420611,21.25849391 81.36449618,21.25874668 81.36465762,21.25918571 81.36484041,21.25945714 81.36488008,21.26000000 81.36491870,21.26054286 81.36536641,21.26080780 81.36594656,21.26064641 81.36639707,21.26054286</coordinates></LineString></Placemark><Placemark><name>275 m</name><LineString><coordinates>81.35839441,21.26135714 81.35869466,21.26116458 81.35887963,21.26081429 81.35898473,21.26046502 81.35910042,21.26000000 81.35927481,21.25958763 81.35948336,21.25918571 81.35957132,21.25891429 81.35956489,21.25848609 81.35927481,21.25828946 81.35869466,21.25825256 81.35811450,21.25820515 81.35753435,21.25824685 81.35710463,21.25837143 81.35666412,21.25860573 81.35641761,21.25891429 81.35632405,21.25918571 81.35637405,21.25962011 81.35644161,21.26000000 81.35651945,21.26054286 81.35666412,21.26100848 81.35695420,21.26131694 81.35724427,21.26139755 81.35782443,21.26143541 81.35839441,21.26135714</coordinates></LineString></Placemark><Placemark><name>280 m</name><LineString><coordinates>81.35876553,21.26135714 81.35898473,21.26105173 81.35918647,21.26054286 81.35929126,21.26027143 81.35944414,21.25972857 81.35958563,21.25945714 81.35977824,21.25891429 81.35986059,21.25864286 81.36013361,21.25810000 81.36033341,21.25782857 81.36072519,21.25768333 81.36115389,21.25782857 81.36153069,21.25810000 81.36188550,21.25829147 81.36217557,21.25847032 81.36255266,21.25864286 81.36304580,21.25874950 81.36346328,21.25864286 81.36391603,21.25838771 81.36428512,21.25864286 81.36449618,21.25893115 81.36470237,21.25945714 81.36482631,21.25972857 81.36477183,21.26000000 81.36478626,21.26042503 81.36503183,21.26081429 81.36536641,21.26093050 81.36579333,21.26081429 81.36623664,21.26069650 81.36664554,21.26054286 81.36703557,21.26027143 81.36720213,21.26000000 81.36706105,21.25972857 81.36710687,21.25926398 81.36739695,21.25905653 81.36768702,21.25891302 81.36812106,21.25864286 81.36844023,21.25837143 81.36883654,21.25810000 81.36913740,21.25788699 81.36913740,21.25776245 81.36884733,21.25747647 81.36826718,21.25743839 81.36768702,21.25746950 81.36739695,21.25713484 81.36710687,21.25681324 81.36681679,21.25648055 81.36673310,21.25620000 81.36647756,21.25592857 81.36594656,21.25566939 81.36565649,21.25555486 81.36507634,21.25547032 81.36449618,21.25541671 81.36420611,21.25536691 81.36362595,21.25529571 81.36304580,21.25533970 81.36275573,21.25543067 81.36217557,21.25565054 81.36188550,21.25577897 81.36159542,21.25593735 81.36111346,21.25620000 81.36075535,21.25647143 81.36051072,21.25674286 81.36029037,21.25701429 81.36009723,21.25728571 81.35985496,21.25768292 81.35956489,21.25799281 81.35898473,21.25805257 81.35840458,21.25800491 81.35782443,21.25797082 81.35724427,21.25807612 81.35695420,21.25816774 81.35642370,21.25837143 81.35623530,21.25864286 81.35615615,21.25918571 81.35625450,21.25972857 81.35632408,21.26027143 81.35639703,21.26054286 81.35654975,21.26108571 81.35676895,21.26135714 81.35724427,21.26157617 81.35782443,21.26159815 81.35840458,21.26149624 81.35876553,21.26135714</coordinates></LineString></Placemark><Placemark><name>285 m</name><LineString><coordinates>81.34100000,21.25707011 81.34129008,21.25678263 81.34129123,21.25647143 81.34158015,21.25604139 81.34159619,21.25565714 81.34187023,21.25527061 81.34216031,21.25507987 81.34256100,21.25511429 81.34303053,21.25526432 81.34361069,21.25515965 81.34390076,21.25509861 81.34419084,21.25519924 81.34448092,21.25551784 81.34484672,21.25538571 81.34535115,21.25522722 81.34593130,21.25537060 81.34622137,21.25562098 81.34651145,21.25536325 81.34673865,21.25565714 81.34709160,21.25588167 81.34739609,21.25592857 81.34792624,21.25592857 81.34825191,21.25572442 81.34833334,21.25538571 81.34840973,21.25484286 81.34825191,21.25443200 81.34825083,21.25402857 81.34804834,21.25348571 81.34787491,21.25321429 81.34769868,21.25267143 81.34738168,21.25266147 81.34709160,21.25281295 81.34680153,21.25299094 81.34651154,21.25267143 81.34706749,21.25240000 81.34670589,21.25240000 81.34622137,21.25265239 81.34564122,21.25243687 81.34564122,21.25229667 81.34566101,21.25185714 81.34555734,21.25158571 81.34535115,21.25116102 81.34535115,21.25098908 81.34593130,21.25090450 81.34622137,21.25116436 81.34651145,21.25136664 81.34654489,21.25104286 81.34651145,21.25070841 81.34593130,21.25069073 81.34535363,21.25050000 81.34531071,21.25022857 81.34564122,21.25011265 81.34622137,21.25011442 81.34680153,21.24997186 81.34685858,21.24968571 81.34709160,21.24929351 81.34736688,21.24887143 81.34745730,21.24860000 81.34796183,21.24853940 81.34832558,21.24832857 81.34850282,21.24778571 81.34883206,21.24762341 81.34912214,21.24750301 81.34970229,21.24733697 81.35028244,21.24726901 81.35057252,21.24720048 81.35086260,21.24736242 81.35115267,21.24702806 81.35120057,21.24670000 81.35086260,21.24665043 81.35044325,21.24670000 81.34999237,21.24680339 81.34941221,21.24676361 81.34895914,21.24697143 81.34854198,21.24700765 81.34835394,21.24670000 81.34796183,21.24651756 81.34767176,21.24639581 81.34709160,21.24630020 81.34651145,21.24632687 81.34593130,21.24617638 81.34564122,21.24601114 81.34535115,21.24575240 81.34506107,21.24554952 81.34477099,21.24528082 81.34424070,21.24507143 81.34390076,21.24507049 81.34361069,21.24518242 81.34332061,21.24550476 81.34289972,21.24534286 81.34303053,21.24492964 81.34304042,21.24452857 81.34274829,21.24425714 81.34259742,21.24425714 81.34243567,21.24425714 81.34216031,21.24395342 81.34196482,21.24344286 81.34187023,21.24315103 81.34187023,21.24279137 81.34200301,21.24235714 81.34216515,21.24208571 81.34216031,21.24175533 81.34187023,21.24145158 81.34166201,21.24100000</coordinates></LineString></Placemark><Placemark><name>285 m</name><LineString><coordinates>81.34415964,21.24425714 81.34421245,21.24398571 81.34390076,21.24389641 81.34349462,21.24398571 81.34361069,21.24445590 81.34415964,21.24425714</coordinates></LineString></Placemark><Placemark><name>285 m</name><LineString><coordinates>81.34303053,21.24616701 81.34274046,21.24604339 81.34274046,21.24577296 81.34324512,21.24588571 81.34303053,21.24616701</coordinates></LineString></Placemark><Placemark><name>285 m</name><LineString><coordinates>81.34477099,21.24626145 81.34419084,21.24638355 81.34381310,21.24615714 81.34390076,21.24572389 81.34448092,21.24566077 81.34497038,21.24588571 81.34477099,21.24626145</coordinates></LineString></Placemark><Placemark><name>285 m</name><LineString><coordinates>81.34129008,21.24646185 81.34111012,21.24615714 81.34158015,21.24588650 81.34158015,21.24634944 81.34129008,21.24646185</coordinates></LineString></Placemark><Placemark><name>285 m</name><LineString><coordinates>81.34867761,21.25402857 81.34891584,21.25375714 81.34883206,21.25336170 81.34854198,21.25354780 81.34825968,21.25402857 81.34867761,21.25402857</coordinates></LineString></Placemark><Placemark><name>285 m</name><LineString><coordinates>81.35169832,21.25647143 81.35202290,21.25630184 81.35209506,21.25592857 81.35231298,21.25554632 81.35277559,21.25538571 81.35231298,21.25527542 81.35173282,21.25528570 81.35115267,21.25520073 81.35092842,21.25484286 81.35104481,21.25430000 81.35057252,21.25413494 81.35028244,21.25396626 81.34986925,21.25375714 81.34958020,21.25348571 81.34917926,21.25348571 81.34941221,21.25390064 81.34959954,21.25430000 81.34975023,21.25457143 81.34969521,21.25484286 81.34983283,21.25511429 81.34999237,21.25539039 81.35019660,21.25592857 81.34994752,21.25620000 81.34999237,21.25673971 81.35057252,21.25667277 81.35115267,21.25656722 81.35169832,21.25647143</coordinates></LineString></Placemark><Placemark><name>285 m</name><LineString><coordinates>81.34680153,21.25407317 81.34651145,21.25380843 81.34651145,21.25374020 81.34709160,21.25368445 81.34709160,21.25397092 81.34680153,21.25407317</coordinates></LineString></Placemark><Placemark><name>285 m</name><LineString><coordinates>81.35844310,21.26162857 81.35898473,21.26141762 81.35920201,21.26108571 81.35932031,21.26081429 81.35956489,21.26032905 81.35969024,21.26000000 81.35983633,21.25945714 81.35995280,21.25918571 81.36013710,21.25864286 81.36037226,21.25837143 81.36063425,21.25810000 81.36101527,21.25798617 81.36130534,21.25811194 81.36174340,21.25837143 81.36217557,21.25861584 81.36246565,21.25878903 81.36304580,21.25887276 81.36362595,21.25875390 81.36391603,21.25856295 81.36420611,21.25875543 81.36449618,21.25915643 81.36455361,21.25945714 81.36461444,21.26000000 81.36470769,21.26054286 81.36487224,21.26081429 81.36536641,21.26105239 81.36594656,21.26092619 81.36623664,21.26079935 81.36681679,21.26056814 81.36710687,21.26032086 81.36729385,21.26000000 81.36711971,21.25945714 81.36739695,21.25916546 81.36790803,21.25891429 81.36825840,21.25864286 81.36855725,21.25840553 81.36884733,21.25824219 81.36918700,21.25810000 81.36943973,21.25782857 81.36924072,21.25755714 81.36884733,21.25733158 81.36855725,21.25727126 81.36826718,21.25731920 81.36768702,21.25728961 81.36749624,21.25701429 81.36724161,21.25674286 81.36704768,21.25647143 81.36681679,21.25601977 81.36652672,21.25575921 81.36623664,21.25561189 81.36565649,21.25539475 81.36536641,21.25533446 81.36478626,21.25530798 81.36420611,21.25522478 81.36362595,21.25517985 81.36304580,21.25521186 81.36253843,21.25538571 81.36217557,21.25551478 81.36188550,21.25566037 81.36131232,21.25592857 81.36101527,21.25606663 81.36072519,21.25623101 81.36039500,21.25647143 81.36014504,21.25676201 81.35982179,21.25701429 81.35953079,21.25728571 81.35898473,21.25753164 81.35869466,21.25758335 81.35811450,21.25763044 81.35753435,21.25766349 81.35695420,21.25770245 81.35637405,21.25771833 81.35608397,21.25787194 81.35577709,21.25810000 81.35579389,21.25857747 81.35593282,21.25891429 81.35604751,21.25945714 81.35611398,21.25972857 81.35616336,21.26027143 81.35624078,21.26081429 81.35639318,21.26108571 81.35666412,21.26151661 81.35695420,21.26172936 81.35753435,21.26177953 81.35811450,21.26172432 81.35844310,21.26162857</coordinates></LineString></Placemark><Placemark><name>285 m</name><LineString><coordinates>81.34246806,21.26081429 81.34274046,21.26029381 81.34275746,21.26000000 81.34332061,21.25985498 81.34361069,21.26011022 81.34390076,21.25994282 81.34419084,21.25953030 81.34419084,21.25942878 81.34390076,21.25916205 81.34365719,21.25945714 81.34343340,21.25945714 81.34303053,21.25935278 81.34245038,21.25932533 81.34216031,21.25951743 81.34187023,21.25983832 81.34158015,21.25961025 81.34141789,21.26000000 81.34158015,21.26036079 81.34187023,21.26072777 81.34241471,21.26081429 81.34246806,21.26081429</coordinates></LineString></Placemark><Placemark><name>285 m</name><LineString><coordinates>81.34100000,21.26916481 81.34158015,21.26908074 81.34207776,21.26895714 81.34245038,21.26879439 81.34296635,21.26868571 81.34332061,21.26854978 81.34390076,21.26846100 81.34419084,21.26833438 81.34448092,21.26811752 81.34506107,21.26805447 81.34558794,21.26787143 81.34593130,21.26768196 81.34633419,21.26760000 81.34678451,21.26732857 81.34681337,21.26732857 81.34732280,21.26732857 81.34743243,21.26732857 81.34796183,21.26734421 81.34826620,21.26732857 81.34838274,21.26678571 81.34796183,21.26651647 81.34767176,21.26650944 81.34726739,21.26624286 81.34712117,21.26570000 81.34680153,21.26555258 81.34651145,21.26587033 81.34632986,21.26542857 81.34635588,21.26488571 81.34623556,21.26434286 81.34606377,21.26434286 81.34573673,21.26461429 81.34564122,21.26515154 81.34532277,21.26488571 81.34556510,21.26461429 81.34546184,21.26407143 81.34557407,21.26352857 81.34506107,21.26349721 81.34480456,21.26380000 81.34469876,21.26380000 81.34423724,21.26352857 81.34390076,21.26341391 81.34353625,21.26325714 81.34332061,21.26283292 81.34285151,21.26298571 81.34245038,21.26318731 81.34187023,21.26315211 81.34158015,21.26271834 81.34129008,21.26245800</coordinates></LineString></Placemark><Placemark><name>285 m</name><LineString><coordinates>81.34100000,21.27441898 81.34108143,21.27411429 81.34125945,21.27357143 81.34155084,21.27330000 81.34168478,21.27302857 81.34160097,21.27248571 81.34145674,21.27221429 81.34138661,21.27167143 81.34129008,21.27115740</coordinates></LineString></Placemark><Placemark><name>285 m</name><LineString><coordinates>81.34284322,21.27465714 81.34253611,21.27438571 81.34216031,21.27430454 81.34187023,21.27395107 81.34134132,21.27411429 81.34158015,21.27462789 81.34216031,21.27459962 81.34245038,21.27467425 81.34284322,21.27465714</coordinates></LineString></Placemark><Placemark><name>290 m</name><LineString><coordinates>81.34729348,21.27900000 81.34720417,21.27845714 81.34767176,21.27821099 81.34767176,21.27810612 81.34767176,21.27774486 81.34783747,21.27737143 81.34797289,21.27710000 81.34779423,21.27682857 81.34750977,21.27655714 81.34792258,21.27628571 81.34799924,21.27628571 81.34834692,21.27628571 81.34824105,21.27601429 81.34854198,21.27587534 81.34883206,21.27559671 81.34912214,21.27523829 81.34914816,21.27492857 81.34926604,21.27438571 81.34958584,21.27411429 81.34999237,21.27399060 81.35028244,21.27411668 81.35054362,21.27465714 81.35058594,21.27492857 81.35115267,21.27501408 81.35130298,21.27465714 81.35138955,21.27411429 81.35173282,21.27388089 81.35202290,21.27373515 81.35260305,21.27373169 81.35289313,21.27352412 81.35319088,21.27357143 81.35376336,21.27363722 81.35405344,21.27354519 81.35434351,21.27368108 81.35465485,21.27357143 81.35492366,21.27307639 81.35531382,21.27302857 81.35550382,21.27265406 81.35594403,21.27275714 81.35617166,21.27275714 81.35625767,21.27221429 81.35588347,21.27194286 81.35608397,21.27148476 81.35637405,21.27173045 81.35666412,21.27202466 81.35681580,21.27167143 81.35683245,21.27112857 81.35674480,21.27058571 81.35666412,21.27025663 81.35637405,21.26984340 81.35608397,21.26969092 81.35604189,21.27004286 81.35600263,21.27058571 81.35588818,21.27112857 81.35570980,21.27112857 81.35538956,21.27085714 81.35539487,21.27031429 81.35508347,21.27004286 81.35533819,21.26977143 81.35524583,21.26922857 81.35550382,21.26873846 81.35561455,21.26841429 81.35537524,21.26841429 81.35495104,21.26841429 81.35490302,21.26814286 81.35463359,21.26780073 81.35428851,21.26760000 81.35412508,21.26705714 81.35424194,21.26651429 81.35444357,21.26624286 81.35473709,21.26597143 81.35466479,21.26542857 81.35434351,21.26530674 81.35405344,21.26556570 81.35377480,21.26515714 81.35379929,21.26461429 81.35372977,21.26434286 81.35388812,21.26407143 81.35427988,21.26380000 81.35463359,21.26357583 81.35485505,21.26325714 81.35463359,21.26296946 81.35413585,21.26271429 81.35463359,21.26255978 81.35469205,21.26217143 81.35467700,21.26162857 81.35468258,21.26108571 81.35470667,21.26054286 81.35470003,21.26000000 81.35467983,21.25945714 81.35492366,21.25912447 81.35535305,21.25918571 81.35550382,21.25959113 81.35560212,21.26000000 81.35550901,21.26054286 81.35570813,21.26108571 81.35577512,21.26162857 81.35599311,21.26190000 81.35608397,21.26224968 81.35637405,21.26245682 81.35671632,21.26244286 81.35665599,21.26217143 81.35695420,21.26216257 81.35753435,21.26211757 81.35811450,21.26197577 81.35840458,21.26189975 81.35898473,21.26186572 81.35898473,21.26208282 81.35898473,21.26237350 81.35939625,21.26217143 81.35956489,21.26174550 81.35985496,21.26153494 81.36041319,21.26162857 81.36072519,21.26180860 81.36101870,21.26162857 81.36076461,21.26135714 81.36056476,21.26108571 81.36014504,21.26102571 81.35985496,21.26120684 81.35984204,21.26081429 81.36003459,21.26054286 81.36038391,21.26027143 81.36072519,21.26022647 81.36101527,21.26035899 81.36159288,21.26054286 81.36188550,21.26060891 81.36246565,21.26056222 81.36253992,21.26027143 81.36227637,21.26000000 81.36272477,21.25972857 81.36304580,21.25965217 81.36344321,21.25945714 81.36365998,21.25945714 81.36391603,21.25974498 81.36434344,21.26000000 81.36449618,21.26041273 81.36455992,21.26081429 81.36478626,21.26118130 81.36536641,21.26134237 81.36589636,21.26135714 81.36623664,21.26139219 81.36650968,21.26108571 81.36668796,21.26081429 81.36701780,21.26054286 81.36731316,21.26027143 81.36739695,21.25981911 81.36739695,21.25957656 81.36739695,21.25944181 81.36772194,21.25918571 81.36823787,21.25891429 81.36855570,21.25864286 81.36884733,21.25845550 81.36913740,21.25836613 81.36960757,21.25810000 81.37000763,21.25785475 81.37000763,21.25778620 81.36971756,21.25738514 81.36936145,21.25728571 81.36887485,21.25701429 81.36855725,21.25698515 81.36826718,21.25705399 81.36790399,21.25701429 81.36763539,21.25674286 81.36739695,21.25644705 81.36720240,21.25592857 81.36683868,21.25565714 81.36652672,21.25550416 81.36621904,21.25538571 81.36565649,21.25517923 81.36507634,21.25513180 81.36456283,21.25511429 81.36420611,21.25504356 81.36362595,21.25504827 81.36304580,21.25506777 81.36275573,21.25514845 81.36217557,21.25537088 81.36188550,21.25545806 81.36147616,21.25565714 81.36101527,21.25581801 81.36043511,21.25591974 81.36014504,21.25603891 81.35956489,21.25614757 81.35927481,21.25622496 81.35869466,21.25620626 81.35840458,21.25611820 81.35803816,21.25592857 81.35753435,21.25588581 81.35724427,21.25592916 81.35666412,21.25616495 81.35608397,21.25600943 81.35583746,21.25565714 81.35576034,21.25565714 81.35572228,21.25620000 81.35550382,21.25653865 81.35521374,21.25694515 81.35477012,21.25674286 81.35467664,21.25620000 81.35472351,21.25565714 81.35477838,21.25511429 81.35521374,21.25489245 81.35550382,21.25480433 81.35579389,21.25488460 81.35604445,21.25457143 81.35637405,21.25433550 81.35666412,21.25420853 81.35724427,21.25428321 81.35753435,21.25434241 81.35811450,21.25431982 81.35840458,21.25408123 81.35869466,21.25394307 81.35927481,21.25379432 81.35985496,21.25376160 81.36014504,21.25352715 81.36044769,21.25348571 81.36014504,21.25335429 81.35982566,21.25321429 81.35927481,21.25305794 81.35898473,21.25273912 81.35874293,21.25240000 81.35869466,21.25210946 81.35811450,21.25206527 81.35753435,21.25189774 81.35724427,21.25163609 81.35716990,21.25131429 81.35709676,21.25077143 81.35692617,21.25050000 81.35661681,21.25022857 81.35666412,21.24972154 81.35681442,21.24941429 81.35695420,21.24897285 81.35728085,21.24887143 81.35753686,21.24860000 81.35748855,21.24832857 81.35738532,21.24778571 81.35782443,21.24769544 81.35811450,21.24734769 81.35821011,21.24697143 81.35840458,21.24661847 81.35869466,21.24640854 81.35923439,21.24615714 81.35943466,21.24588571 81.35985496,21.24577674 81.36043511,21.24575104 81.36084385,21.24561429 81.36112634,21.24534286 81.36157437,21.24507143 81.36188550,21.24488198 81.36188550,21.24467890 81.36130534,21.24464532 81.36077993,21.24480000 81.36043511,21.24492655 81.35985496,21.24493655 81.35946247,21.24480000 81.35923085,21.24452857 81.35920500,21.24398571 81.35933996,21.24371429 81.35911973,21.24344286 81.35898473,21.24301451 81.35860263,21.24290000 81.35876073,21.24262857 81.35865067,21.24262857 81.35814803,21.24262857 81.35795452,21.24235714 81.35782443,21.24202199 81.35753435,21.24210964 81.35724427,21.24239213 81.35695420,21.24231937 81.35642849,21.24235714 81.35608397,21.24251806 81.35550382,21.24241265 81.35521374,21.24224368 81.35492366,21.24237663 81.35455941,21.24262857 81.35434351,21.24290351 81.35402456,21.24317143 81.35347328,21.24334468 81.35339278,21.24290000 81.35289313,21.24277606 81.35235827,21.24290000 81.35213972,21.24317143 81.35206170,21.24371429 81.35173282,21.24379179 81.35153190,21.24344286 81.35115267,21.24334049 81.35057252,21.24324013 81.35011165,21.24317143 81.35028863,21.24290000 81.35027541,21.24290000 81.34970229,21.24311295 81.34941221,21.24329430 81.34912214,21.24357218 81.34873531,21.24371429 81.34862413,21.24425714 81.34825191,21.24427945 81.34796183,21.24418283 81.34796183,21.24374215 81.34799497,21.24344286 81.34802913,21.24290000 81.34787199,21.24262857 81.34782686,21.24208571 81.34738168,21.24187274 81.34680153,21.24192511 81.34622137,21.24192133 81.34604335,21.24154286 81.34640334,21.24127143</coordinates></LineString></Placemark><Placemark><name>290 m</name><LineString><coordinates>81.35028244,21.24460826 81.34994159,21.24452857 81.35011812,21.24425714 81.35043165,21.24425714 81.35028244,21.24460826</coordinates></LineString></Placemark><Placemark><name>290 m</name><LineString><coordinates>81.35057252,21.26097495 81.35004908,21.26081429 81.35028244,21.26042525 81.35057252,21.26056436 81.35057252,21.26097495</coordinates></LineString></Placemark><Placemark><name>290 m</name><LineString><coordinates>81.35347328,21.26600114 81.35339385,21.26570000 81.35347328,21.26528725 81.35373355,21.26570000 81.35347328,21.26600114</coordinates></LineString></Placemark><Placemark><name>290 m</name><LineString><coordinates>81.35637533,21.26922857 81.35614122,21.26895714 81.35604713,21.26895714 81.35637346,21.26922857 81.35637533,21.26922857</coordinates></LineString></Placemark><Placemark><name>290 m</name><LineString><coordinates>81.35347328,21.27291463 81.35318321,21.27275179 81.35307326,21.27221429 81.35327292,21.27194286 81.35314426,21.27167143 81.35347328,21.27149079 81.35376336,21.27172221 81.35386826,21.27221429 81.35376336,21.27260324 81.35347328,21.27291463</coordinates></LineString></Placemark><Placemark><name>290 m</name><LineString><coordinates>81.35463359,21.27319722 81.35434576,21.27275714 81.35463359,21.27230259 81.35499400,21.27248571 81.35492366,21.27292663 81.35463359,21.27319722</coordinates></LineString></Placemark><Placemark><name>290 m</name><LineString><coordinates>81.34622137,21.27884265 81.34593130,21.27852165 81.34593130,21.27840523 81.34642946,21.27845714 81.34622137,21.27884265</coordinates></LineString></Placemark><Placemark><name>295 m</name><LineString><coordinates>81.37182421,21.27900000 81.37145802,21.27876078 81.37106992,21.27872857 81.37099167,21.27818571 81.37087786,21.27774213 81.37080347,21.27737143 81.37071278,21.27682857 81.37058779,21.27643190 81.37029771,21.27611013 81.37005951,21.27574286 81.36971756,21.27562984 81.36942748,21.27521924 81.36932703,21.27492857 81.36884733,21.27489369 81.36826718,21.27485806 81.36781744,21.27492857 81.36761001,21.27492857 81.36710687,21.27489635 81.36676295,21.27492857 81.36623664,21.27501448 81.36574658,21.27520000 81.36536641,21.27531322 81.36478626,21.27521331 81.36449213,21.27547143 81.36418722,21.27574286 81.36391603,21.27606811 81.36354137,21.27601429 81.36336245,21.27547143 81.36304580,21.27545501 81.36275573,21.27558822 81.36217557,21.27570862 81.36189297,21.27520000 81.36188550,21.27490810 81.36188550,21.27443415 81.36217557,21.27426552 81.36217557,21.27392297 81.36205445,21.27357143 81.36200983,21.27302857 81.36188550,21.27268966 81.36159542,21.27235728 81.36130534,21.27202392 81.36113884,21.27167143 81.36101263,21.27140000 81.36072519,21.27096490 81.36069325,21.27058571 81.36043511,21.27014142 81.36014504,21.26986723 81.36010404,21.26950000 81.36014504,21.26913947 81.36044892,21.26922857 81.36101527,21.26932963 81.36127058,21.26977143 81.36140192,21.26977143 81.36188550,21.26951095 81.36217557,21.26946189 81.36275573,21.26928530 81.36331594,21.26922857 81.36362595,21.26917098 81.36407539,21.26922857 81.36420611,21.26956628 81.36466030,21.26977143 81.36486622,21.26977143 81.36507634,21.26948644 81.36540901,21.26922857 81.36566624,21.26895714 81.36623664,21.26878589 81.36681679,21.26874975 81.36734106,21.26868571 81.36732075,21.26814286 81.36748338,21.26787143 81.36778942,21.26760000 81.36797710,21.26730996 81.36840520,21.26732857 81.36878951,21.26732857 81.36887406,21.26732857 81.36914730,21.26760000 81.36966276,21.26787143 81.36995981,21.26814286 81.37001795,21.26841429 81.37046138,21.26868571 81.37065984,21.26868571 81.37087786,21.26833378 81.37135996,21.26841429 81.37174809,21.26856479 81.37203817,21.26878247 81.37256775,21.26868571 81.37290840,21.26868039 81.37319847,21.26872294 81.37351966,21.26868571 81.37406870,21.26855856 81.37459282,21.26841429 81.37493893,21.26818191 81.37528885,21.26814286 81.37493893,21.26792196 81.37464885,21.26775226 81.37459163,21.26732857 81.37469872,21.26705714 81.37501992,21.26678571 81.37527067,21.26651429 81.37580916,21.26630502 81.37609924,21.26617064 81.37631475,21.26570000 81.37631505,21.26515714 81.37593845,21.26488571 81.37552374,21.26461429 81.37547492,21.26434286 81.37503365,21.26434286 81.37467256,21.26461429 81.37435878,21.26476569 81.37392745,21.26461429 81.37394309,21.26407143 81.37385925,21.26352857 81.37406870,21.26303483 81.37410943,21.26271429 81.37377863,21.26248863 81.37348855,21.26236495 81.37348855,21.26210188 81.37386554,21.26190000 81.37414440,21.26162857 81.37377863,21.26143867 81.37358978,21.26108571 81.37406870,21.26097648 81.37435878,21.26072754 81.37493893,21.26067196 81.37518354,21.26108571 81.37535202,21.26108571 81.37566365,21.26081429 81.37580916,21.26030907 81.37587561,21.26000000 81.37580916,21.25969805 81.37551908,21.25997126 81.37493893,21.25995859 81.37464885,21.26018256 81.37435878,21.26050842 81.37400766,21.26027143 81.37406870,21.25981666 81.37406870,21.25970353 81.37377863,21.25974631 81.37319847,21.25995456 81.37261832,21.25996223 81.37203817,21.25989132 81.37187224,21.25945714 81.37195611,21.25891429 81.37206050,21.25864286 81.37224551,21.25810000 81.37261832,21.25791742 81.37296514,21.25782857 81.37348855,21.25766602 81.37400893,21.25755714 81.37434150,21.25728571 81.37444237,21.25701429 81.37464885,21.25663880 81.37493893,21.25633207 81.37522901,21.25612284 81.37546279,21.25565714 81.37529882,21.25511429 81.37517478,21.25484286 81.37491209,21.25457143 81.37462771,21.25430000 81.37453179,21.25375714 81.37464885,21.25325653 81.37483546,21.25294286 81.37464885,21.25255553 81.37406870,21.25256650 81.37375912,21.25267143 81.37348855,21.25317943 81.37319847,21.25324949 81.37288774,21.25348571 81.37259975,21.25375714 81.37203817,21.25376183 81.37174809,21.25369778 81.37169624,21.25402857 81.37156074,21.25457143 81.37136347,21.25457143 81.37116794,21.25409960 81.37089023,21.25375714 81.37085758,21.25375714 81.37029771,21.25402238 81.36971756,21.25401016 81.36942748,21.25417818 81.36916847,21.25457143 81.36901198,21.25484286 81.36884733,21.25516602 81.36826718,21.25511546 81.36826718,21.25511237 81.36826718,21.25479242 81.36797710,21.25503512 81.36768702,21.25520245 81.36710687,21.25532948 81.36652672,21.25520634 81.36623664,21.25510246 81.36565649,21.25494457 81.36507634,21.25491197 81.36478626,21.25480672 81.36457973,21.25430000 81.36479609,21.25402857 81.36522566,21.25375714 81.36560513,21.25348571 81.36594656,21.25323833 81.36652672,21.25321804 81.36681679,21.25311269 81.36739695,21.25300266 81.36797710,21.25300947 81.36855725,21.25316797 81.36879261,21.25267143 81.36884733,21.25233890 81.36884733,21.25195354 81.36855725,21.25183452 81.36799705,21.25158571 81.36849393,21.25131429 81.36812292,21.25131429 81.36768702,21.25141445 81.36710687,21.25140524 81.36681679,21.25129652 81.36650511,21.25131429 81.36626132,21.25185714 81.36594656,21.25206708 81.36565649,21.25226647 81.36516440,21.25212857 81.36505004,21.25185714 81.36449618,21.25161526 81.36449234,21.25131429 81.36449618,21.25096429 81.36478626,21.25076288 81.36507634,21.25049423 81.36525175,21.25077143 81.36565649,21.25090366 81.36623664,21.25085945 81.36663315,21.25077143 81.36652672,21.25036971 81.36623664,21.25003309 81.36623664,21.24993692 81.36673997,21.24968571 81.36681765,21.24941429 81.36659918,21.24914286 81.36681679,21.24883561 81.36739695,21.24877031 81.36784216,21.24887143 81.36797710,21.24915300 81.36838168,21.24914286 81.36826718,21.24884838 81.36780265,21.24860000 81.36826718,21.24843241 81.36841426,21.24805714 81.36826718,21.24773859 81.36806724,21.24724286 81.36793744,21.24697143 81.36797710,21.24666592 81.36819934,21.24615714 81.36855725,21.24589050 81.36864568,21.24561429 81.36868325,21.24507143 81.36855725,21.24469202 81.36855725,21.24451028 81.36913740,21.24427877 81.36925946,21.24398571 81.36913672,21.24371429 81.36884733,21.24332744 81.36826718,21.24327110 81.36768702,21.24342076 81.36756214,21.24371429 81.36710687,21.24392531 81.36652672,21.24388287 81.36619739,21.24371429 81.36594656,21.24333862 81.36577964,21.24290000 81.36576535,21.24235714 81.36536641,21.24223007 81.36495451,21.24208571 81.36449618,21.24189670 81.36411717,21.24181429 81.36362595,21.24167135 81.36327280,21.24181429 81.36276183,21.24181429 81.36246565,21.24173290 81.36216217,21.24154286 81.36246565,21.24137812 81.36275573,21.24110125 81.36305842,21.24100000</coordinates></LineString></Placemark><Placemark><name>295 m</name><LineString><coordinates>81.36495783,21.24100000 81.36455985,21.24127143 81.36491051,21.24154286 81.36526577,21.24154286 81.36565649,21.24132564 81.36565649,21.24126047 81.36510448,21.24100000</coordinates></LineString></Placemark><Placemark><name>295 m</name><LineString><coordinates>81.36710687,21.24828581 81.36661156,21.24805714 81.36681679,21.24758788 81.36729826,21.24778571 81.36710687,21.24828581</coordinates></LineString></Placemark><Placemark><name>295 m</name><LineString><coordinates>81.36188550,21.25060218 81.36159542,21.25045329 81.36144660,21.24995714 81.36188315,21.24995714 81.36196493,21.25022857 81.36188550,21.25060218</coordinates></LineString></Placemark><Placemark><name>295 m</name><LineString><coordinates>81.37900000,21.25063422 81.37870992,21.25037061 81.37841491,21.25022857 81.37783969,21.25013248 81.37747151,21.25022857 81.37696947,21.25035134 81.37638931,21.25036149 81.37580916,21.25038064 81.37574389,21.25077143 81.37580916,21.25120224 81.37589535,21.25158571 81.37604923,21.25212857 81.37619056,21.25240000 81.37609924,21.25269827 81.37595035,21.25321429 81.37609924,21.25356317 81.37630115,21.25402857 81.37638931,21.25432150 81.37662588,21.25484286 81.37676959,21.25511429 81.37701620,21.25538571 81.37704402,21.25592857 81.37695580,21.25620000 81.37703495,21.25647143 81.37725954,21.25692557 81.37754962,21.25712364 81.37783969,21.25693386 81.37841985,21.25675104 81.37867981,21.25647143 81.37900000,21.25643654</coordinates></LineString></Placemark><Placemark><name>295 m</name><LineString><coordinates>81.35927481,21.25580361 81.35869466,21.25587295 81.35824372,21.25565714 81.35782443,21.25544635 81.35728393,21.25565714 81.35695420,21.25575195 81.35637405,21.25575660 81.35615993,21.25538571 81.35620421,21.25484286 81.35648837,21.25457143 81.35695420,21.25446003 81.35743037,21.25457143 81.35782443,21.25466976 81.35822977,21.25457143 81.35869130,21.25430000 81.35898473,21.25414763 81.35956489,21.25407257 81.36014504,21.25411462 81.36043511,21.25438030 81.36072519,21.25465735 81.36114941,21.25457143 81.36153007,21.25430000 81.36180847,21.25402857 81.36217557,21.25376176 81.36246565,21.25358735 81.36287109,21.25348571 81.36333588,21.25332739 81.36391603,21.25328268 81.36420611,21.25353389 81.36443868,21.25402857 81.36437925,21.25457143 81.36397244,21.25484286 81.36362595,21.25489623 81.36304580,21.25487132 81.36246565,21.25499040 81.36188550,21.25506361 81.36159542,21.25521469 81.36130534,21.25541616 81.36072519,21.25555905 81.36014504,21.25558047 81.35956489,21.25563767 81.35927481,21.25580361</coordinates></LineString></Placemark><Placemark><name>295 m</name><LineString><coordinates>81.37630925,21.25592857 81.37649316,21.25565714 81.37638931,21.25531758 81.37609924,21.25539169 81.37580916,21.25590590 81.37580916,21.25593756 81.37630925,21.25592857</coordinates></LineString></Placemark><Placemark><name>295 m</name><LineString><coordinates>81.37350924,21.25918571 81.37377863,21.25867052 81.37425218,21.25864286 81.37406870,21.25826663 81.37377863,21.25854963 81.37348855,21.25881492 81.37311606,21.25891429 81.37345986,21.25918571 81.37350924,21.25918571</coordinates></LineString></Placemark><Placemark><name>295 m</name><LineString><coordinates>81.36826718,21.26110606 81.36768702,21.26125020 81.36710687,21.26135635 81.36705125,21.26081429 81.36728543,21.26054286 81.36768702,21.26031682 81.36797710,21.26002015 81.36826718,21.25979962 81.36872173,21.25972857 81.36913740,21.25957127 81.36971756,21.25969064 81.37029771,21.25963829 81.37087786,21.25948631 81.37116794,21.25940842 81.37145802,21.25957643 81.37145802,21.25983819 81.37116794,21.26007550 81.37058779,21.26016864 81.37029771,21.26047794 81.36971756,21.26052885 81.36942748,21.26071081 81.36913740,21.26084267 81.36855725,21.26104660 81.36826718,21.26110606</coordinates></LineString></Placemark><Placemark><name>295 m</name><LineString><coordinates>81.35550382,21.26247097 81.35524681,21.26217143 81.35519624,21.26190000 81.35515809,21.26135714 81.35521374,21.26103630 81.35531489,21.26135714 81.35550851,21.26162857 81.35562563,21.26217143 81.35550382,21.26247097</coordinates></LineString></Placemark><Placemark><name>295 m</name><LineString><coordinates>81.37029771,21.26165173 81.36990273,21.26162857 81.36952046,21.26135714 81.37000763,21.26123146 81.37029771,21.26145109 81.37029771,21.26165173</coordinates></LineString></Placemark><Placemark><name>295 m</name><LineString><coordinates>81.36275573,21.26282200 81.36225253,21.26271429 81.36270488,21.26244286 81.36230895,21.26217143 81.36246565,21.26184444 81.36304580,21.26181615 81.36362595,21.26172298 81.36395518,21.26162857 81.36449618,21.26156775 81.36478626,21.26172143 81.36536641,21.26182364 81.36567368,21.26190000 81.36536641,21.26194636 81.36496647,21.26217143 81.36449618,21.26240943 81.36420611,21.26246979 81.36362595,21.26265583 81.36304580,21.26268911 81.36275573,21.26282200</coordinates></LineString></Placemark><Placemark><name>295 m</name><LineString><coordinates>81.35637405,21.26326780 81.35596349,21.26325714 81.35605744,21.26271429 81.35609904,21.26271429 81.35640285,21.26298571 81.35637405,21.26326780</coordinates></LineString></Placemark><Placemark><name>295 m</name><LineString><coordinates>81.36101527,21.26332167 81.36043511,21.26326479 81.36043511,21.26324917 81.36085715,21.26298571 81.36130534,21.26291306 81.36188550,21.26279442 81.36225633,21.26298571 81.36188550,21.26313275 81.36130534,21.26318482 81.36101527,21.26332167</coordinates></LineString></Placemark><Placemark><name>295 m</name><LineString><coordinates>81.36275573,21.26697089 81.36243687,21.26678571 81.36261419,21.26651429 81.36288330,21.26651429 81.36275573,21.26697089</coordinates></LineString></Placemark><Placemark><name>295 m</name><LineString><coordinates>81.37406870,21.26800094 81.37372262,21.26787143 81.37377863,21.26755190 81.37415731,21.26760000 81.37406870,21.26800094</coordinates></LineString></Placemark><Placemark><name>300 m</name><LineString><coordinates>81.37900000,21.24464767 81.37869070,21.24480000 81.37860165,21.24534286 81.37812977,21.24536793 81.37783969,21.24526595 81.37725954,21.24507605 81.37695792,21.24534286 81.37693049,21.24588571 81.37638931,21.24604547 81.37609924,21.24626605 81.37574751,21.24642857 81.37533937,21.24670000 81.37522901,21.24704116 81.37509095,21.24751429 81.37493893,21.24804834 81.37483142,21.24832857 81.37493893,21.24869567 81.37522901,21.24890506 81.37566526,21.24914286 81.37581741,21.24941429 81.37588679,21.24995714 81.37551908,21.25015231 81.37522901,21.25025289 81.37464885,21.25039787 81.37410379,21.25022857 81.37406870,21.24991489 81.37348855,21.24973469 81.37335506,21.24941429 81.37331838,21.24887143 81.37319847,21.24858244 81.37290840,21.24882583 81.37261832,21.24894037 81.37232824,21.24931610 81.37217463,21.24968571 81.37203817,21.25011560 81.37172930,21.24995714 81.37154763,21.24941429 81.37169918,21.24887143 81.37185097,21.24860000 81.37203817,21.24830996 81.37232824,21.24780443 81.37255430,21.24751429 81.37266875,21.24724286 81.37290840,21.24688784 81.37310666,21.24642857 81.37290840,21.24590569 81.37288820,21.24561429 81.37309983,21.24534286 81.37334912,21.24507143 81.37358474,21.24480000 81.37374766,21.24425714 81.37357008,21.24371429 81.37346771,21.24344286 81.37348855,21.24309106 81.37364453,21.24262857 81.37343224,21.24235714 81.37334961,21.24181429 81.37316140,21.24154286 81.37319847,21.24101834 81.37349455,21.24100000</coordinates></LineString></Placemark><Placemark><name>300 m</name><LineString><coordinates>81.37087786,21.25051015 81.37029771,21.25053123 81.36971756,21.25054669 81.36971756,21.25044369 81.37000763,21.25017867 81.37058779,21.25013686 81.37087786,21.25041598 81.37087786,21.25051015</coordinates></LineString></Placemark><Placemark><name>300 m</name><LineString><coordinates>81.37551908,21.25274086 81.37522901,21.25258371 81.37515995,21.25212857 81.37493893,21.25164089 81.37435878,21.25167786 81.37377863,21.25167435 81.37348855,21.25148701 81.37348855,21.25116518 81.37386998,21.25131429 81.37435878,21.25148562 81.37489067,21.25131429 81.37493893,21.25088715 81.37522901,21.25076822 81.37523445,21.25104286 81.37498555,21.25131429 81.37537410,21.25158571 81.37560504,21.25185714 81.37575677,21.25240000 81.37551908,21.25274086</coordinates></LineString></Placemark><Placemark><name>300 m</name><LineString><coordinates>81.37029771,21.25351335 81.36971756,21.25358982 81.36955508,21.25321429 81.36976197,21.25294286 81.36988790,21.25240000 81.37016530,21.25212857 81.37030329,21.25185714 81.37080114,21.25158571 81.37106323,21.25131429 81.37145802,21.25109663 81.37203817,21.25109753 81.37261832,21.25107935 81.37290840,21.25136648 81.37312747,21.25185714 81.37284918,21.25212857 81.37240837,21.25240000 81.37203817,21.25263224 81.37174809,21.25290769 81.37145802,21.25306214 81.37116794,21.25326672 81.37087786,21.25313086 81.37058779,21.25332121 81.37029771,21.25351335</coordinates></LineString></Placemark><Placemark><name>300 m</name><LineString><coordinates>81.36391603,21.25466216 81.36333588,21.25470691 81.36275573,21.25463242 81.36217557,21.25466505 81.36181984,21.25457143 81.36190251,21.25430000 81.36217557,21.25402745 81.36268035,21.25375714 81.36304580,21.25362693 81.36361312,21.25348571 81.36364327,21.25348571 81.36415186,21.25375714 81.36429303,21.25402857 81.36420611,21.25441422 81.36391603,21.25466216</coordinates></LineString></Placemark><Placemark><name>300 m</name><LineString><coordinates>81.36768702,21.25487935 81.36710687,21.25500061 81.36652672,21.25496167 81.36612876,21.25484286 81.36565649,21.25473130 81.36507634,21.25470845 81.36486752,21.25430000 81.36515130,21.25402857 81.36559493,21.25375714 81.36594656,21.25352994 81.36623664,21.25346838 81.36681679,21.25339534 81.36739695,21.25329938 81.36797710,21.25335314 81.36826718,21.25367015 81.36841982,21.25402857 81.36826718,21.25436985 81.36797710,21.25468645 81.36768702,21.25487935</coordinates></LineString></Placemark><Placemark><name>300 m</name><LineString><coordinates>81.35898473,21.25566015 81.35869466,21.25561554 81.35830974,21.25538571 81.35794589,21.25511429 81.35811450,21.25484283 81.35859351,21.25457143 81.35898473,21.25432565 81.35927481,21.25423360 81.35985496,21.25425061 81.36014504,21.25435162 81.36043511,21.25476891 81.36072519,21.25506068 81.36107742,21.25511429 81.36072519,21.25517953 81.36014504,21.25527178 81.35985496,21.25539958 81.35927481,21.25557063 81.35898473,21.25566015</coordinates></LineString></Placemark><Placemark><name>300 m</name><LineString><coordinates>81.37609924,21.25485309 81.37571642,21.25484286 81.37580916,21.25455273 81.37609924,21.25479932 81.37609924,21.25485309</coordinates></LineString></Placemark><Placemark><name>300 m</name><LineString><coordinates>81.35724427,21.25547527 81.35666412,21.25554505 81.35637405,21.25535772 81.35637405,21.25498063 81.35666412,21.25467078 81.35724427,21.25474311 81.35754671,21.25484286 81.35753435,21.25536549 81.35724427,21.25547527</coordinates></LineString></Placemark><Placemark><name>300 m</name><LineString><coordinates>81.37609924,21.25897807 81.37551908,21.25898517 81.37513782,21.25891429 81.37490601,21.25864286 81.37493893,21.25814682 81.37522901,21.25798047 81.37542282,21.25755714 81.37532199,21.25701429 81.37551908,21.25672853 81.37580916,21.25680836 81.37638931,21.25675975 81.37680269,21.25701429 81.37684553,21.25755714 81.37697939,21.25782857 81.37754962,21.25804917 81.37754962,21.25819422 81.37725954,21.25840594 81.37673499,21.25864286 81.37638931,21.25885877 81.37609924,21.25897807</coordinates></LineString></Placemark><Placemark><name>300 m</name><LineString><coordinates>81.37319847,21.25840507 81.37261832,21.25839642 81.37261832,21.25834782 81.37293276,21.25810000 81.37348855,21.25800175 81.37348855,21.25826213 81.37319847,21.25840507</coordinates></LineString></Placemark><Placemark><name>300 m</name><LineString><coordinates>81.37290840,21.25975668 81.37232824,21.25974592 81.37218779,21.25945714 81.37232824,21.25897045 81.37261832,21.25881936 81.37290840,21.25903895 81.37319847,21.25942166 81.37319847,21.25951572 81.37290840,21.25975668</coordinates></LineString></Placemark><Placemark><name>300 m</name><LineString><coordinates>81.36855725,21.26086509 81.36797710,21.26084704 81.36752213,21.26081429 81.36786598,21.26054286 81.36819825,21.26027143 81.36851740,21.26000000 81.36884733,21.25997227 81.36942748,21.25999710 81.36962266,21.26027143 81.36925991,21.26054286 81.36884733,21.26077375 81.36855725,21.26086509</coordinates></LineString></Placemark><Placemark><name>300 m</name><LineString><coordinates>81.36362595,21.26244496 81.36335993,21.26217143 81.36391603,21.26199351 81.36391603,21.26224967 81.36362595,21.26244496</coordinates></LineString></Placemark><Placemark><name>300 m</name><LineString><coordinates>81.36884733,21.26981369 81.36859420,21.26950000 81.36895643,21.26922857 81.36942748,21.26896897 81.36972414,21.26922857 81.36971756,21.26965094 81.36913740,21.26974540 81.36884733,21.26981369</coordinates></LineString></Placemark><Placemark><name>300 m</name><LineString><coordinates>81.36652672,21.27339179 81.36623664,21.27302895 81.36594656,21.27280344 81.36565649,21.27274509 81.36556552,21.27221429 81.36565649,21.27192495 81.36594656,21.27209978 81.36623664,21.27243495 81.36652672,21.27250391 81.36686106,21.27275714 81.36672071,21.27302857 81.36652672,21.27339179</coordinates></LineString></Placemark><Placemark><name>300 m</name><LineString><coordinates>81.37870992,21.27231937 81.37834375,21.27221429 81.37841985,21.27179259 81.37889191,21.27194286 81.37870992,21.27231937</coordinates></LineString></Placemark><Placemark><name>300 m</name><LineString><coordinates>81.36420611,21.27277225 81.36391603,21.27261896 81.36391603,21.27225612 81.36420611,21.27212993 81.36435366,21.27248571 81.36420611,21.27277225</coordinates></LineString></Placemark><Placemark><name>300 m</name><LineString><coordinates>81.37900000,21.27861455 81.37870992,21.27836248 81.37812977,21.27823207 81.37754962,21.27828173 81.37754962,21.27804718 81.37787973,21.27791429 81.37826927,21.27764286 81.37783969,21.27746644 81.37754962,21.27727441 81.37722618,21.27737143 81.37696947,21.27770589 81.37655384,21.27764286 81.37637062,21.27737143 81.37643188,21.27710000 81.37638931,21.27672492 81.37580916,21.27669778 81.37546886,21.27655714 81.37560818,21.27628571 81.37566923,21.27574286 81.37559376,21.27520000 81.37551908,21.27475646 81.37522901,21.27448432 81.37493893,21.27431910 81.37464885,21.27397769 81.37455996,21.27357143 81.37493893,21.27335614 81.37529338,21.27330000 81.37560969,21.27330000 81.37609924,21.27336607 81.37667939,21.27342015 81.37725954,21.27342848 81.37783969,21.27348965 81.37841985,21.27330483 81.37868487,21.27302857 81.37876610,21.27302857</coordinates></LineString></Placemark><Placemark><name>300 m</name><LineString><coordinates>81.37703465,21.27601429 81.37688249,21.27574286 81.37648048,21.27574286 81.37667939,21.27609526 81.37703465,21.27601429</coordinates></LineString></Placemark><Placemark><name>305 m</name><LineString><coordinates>81.37900000,21.24256186 81.37841985,21.24262583 81.37812977,21.24280322 81.37783969,21.24305911 81.37754962,21.24323749 81.37730521,21.24290000 81.37696947,21.24265217 81.37667939,21.24298557 81.37635338,21.24317143 81.37609924,21.24359397 81.37580916,21.24381975 81.37563883,21.24344286 81.37574528,21.24290000 81.37582037,21.24262857 81.37601414,21.24208571 81.37629950,21.24181429 81.37645730,21.24154286 81.37609924,21.24131826 81.37609924,21.24123068 81.37646770,21.24100000</coordinates></LineString></Placemark><Placemark><name>305 m</name><LineString><coordinates>81.37784830,21.24208571 81.37841985,21.24184560 81.37841985,21.24178244 81.37805909,21.24181429 81.37783309,21.24208571 81.37784830,21.24208571</coordinates></LineString></Placemark><Placemark><name>305 m</name><LineString><coordinates>81.37406870,21.24715385 81.37396409,21.24670000 81.37435286,21.24642857 81.37436103,21.24642857 81.37435878,21.24682241 81.37406870,21.24715385</coordinates></LineString></Placemark><Placemark><name>305 m</name><LineString><coordinates>81.37145802,21.25281599 81.37087786,21.25287720 81.37032469,21.25267143 81.37025153,21.25240000 81.37050570,21.25212857 81.37087786,21.25202019 81.37118022,21.25185714 81.37145802,21.25153994 81.37203817,21.25133642 81.37232824,21.25129940 81.37261832,21.25141404 81.37286471,21.25185714 81.37253280,21.25212857 81.37213260,21.25240000 81.37174809,21.25263940 81.37145802,21.25281599</coordinates></LineString></Placemark><Placemark><name>305 m</name><LineString><coordinates>81.36768702,21.25460640 81.36710687,21.25460464 81.36652672,21.25469240 81.36594656,21.25459261 81.36565649,21.25451488 81.36510261,21.25430000 81.36553528,21.25402857 81.36592044,21.25375714 81.36623664,21.25367437 81.36681679,21.25359459 81.36735407,21.25348571 81.36768702,21.25347282 81.36797710,21.25364402 81.36814051,21.25402857 81.36797710,21.25438481 81.36768702,21.25460640</coordinates></LineString></Placemark><Placemark><name>305 m</name><LineString><coordinates>81.36391603,21.25442831 81.36333588,21.25450571 81.36277294,21.25430000 81.36304580,21.25385909 81.36341934,21.25375714 81.36391603,21.25375105 81.36406338,21.25402857 81.36391603,21.25442831</coordinates></LineString></Placemark><Placemark><name>305 m</name><LineString><coordinates>81.35927481,21.25539567 81.35871813,21.25538571 81.35840458,21.25512154 81.35840458,21.25509325 81.35869466,21.25472541 81.35898473,21.25452319 81.35956489,21.25446347 81.35993297,21.25457143 81.35986061,21.25511429 81.35956489,21.25527325 81.35927481,21.25539567</coordinates></LineString></Placemark><Placemark><name>305 m</name><LineString><coordinates>81.37290840,21.25945991 81.37251793,21.25945714 81.37261832,21.25914055 81.37290840,21.25945165 81.37290840,21.25945991</coordinates></LineString></Placemark><Placemark><name>310 m</name><LineString><coordinates>81.37831526,21.24100000 81.37812977,21.24134642 81.37783969,21.24156479 81.37745308,21.24181429 81.37696947,21.24181807 81.37696947,21.24181046 81.37721981,21.24127143 81.37754962,21.24104346</coordinates></LineString></Placemark><Placemark><name>310 m</name><LineString><coordinates>81.37174809,21.25243082 81.37124353,21.25240000 81.37170118,21.25212857 81.37174809,21.25184286 81.37222233,21.25158571 81.37261832,21.25157568 81.37267083,21.25185714 81.37232824,21.25201827 81.37203817,21.25220269 81.37174809,21.25243082</coordinates></LineString></Placemark></Document></kml>